state;mortality_rate;country_code;postal_code;place_name;state_name;county_name
baden-wurttemberg;1.0780833829115373;DE;77876;kappelrodeck;baden-wurttemberg;freiburg region
baden-wurttemberg;1.0780833829115373;DE;74199;untergruppenbach;baden-wurttemberg;regierungsbezirk stuttgart
baden-wurttemberg;1.0780833829115373;DE;79189;bad krozingen;baden-wurttemberg;freiburg region
baden-wurttemberg;1.0780833829115373;DE;72764;reutlingen;baden-wurttemberg;tubingen region
baden-wurttemberg;1.0780833829115373;DE;88353;kisslegg;baden-wurttemberg;tubingen region
baden-wurttemberg;1.0780833829115373;DE;78244;gottmadingen;baden-wurttemberg;freiburg region
baden-wurttemberg;1.0780833829115373;DE;78098;triberg;baden-wurttemberg;freiburg region
baden-wurttemberg;1.0780833829115373;DE;76467;bietigheim;baden-wurttemberg;karlsruhe region
baden-wurttemberg;1.0780833829115373;DE;71364;winnenden;baden-wurttemberg;regierungsbezirk stuttgart
baden-wurttemberg;1.0780833829115373;DE;69469;weinheim;baden-wurttemberg;karlsruhe region
baden-wurttemberg;1.0780833829115373;DE;76448;durmersheim;baden-wurttemberg;karlsruhe region
baden-wurttemberg;1.0780833829115373;DE;70184;stuttgart, stuttgart stuttgart-ost, stuttgart stuttgart-mitte, stuttgart frauenkopf, stuttgart stuttgart-sud;baden-wurttemberg;regierungsbezirk stuttgart
baden-wurttemberg;1.0780833829115373;DE;75385;bad teinach-zavelstein;baden-wurttemberg;karlsruhe region
baden-wurttemberg;1.0780833829115373;DE;68199;mannheim;baden-wurttemberg;karlsruhe region
baden-wurttemberg;1.0780833829115373;DE;74906;bad rappenau;baden-wurttemberg;regierungsbezirk stuttgart
baden-wurttemberg;1.0780833829115373;DE;74072;heilbronn;baden-wurttemberg;regierungsbezirk stuttgart
baden-wurttemberg;1.0780833829115373;DE;70173;stuttgart stuttgart-mitte, stuttgart;baden-wurttemberg;regierungsbezirk stuttgart
baden-wurttemberg;1.0780833829115373;DE;73312;geislingen an der steige, geislingen an der steige turkheim, geislingen an der steige aufhausen;baden-wurttemberg;regierungsbezirk stuttgart
baden-wurttemberg;1.0780833829115373;DE;79541;lorrach;baden-wurttemberg;freiburg region
baden-wurttemberg;1.0780833829115373;DE;74594;kressberg;baden-wurttemberg;regierungsbezirk stuttgart
baden-wurttemberg;1.0780833829115373;DE;68535;edingen-neckarhausen;baden-wurttemberg;karlsruhe region
baden-wurttemberg;1.0780833829115373;DE;68165;mannheim;baden-wurttemberg;karlsruhe region
baden-wurttemberg;1.0780833829115373;DE;74336;brackenheim;baden-wurttemberg;regierungsbezirk stuttgart
baden-wurttemberg;1.0780833829115373;DE;68542;heddesheim;baden-wurttemberg;karlsruhe region
baden-wurttemberg;1.0780833829115373;DE;89073;ulm;baden-wurttemberg;tubingen region
baden-wurttemberg;1.0780833829115373;DE;73730;esslingen am neckar;baden-wurttemberg;regierungsbezirk stuttgart
baden-wurttemberg;1.0780833829115373;DE;70174;stuttgart stuttgart-nord, stuttgart, stuttgart stuttgart-mitte;baden-wurttemberg;regierungsbezirk stuttgart
baden-wurttemberg;1.0780833829115373;DE;79189;bad krozingen;baden-wurttemberg;freiburg region
baden-wurttemberg;1.0780833829115373;DE;79211;denzlingen;baden-wurttemberg;freiburg region
baden-wurttemberg;1.0780833829115373;DE;73479;ellwangen (jagst);baden-wurttemberg;regierungsbezirk stuttgart
baden-wurttemberg;1.0780833829115373;DE;68165;mannheim;baden-wurttemberg;karlsruhe region
baden-wurttemberg;1.0780833829115373;DE;88364;wolfegg;baden-wurttemberg;tubingen region
baden-wurttemberg;1.0780833829115373;DE;89616;rottenacker;baden-wurttemberg;tubingen region
baden-wurttemberg;1.0780833829115373;DE;75323;bad wildbad im schwarzwald;baden-wurttemberg;karlsruhe region
baden-wurttemberg;1.0780833829115373;DE;76530;baden-baden;baden-wurttemberg;karlsruhe region
baden-wurttemberg;1.0780833829115373;DE;74379;ingersheim;baden-wurttemberg;regierungsbezirk stuttgart
baden-wurttemberg;1.0780833829115373;DE;75433;maulbronn;baden-wurttemberg;karlsruhe region
baden-wurttemberg;1.0780833829115373;DE;68163;mannheim;baden-wurttemberg;karlsruhe region
baden-wurttemberg;1.0780833829115373;DE;74072;heilbronn;baden-wurttemberg;regierungsbezirk stuttgart
baden-wurttemberg;1.0780833829115373;DE;79312;emmendingen;baden-wurttemberg;freiburg region
baden-wurttemberg;1.0780833829115373;DE;73207;plochingen;baden-wurttemberg;regierungsbezirk stuttgart
baden-wurttemberg;1.0780833829115373;DE;73499;wort;baden-wurttemberg;regierungsbezirk stuttgart
baden-wurttemberg;1.0780833829115373;DE;74395;mundelsheim;baden-wurttemberg;regierungsbezirk stuttgart
baden-wurttemberg;1.0780833829115373;DE;77654;offenburg;baden-wurttemberg;freiburg region
baden-wurttemberg;1.0780833829115373;DE;74177;bad friedrichshall;baden-wurttemberg;regierungsbezirk stuttgart
baden-wurttemberg;1.0780833829115373;DE;88662;uberlingen;baden-wurttemberg;tubingen region
baden-wurttemberg;1.0780833829115373;DE;73342;bad ditzenbach;baden-wurttemberg;regierungsbezirk stuttgart
baden-wurttemberg;1.0780833829115373;DE;76689;karlsdorf-neuthard;baden-wurttemberg;karlsruhe region
baden-wurttemberg;1.0780833829115373;DE;89518;heidenheim an der brenz;baden-wurttemberg;regierungsbezirk stuttgart
baden-wurttemberg;1.0780833829115373;DE;74182;obersulm;baden-wurttemberg;regierungsbezirk stuttgart
baden-wurttemberg;1.0780833829115373;DE;70173;stuttgart stuttgart-mitte, stuttgart;baden-wurttemberg;regierungsbezirk stuttgart
baden-wurttemberg;1.0780833829115373;DE;76547;sinzheim;baden-wurttemberg;karlsruhe region
baden-wurttemberg;1.0780833829115373;DE;78315;radolfzell am bodensee;baden-wurttemberg;freiburg region
baden-wurttemberg;1.0780833829115373;DE;79241;ihringen;baden-wurttemberg;freiburg region
baden-wurttemberg;1.0780833829115373;DE;70736;fellbach;baden-wurttemberg;regierungsbezirk stuttgart
baden-wurttemberg;1.0780833829115373;DE;79104;freiburg im breisgau;baden-wurttemberg;freiburg region
baden-wurttemberg;1.0780833829115373;DE;79114;freiburg im breisgau;baden-wurttemberg;freiburg region
baden-wurttemberg;1.0780833829115373;DE;73430;aalen;baden-wurttemberg;regierungsbezirk stuttgart
baden-wurttemberg;1.0780833829115373;DE;72488;sigmaringen;baden-wurttemberg;tubingen region
baden-wurttemberg;1.0780833829115373;DE;74080;heilbronn;baden-wurttemberg;regierungsbezirk stuttgart
baden-wurttemberg;1.0780833829115373;DE;72622;nurtingen;baden-wurttemberg;regierungsbezirk stuttgart
baden-wurttemberg;1.0780833829115373;DE;72636;frickenhausen;baden-wurttemberg;regierungsbezirk stuttgart
baden-wurttemberg;1.0780833829115373;DE;79206;breisach am rhein;baden-wurttemberg;freiburg region
baden-wurttemberg;1.0780833829115373;DE;70567;stuttgart, stuttgart degerloch, stuttgart mohringen;baden-wurttemberg;regierungsbezirk stuttgart
baden-wurttemberg;1.0780833829115373;DE;73054;eislingen/fils;baden-wurttemberg;regierungsbezirk stuttgart
baden-wurttemberg;1.0780833829115373;DE;88605;sauldorf, messkirch;baden-wurttemberg;tubingen region
baden-wurttemberg;1.0780833829115373;DE;71229;leonberg;baden-wurttemberg;regierungsbezirk stuttgart
baden-wurttemberg;1.0780833829115373;DE;78166;donaueschingen;baden-wurttemberg;freiburg region
baden-wurttemberg;1.0780833829115373;DE;74076;heilbronn;baden-wurttemberg;regierungsbezirk stuttgart
baden-wurttemberg;1.0780833829115373;DE;68169;mannheim;baden-wurttemberg;karlsruhe region
baden-wurttemberg;1.0780833829115373;DE;74626;bretzfeld;baden-wurttemberg;regierungsbezirk stuttgart
baden-wurttemberg;1.0780833829115373;DE;72108;rottenburg am neckar;baden-wurttemberg;tubingen region
baden-wurttemberg;1.0780833829115373;DE;68723;plankstadt, schwetzingen, oftersheim;baden-wurttemberg;karlsruhe region
baden-wurttemberg;1.0780833829115373;DE;79111;freiburg im breisgau;baden-wurttemberg;freiburg region
baden-wurttemberg;1.0780833829115373;DE;89614;opfingen;baden-wurttemberg;tubingen region
baden-wurttemberg;1.0780833829115373;DE;72639;neuffen;baden-wurttemberg;regierungsbezirk stuttgart
baden-wurttemberg;1.0780833829115373;DE;70376;stuttgart, stuttgart munster, stuttgart burgholzhof, stuttgart bad cannstatt;baden-wurttemberg;regierungsbezirk stuttgart
baden-wurttemberg;1.0780833829115373;DE;71384;weinstadt;baden-wurttemberg;regierungsbezirk stuttgart
baden-wurttemberg;1.0780833829115373;DE;79618;rheinfelden;baden-wurttemberg;freiburg region
baden-wurttemberg;1.0780833829115373;DE;73529;schwabisch gmund;baden-wurttemberg;regierungsbezirk stuttgart
baden-wurttemberg;1.0780833829115373;DE;79199;kirchzarten;baden-wurttemberg;freiburg region
baden-wurttemberg;1.0780833829115373;DE;79761;waldshut-tiengen;baden-wurttemberg;freiburg region
baden-wurttemberg;1.0780833829115373;DE;77886;lauf;baden-wurttemberg;freiburg region
baden-wurttemberg;1.0780833829115373;DE;88471;laupheim;baden-wurttemberg;tubingen region
baden-wurttemberg;1.0780833829115373;DE;78054;villingen-schwenningen;baden-wurttemberg;freiburg region
baden-wurttemberg;1.0780833829115373;DE;73728;esslingen am neckar;baden-wurttemberg;regierungsbezirk stuttgart
baden-wurttemberg;1.0780833829115373;DE;71634;ludwigsburg;baden-wurttemberg;regierungsbezirk stuttgart
baden-wurttemberg;1.0780833829115373;DE;73265;dettingen unter teck;baden-wurttemberg;regierungsbezirk stuttgart
baden-wurttemberg;1.0780833829115373;DE;74575;schrozberg;baden-wurttemberg;regierungsbezirk stuttgart
baden-wurttemberg;1.0780833829115373;DE;75236;kampfelbach;baden-wurttemberg;karlsruhe region
baden-wurttemberg;1.0780833829115373;DE;73312;geislingen an der steige, geislingen an der steige turkheim, geislingen an der steige aufhausen;baden-wurttemberg;regierungsbezirk stuttgart
baden-wurttemberg;1.0780833829115373;DE;76149;karlsruhe;baden-wurttemberg;karlsruhe region
baden-wurttemberg;1.0780833829115373;DE;70173;stuttgart stuttgart-mitte, stuttgart;baden-wurttemberg;regierungsbezirk stuttgart
baden-wurttemberg;1.0780833829115373;DE;68219;mannheim;baden-wurttemberg;karlsruhe region
baden-wurttemberg;1.0780833829115373;DE;70569;stuttgart, stuttgart kaltental, stuttgart busnau, stuttgart vaihingen;baden-wurttemberg;regierungsbezirk stuttgart
baden-wurttemberg;1.0780833829115373;DE;79576;weil am rhein;baden-wurttemberg;freiburg region
baden-wurttemberg;1.0780833829115373;DE;75175;pforzheim;baden-wurttemberg;karlsruhe region
baden-wurttemberg;1.0780833829115373;DE;71638;ludwigsburg;baden-wurttemberg;regierungsbezirk stuttgart
baden-wurttemberg;1.0780833829115373;DE;73054;eislingen/fils;baden-wurttemberg;regierungsbezirk stuttgart
baden-wurttemberg;1.0780833829115373;DE;77975;ringsheim;baden-wurttemberg;freiburg region
baden-wurttemberg;1.0780833829115373;DE;70839;gerlingen;baden-wurttemberg;regierungsbezirk stuttgart
baden-wurttemberg;1.0780833829115373;DE;79104;freiburg im breisgau;baden-wurttemberg;freiburg region
baden-wurttemberg;1.0780833829115373;DE;71522;backnang;baden-wurttemberg;regierungsbezirk stuttgart
baden-wurttemberg;1.0780833829115373;DE;75239;eisingen;baden-wurttemberg;karlsruhe region
baden-wurttemberg;1.0780833829115373;DE;76297;stutensee;baden-wurttemberg;karlsruhe region
bayern;1.0981063039673225;DE;90408;nurnberg;bayern;regierungsbezirk mittelfranken
bayern;1.0981063039673225;DE;95213;munchberg;bayern;upper franconia
bayern;1.0981063039673225;DE;95100;selb;bayern;upper franconia
bayern;1.0981063039673225;DE;84359;simbach am inn;bayern;lower bavaria
bayern;1.0981063039673225;DE;82335;berg;bayern;upper bavaria
bayern;1.0981063039673225;DE;90491;nurnberg;bayern;regierungsbezirk mittelfranken
bayern;1.0981063039673225;DE;63741;aschaffenburg;bayern;regierungsbezirk unterfranken
bayern;1.0981063039673225;DE;95119;naila;bayern;upper franconia
bayern;1.0981063039673225;DE;87737;boos;bayern;swabia
bayern;1.0981063039673225;DE;91282;betzenstein;bayern;upper franconia
bayern;1.0981063039673225;DE;87600;kaufbeuren;bayern;swabia
bayern;1.0981063039673225;DE;93049;regensburg;bayern;upper palatinate
bayern;1.0981063039673225;DE;91480;markt taschendorf;bayern;regierungsbezirk mittelfranken
bayern;1.0981063039673225;DE;80333;munchen;bayern;upper bavaria
bayern;1.0981063039673225;DE;86343;konigsbrunn;bayern;swabia
bayern;1.0981063039673225;DE;80992;munchen;bayern;upper bavaria
bayern;1.0981063039673225;DE;96487;dorfles-esbach;bayern;upper franconia
bayern;1.0981063039673225;DE;93345;hausen;bayern;lower bavaria
bayern;1.0981063039673225;DE;90451;nurnberg;bayern;regierungsbezirk mittelfranken
bayern;1.0981063039673225;DE;86732;oettingen in bayern;bayern;swabia
bayern;1.0981063039673225;DE;89312;gunzburg;bayern;swabia
bayern;1.0981063039673225;DE;85101;lenting;bayern;upper bavaria
bayern;1.0981063039673225;DE;90419;nurnberg;bayern;regierungsbezirk mittelfranken
bayern;1.0981063039673225;DE;85356;freising;bayern;upper bavaria
bayern;1.0981063039673225;DE;95028;hof;bayern;upper franconia
bayern;1.0981063039673225;DE;82110;germering;bayern;upper bavaria
bayern;1.0981063039673225;DE;83346;bergen;bayern;upper bavaria
bayern;1.0981063039673225;DE;96450;coburg;bayern;upper franconia
bayern;1.0981063039673225;DE;84478;waldkraiburg;bayern;upper bavaria
bayern;1.0981063039673225;DE;84529;tittmoning;bayern;upper bavaria
bayern;1.0981063039673225;DE;93055;regensburg;bayern;upper palatinate
bayern;1.0981063039673225;DE;82216;maisach;bayern;upper bavaria
bayern;1.0981063039673225;DE;88142;wasserburg (bodensee);bayern;swabia
bayern;1.0981063039673225;DE;96114;hirschaid;bayern;upper franconia
bayern;1.0981063039673225;DE;94036;passau;bayern;lower bavaria
bayern;1.0981063039673225;DE;83410;laufen;bayern;upper bavaria
bayern;1.0981063039673225;DE;93083;obertraubling;bayern;upper palatinate
bayern;1.0981063039673225;DE;94315;straubing;bayern;lower bavaria
bayern;1.0981063039673225;DE;97228;rottendorf;bayern;regierungsbezirk unterfranken
bayern;1.0981063039673225;DE;83607;holzkirchen;bayern;upper bavaria
bayern;1.0981063039673225;DE;94121;salzweg;bayern;lower bavaria
bayern;1.0981063039673225;DE;86609;donauworth;bayern;swabia
bayern;1.0981063039673225;DE;84561;mehring;bayern;upper bavaria
bayern;1.0981063039673225;DE;96052;bamberg;bayern;upper franconia
bayern;1.0981063039673225;DE;81241;munchen;bayern;upper bavaria
bayern;1.0981063039673225;DE;80995;munchen;bayern;upper bavaria
bayern;1.0981063039673225;DE;81549;munchen;bayern;upper bavaria
bayern;1.0981063039673225;DE;97491;aidhausen;bayern;regierungsbezirk unterfranken
bayern;1.0981063039673225;DE;96260;weismain;bayern;upper franconia
bayern;1.0981063039673225;DE;95703;plossberg;bayern;upper palatinate
bayern;1.0981063039673225;DE;90762;furth;bayern;regierungsbezirk mittelfranken
bayern;1.0981063039673225;DE;80689;munchen;bayern;upper bavaria
bayern;1.0981063039673225;DE;83730;fischbachau;bayern;upper bavaria
bayern;1.0981063039673225;DE;97892;kreuzwertheim;bayern;regierungsbezirk unterfranken
bayern;1.0981063039673225;DE;84571;reischach;bayern;upper bavaria
bayern;1.0981063039673225;DE;80331;munchen;bayern;upper bavaria
bayern;1.0981063039673225;DE;81829;munchen;bayern;upper bavaria
bayern;1.0981063039673225;DE;63834;sulzbach am main;bayern;regierungsbezirk unterfranken
bayern;1.0981063039673225;DE;94072;bad fussing;bayern;lower bavaria
bayern;1.0981063039673225;DE;80992;munchen;bayern;upper bavaria
bayern;1.0981063039673225;DE;90547;stein bei nurnberg;bayern;regierungsbezirk mittelfranken
bayern;1.0981063039673225;DE;91720;absberg;bayern;regierungsbezirk mittelfranken
bayern;1.0981063039673225;DE;86633;neuburg an der donau;bayern;upper bavaria
bayern;1.0981063039673225;DE;84307;eggenfelden;bayern;lower bavaria
bayern;1.0981063039673225;DE;95686;fichtelberg;bayern;upper franconia
bayern;1.0981063039673225;DE;81377;munchen;bayern;upper bavaria
bayern;1.0981063039673225;DE;83355;grabenstatt;bayern;upper bavaria
bayern;1.0981063039673225;DE;91077;dormitz, hetzles, kleinsendelbach, neunkirchen am brand;bayern;upper franconia
bayern;1.0981063039673225;DE;90574;rosstal;bayern;regierungsbezirk mittelfranken
bayern;1.0981063039673225;DE;96215;lichtenfels;bayern;upper franconia
bayern;1.0981063039673225;DE;97525;schwebheim;bayern;regierungsbezirk unterfranken
bayern;1.0981063039673225;DE;95447;bayreuth;bayern;upper franconia
bayern;1.0981063039673225;DE;92224;amberg;bayern;upper palatinate
bayern;1.0981063039673225;DE;86154;augsburg;bayern;swabia
bayern;1.0981063039673225;DE;90613;grosshabersdorf;bayern;regierungsbezirk mittelfranken
bayern;1.0981063039673225;DE;91413;neustadt an der aisch;bayern;regierungsbezirk mittelfranken
bayern;1.0981063039673225;DE;82327;tutzing;bayern;upper bavaria
bayern;1.0981063039673225;DE;97252;frickenhausen am main;bayern;regierungsbezirk unterfranken
bayern;1.0981063039673225;DE;90402;nurnberg;bayern;regierungsbezirk mittelfranken
bayern;1.0981063039673225;DE;93149;nittenau;bayern;upper palatinate
bayern;1.0981063039673225;DE;81673;munchen;bayern;upper bavaria
bayern;1.0981063039673225;DE;80331;munchen;bayern;upper bavaria
bayern;1.0981063039673225;DE;84028;landshut;bayern;lower bavaria
bayern;1.0981063039673225;DE;91365;weilersbach;bayern;upper franconia
bayern;1.0981063039673225;DE;81543;munchen;bayern;upper bavaria
bayern;1.0981063039673225;DE;85221;dachau;bayern;upper bavaria
bayern;1.0981063039673225;DE;86167;augsburg;bayern;swabia
bayern;1.0981063039673225;DE;97647;sondheim vor der rhon, nordheim vor der rhon, willmars, hausen;bayern;regierungsbezirk unterfranken
bayern;1.0981063039673225;DE;91058;erlangen;bayern;regierungsbezirk mittelfranken
bayern;1.0981063039673225;DE;82491;grainau;bayern;upper bavaria
bayern;1.0981063039673225;DE;87435;kempten;bayern;swabia
bayern;1.0981063039673225;DE;84539;zangberg, ampfing;bayern;upper bavaria
bayern;1.0981063039673225;DE;97318;kitzingen, biebelried;bayern;regierungsbezirk unterfranken
bayern;1.0981063039673225;DE;92536;pfreimd untersteinbach, pfreimd pamsendorf, pfreimd pfreimd, pfreimd, pfreimd weihern, pfreimd hohentreswitz, iffelsdorf;bayern;upper palatinate
bayern;1.0981063039673225;DE;84144;geisenhausen;bayern;lower bavaria
bayern;1.0981063039673225;DE;97270;kist;bayern;regierungsbezirk unterfranken
bayern;1.0981063039673225;DE;80637;munchen;bayern;upper bavaria
bayern;1.0981063039673225;DE;95361;kodnitz;bayern;upper franconia
bayern;1.0981063039673225;DE;84478;waldkraiburg;bayern;upper bavaria
bayern;1.0981063039673225;DE;81369;munchen;bayern;upper bavaria
bayern;1.0981063039673225;DE;63911;klingenberg am main;bayern;regierungsbezirk unterfranken
bayern;1.0981063039673225;DE;81737;munchen;bayern;upper bavaria
bayern;1.0981063039673225;DE;97318;kitzingen, biebelried;bayern;regierungsbezirk unterfranken
bayern;1.0981063039673225;DE;85435;erding;bayern;upper bavaria
bayern;1.0981063039673225;DE;82386;huglfing, oberhausen;bayern;upper bavaria
bayern;1.0981063039673225;DE;97640;oberstreu, stockheim, hendungen;bayern;regierungsbezirk unterfranken
bayern;1.0981063039673225;DE;90480;nurnberg;bayern;regierungsbezirk mittelfranken
bayern;1.0981063039673225;DE;80689;munchen;bayern;upper bavaria
bayern;1.0981063039673225;DE;84347;pfarrkirchen;bayern;lower bavaria
bayern;1.0981063039673225;DE;85055;ingolstadt;bayern;upper bavaria
bayern;1.0981063039673225;DE;94522;wallersdorf;bayern;lower bavaria
bayern;1.0981063039673225;DE;95213;munchberg;bayern;upper franconia
bayern;1.0981063039673225;DE;95326;kulmbach;bayern;upper franconia
bayern;1.0981063039673225;DE;96215;lichtenfels;bayern;upper franconia
bayern;1.0981063039673225;DE;95233;helmbrechts;bayern;upper franconia
bayern;1.0981063039673225;DE;91805;polsingen;bayern;regierungsbezirk mittelfranken
bayern;1.0981063039673225;DE;97456;dittelbrunn;bayern;regierungsbezirk unterfranken
berlin;1.1043640798770231;DE;13467;berlin;berlin;-
berlin;1.1043640798770231;DE;12103;berlin;berlin;-
berlin;1.1043640798770231;DE;10409;berlin;berlin;-
berlin;1.1043640798770231;DE;12437;berlin;berlin;-
berlin;1.1043640798770231;DE;13627;berlin;berlin;-
berlin;1.1043640798770231;DE;12105;berlin;berlin;-
berlin;1.1043640798770231;DE;13055;berlin;berlin;-
berlin;1.1043640798770231;DE;10315;berlin;berlin;-
berlin;1.1043640798770231;DE;10713;berlin;berlin;-
berlin;1.1043640798770231;DE;10365;berlin;berlin;-
berlin;1.1043640798770231;DE;12057;berlin;berlin;-
berlin;1.1043640798770231;DE;10435;berlin;berlin;-
berlin;1.1043640798770231;DE;13156;berlin;berlin;-
berlin;1.1043640798770231;DE;12169;berlin;berlin;-
berlin;1.1043640798770231;DE;10115;berlin;berlin;-
berlin;1.1043640798770231;DE;12049;berlin;berlin;-
berlin;1.1043640798770231;DE;12159;berlin;berlin;-
berlin;1.1043640798770231;DE;13409;berlin;berlin;-
berlin;1.1043640798770231;DE;12279;berlin;berlin;-
berlin;1.1043640798770231;DE;12681;berlin;berlin;-
berlin;1.1043640798770231;DE;12689;berlin;berlin;-
berlin;1.1043640798770231;DE;12203;berlin;berlin;-
berlin;1.1043640798770231;DE;12309;berlin;berlin;-
berlin;1.1043640798770231;DE;10317;berlin;berlin;-
berlin;1.1043640798770231;DE;13595;berlin;berlin;-
berlin;1.1043640798770231;DE;13359;berlin;berlin;-
berlin;1.1043640798770231;DE;14167;berlin;berlin;-
berlin;1.1043640798770231;DE;12524;berlin;berlin;-
brandenburg;1.1122832745937508;DE;14480;potsdam;brandenburg;-
brandenburg;1.1122832745937508;DE;3046;cottbus;brandenburg;-
brandenburg;1.1122832745937508;DE;14471;potsdam;brandenburg;-
brandenburg;1.1122832745937508;DE;15749;mittenwalde, ragow, kiekebusch, brusendorf, gallun;brandenburg;-
brandenburg;1.1122832745937508;DE;15234;frankfurt (oder);brandenburg;-
brandenburg;1.1122832745937508;DE;15366;dahlwitz-hoppegarten, honow, neuenhagen bei berlin, munchehofe;brandenburg;-
brandenburg;1.1122832745937508;DE;16515;freienhagen, schmachtenhagen, friedrichsthal, oranienburg, zuhlsdorf, neuholland, nassenheide, malz, wensickendorf, zehlendorf;brandenburg;-
brandenburg;1.1122832745937508;DE;14552;wildenbruch, saarmund, fresdorf, michendorf, tremsdorf;brandenburg;-
brandenburg;1.1122832745937508;DE;14641;selbelang, nauen, klein behnitz, berge, falkenrehde, pausin, etzin, wachow, muhlenberge, grunefeld, bornicke, bradikow, paaren im glien, lietzow, kienberg, bergerdamm, tremmen, wustermark, retzow, wansdorf, paulinenaue, zeestow, gross behnitz, tietzow, perwenitz, bredow, pessin, ribbeck, markee;brandenburg;-
brandenburg;1.1122832745937508;DE;15738;zeuthen;brandenburg;-
brandenburg;1.1122832745937508;DE;1979;lauchhammer;brandenburg;-
brandenburg;1.1122832745937508;DE;15517;furstenwalde/spree furstenwalde, furstenwalde/spree, furstenwalde/spree trebus;brandenburg;-
brandenburg;1.1122832745937508;DE;14552;wildenbruch, saarmund, fresdorf, michendorf, tremsdorf;brandenburg;-
brandenburg;1.1122832745937508;DE;15378;hennickendorf, herzfelde;brandenburg;-
brandenburg;1.1122832745937508;DE;14476;toplitz, uetz-paaren, neu fahrland, gross glienicke, fahrland, satzkorn, golm, seeburg, marquardt;brandenburg;-
brandenburg;1.1122832745937508;DE;3046;cottbus;brandenburg;-
brandenburg;1.1122832745937508;DE;15936;steinreich glienig, steinreich, dahmetal, dahme/mark;brandenburg;-
brandenburg;1.1122832745937508;DE;14913;juterbog, hohenseefeld, niedergorsdorf, niederer flaming, herbersdorf, niebendorf-heinsdorf, nuthe-urstromtal, ihlow, wahlsdorf;brandenburg;-
brandenburg;1.1122832745937508;DE;19322;weisen, ruhstadt, breese, gross breese, cumlosen, wittenberge;brandenburg;-
brandenburg;1.1122832745937508;DE;15366;dahlwitz-hoppegarten, honow, neuenhagen bei berlin, munchehofe;brandenburg;-
brandenburg;1.1122832745937508;DE;14469;potsdam;brandenburg;-
brandenburg;1.1122832745937508;DE;3238;lindthal, lugau, gollnitz, gruhno, dollenchen, ponnsdorf, schacksdorf, gorden, munchhausen, grobitz, oppelhain, fischwasser, lieskau, massen, eichholz-drossig, lichterfeld, finsterwalde, staupitz, ruckersdorf, betten, lindena, schadewitz, sallgast;brandenburg;-
brandenburg;1.1122832745937508;DE;14478;potsdam;brandenburg;-
bremen;1.056485623003195;DE;28359;bremen;bremen;-
bremen;1.056485623003195;DE;28309;bremen;bremen;-
bremen;1.056485623003195;DE;28195;bremen;bremen;-
bremen;1.056485623003195;DE;28309;bremen;bremen;-
bremen;1.056485623003195;DE;28759;bremen;bremen;-
bremen;1.056485623003195;DE;28279;bremen;bremen;-
hamburg;1.0571834992887623;DE;20097;hamburg klostertor, hamburg hammerbrook, hamburg sankt georg, hamburg;hamburg;-
hamburg;1.0571834992887623;DE;22309;hamburg ohlsdorf, hamburg bramfeld, hamburg steilshoop, hamburg barmbek-nord, hamburg;hamburg;-
hamburg;1.0571834992887623;DE;22297;hamburg alsterdorf, hamburg barmbek-nord, hamburg winterhude, hamburg gross borstel, hamburg;hamburg;-
hamburg;1.0571834992887623;DE;22527;hamburg lokstedt, hamburg eimsbuttel, hamburg stellingen, hamburg eidelstedt, hamburg;hamburg;-
hamburg;1.0571834992887623;DE;22143;hamburg, hamburg rahlstedt;hamburg;-
hamburg;1.0571834992887623;DE;20535;hamburg borgfelde, hamburg hamm-nord, hamburg;hamburg;-
hamburg;1.0571834992887623;DE;22523;hamburg, hamburg eidelstedt;hamburg;-
hamburg;1.0571834992887623;DE;22549;hamburg, hamburg bahrenfeld, hamburg lurup, hamburg osdorf;hamburg;-
hamburg;1.0571834992887623;DE;20099;hamburg hamburg-altstadt, hamburg, hamburg sankt georg;hamburg;-
hamburg;1.0571834992887623;DE;22175;hamburg, hamburg bramfeld;hamburg;-
hamburg;1.0571834992887623;DE;21109;hamburg veddel, hamburg wilhelmsburg, hamburg;hamburg;-
hamburg;1.0571834992887623;DE;22765;hamburg ottensen, hamburg, hamburg altona-altstadt, hamburg altona-nord;hamburg;-
hamburg;1.0571834992887623;DE;22393;hamburg wellingsbuttel, hamburg poppenbuttel, hamburg bramfeld, hamburg sasel, hamburg;hamburg;-
hamburg;1.0571834992887623;DE;22455;hamburg schnelsen, hamburg, hamburg niendorf;hamburg;-
hamburg;1.0571834992887623;DE;22049;hamburg dulsberg, hamburg wandsbek, hamburg;hamburg;-
hamburg;1.0571834992887623;DE;22339;hamburg hummelsbuttel, hamburg, hamburg fuhlsbuttel;hamburg;-
hamburg;1.0571834992887623;DE;22307;hamburg barmbek-nord, hamburg;hamburg;-
hamburg;1.0571834992887623;DE;22455;hamburg schnelsen, hamburg, hamburg niendorf;hamburg;-
hamburg;1.0571834992887623;DE;20095;hamburg altstadt, hamburg, hamburg klostertor, hamburg sankt georg;hamburg;-
hamburg;1.0571834992887623;DE;22083;hamburg barmbek-sud, hamburg;hamburg;-
hamburg;1.0571834992887623;DE;22179;hamburg bramfeld, hamburg;hamburg;-
hamburg;1.0571834992887623;DE;22419;hamburg, hamburg langenhorn;hamburg;-
hamburg;1.0571834992887623;DE;22177;hamburg steilshoop, hamburg bramfeld, hamburg;hamburg;-
hamburg;1.0571834992887623;DE;22041;hamburg tonndorf, hamburg marienthal, hamburg wandsbek, hamburg;hamburg;-
hamburg;1.0571834992887623;DE;22309;hamburg ohlsdorf, hamburg bramfeld, hamburg steilshoop, hamburg barmbek-nord, hamburg;hamburg;-
hessen;1.081683337510538;DE;65189;wiesbaden;hessen;regierungsbezirk darmstadt
hessen;1.081683337510538;DE;35037;marburg;hessen;reg.-bez. giessen
hessen;1.081683337510538;DE;61267;neu-anspach;hessen;regierungsbezirk darmstadt
hessen;1.081683337510538;DE;36103;flieden;hessen;regierungsbezirk kassel
hessen;1.081683337510538;DE;63450;hanau;hessen;regierungsbezirk darmstadt
hessen;1.081683337510538;DE;64291;darmstadt;hessen;regierungsbezirk darmstadt
hessen;1.081683337510538;DE;60435;frankfurt am main;hessen;regierungsbezirk darmstadt
hessen;1.081683337510538;DE;34266;niestetal;hessen;regierungsbezirk kassel
hessen;1.081683337510538;DE;65321;heidenrod;hessen;regierungsbezirk darmstadt
hessen;1.081683337510538;DE;65611;brechen;hessen;reg.-bez. giessen
hessen;1.081683337510538;DE;63069;offenbach;hessen;regierungsbezirk darmstadt
hessen;1.081683337510538;DE;65520;bad camberg;hessen;reg.-bez. giessen
hessen;1.081683337510538;DE;64319;pfungstadt;hessen;regierungsbezirk darmstadt
hessen;1.081683337510538;DE;35080;bad endbach;hessen;reg.-bez. giessen
hessen;1.081683337510538;DE;63069;offenbach;hessen;regierungsbezirk darmstadt
hessen;1.081683337510538;DE;63538;grosskrotzenburg;hessen;regierungsbezirk darmstadt
hessen;1.081683337510538;DE;35452;heuchelheim;hessen;reg.-bez. giessen
hessen;1.081683337510538;DE;63329;egelsbach;hessen;regierungsbezirk darmstadt
hessen;1.081683337510538;DE;61118;bad vilbel;hessen;regierungsbezirk darmstadt
hessen;1.081683337510538;DE;65187;wiesbaden;hessen;regierungsbezirk darmstadt
hessen;1.081683337510538;DE;37269;eschwege;hessen;regierungsbezirk kassel
hessen;1.081683337510538;DE;34119;kassel;hessen;regierungsbezirk kassel
hessen;1.081683337510538;DE;63071;offenbach;hessen;regierungsbezirk darmstadt
hessen;1.081683337510538;DE;64560;riedstadt;hessen;regierungsbezirk darmstadt
hessen;1.081683337510538;DE;63225;langen;hessen;regierungsbezirk darmstadt
hessen;1.081683337510538;DE;61440;oberursel;hessen;regierungsbezirk darmstadt
hessen;1.081683337510538;DE;65817;eppstein;hessen;regierungsbezirk darmstadt
hessen;1.081683337510538;DE;36367;wartenberg;hessen;reg.-bez. giessen
hessen;1.081683337510538;DE;34225;baunatal;hessen;regierungsbezirk kassel
hessen;1.081683337510538;DE;36039;fulda;hessen;regierungsbezirk kassel
hessen;1.081683337510538;DE;36151;burghaun;hessen;regierungsbezirk kassel
hessen;1.081683337510538;DE;63128;dietzenbach;hessen;regierungsbezirk darmstadt
hessen;1.081683337510538;DE;34466;wolfhagen;hessen;regierungsbezirk kassel
hessen;1.081683337510538;DE;61169;friedberg;hessen;regierungsbezirk darmstadt
hessen;1.081683337510538;DE;63619;bad orb;hessen;regierungsbezirk darmstadt
hessen;1.081683337510538;DE;63450;hanau;hessen;regierungsbezirk darmstadt
hessen;1.081683337510538;DE;36037;fulda;hessen;regierungsbezirk kassel
hessen;1.081683337510538;DE;65197;wiesbaden;hessen;regierungsbezirk darmstadt
hessen;1.081683337510538;DE;65549;limburg an der lahn;hessen;reg.-bez. giessen
hessen;1.081683337510538;DE;36088;hunfeld;hessen;regierungsbezirk kassel
hessen;1.081683337510538;DE;63065;offenbach;hessen;regierungsbezirk darmstadt
hessen;1.081683337510538;DE;35578;wetzlar;hessen;reg.-bez. giessen
hessen;1.081683337510538;DE;63679;schotten;hessen;reg.-bez. giessen
hessen;1.081683337510538;DE;65817;eppstein;hessen;regierungsbezirk darmstadt
hessen;1.081683337510538;DE;35398;giessen;hessen;reg.-bez. giessen
hessen;1.081683337510538;DE;63477;maintal;hessen;regierungsbezirk darmstadt
hessen;1.081683337510538;DE;60433;frankfurt am main;hessen;regierungsbezirk darmstadt
hessen;1.081683337510538;DE;64686;lautertal;hessen;regierungsbezirk darmstadt
hessen;1.081683337510538;DE;37217;witzenhausen;hessen;regierungsbezirk kassel
hessen;1.081683337510538;DE;64625;bensheim;hessen;regierungsbezirk darmstadt
hessen;1.081683337510538;DE;65589;hadamar;hessen;reg.-bez. giessen
hessen;1.081683337510538;DE;35039;marburg;hessen;reg.-bez. giessen
hessen;1.081683337510538;DE;60385;frankfurt am main;hessen;regierungsbezirk darmstadt
hessen;1.081683337510538;DE;55246;mainz-kostheim;hessen;regierungsbezirk darmstadt
hessen;1.081683337510538;DE;64823;gross-umstadt;hessen;regierungsbezirk darmstadt
mecklenburg-vorpommern;1.0490903499018194;DE;18236;kropelin, schmadebeck, altenhagen;mecklenburg-vorpommern;-
mecklenburg-vorpommern;1.0490903499018194;DE;19053;schwerin;mecklenburg-vorpommern;-
mecklenburg-vorpommern;1.0490903499018194;DE;18258;schwaan, wiendorf, brobberow, kassow, vorbeck, rukieten, benitz;mecklenburg-vorpommern;-
mecklenburg-vorpommern;1.0490903499018194;DE;18106;rostock;mecklenburg-vorpommern;-
mecklenburg-vorpommern;1.0490903499018194;DE;18107;elmenhorst-lichtenhagen, rostock;mecklenburg-vorpommern;-
mecklenburg-vorpommern;1.0490903499018194;DE;19057;schwerin;mecklenburg-vorpommern;-
mecklenburg-vorpommern;1.0490903499018194;DE;19061;schwerin;mecklenburg-vorpommern;-
mecklenburg-vorpommern;1.0490903499018194;DE;19300;steesow, muchow, balow, mollenbeck, milow, zierzow, prislich, grabow, kremmin, werle;mecklenburg-vorpommern;-
mecklenburg-vorpommern;1.0490903499018194;DE;17449;molschow, trassenheide, peenemunde, karlshagen;mecklenburg-vorpommern;-
mecklenburg-vorpommern;1.0490903499018194;DE;17367;eggesin;mecklenburg-vorpommern;-
mecklenburg-vorpommern;1.0490903499018194;DE;17036;neubrandenburg;mecklenburg-vorpommern;-
mecklenburg-vorpommern;1.0490903499018194;DE;18055;rostock;mecklenburg-vorpommern;-
mecklenburg-vorpommern;1.0490903499018194;DE;19053;schwerin;mecklenburg-vorpommern;-
mecklenburg-vorpommern;1.0490903499018194;DE;18437;stralsund;mecklenburg-vorpommern;-
mecklenburg-vorpommern;1.0490903499018194;DE;19063;schwerin;mecklenburg-vorpommern;-
mecklenburg-vorpommern;1.0490903499018194;DE;19386;kritzow, wahlstorf, lutheran, granzin, passow, lubz, karbow-vietlubbe, werder, broock, gallin-kuppentin, gischow, kreien;mecklenburg-vorpommern;-
niedersachsen;1.049474495086136;DE;31134;hildesheim;niedersachsen;-
niedersachsen;1.049474495086136;DE;29331;lachendorf;niedersachsen;-
niedersachsen;1.049474495086136;DE;28844;weyhe;niedersachsen;-
niedersachsen;1.049474495086136;DE;49090;osnabruck;niedersachsen;-
niedersachsen;1.049474495086136;DE;31139;hildesheim;niedersachsen;-
niedersachsen;1.049474495086136;DE;21337;luneburg;niedersachsen;-
niedersachsen;1.049474495086136;DE;30177;hannover;niedersachsen;-
niedersachsen;1.049474495086136;DE;49661;cloppenburg;niedersachsen;-
niedersachsen;1.049474495086136;DE;21614;buxtehude;niedersachsen;-
niedersachsen;1.049474495086136;DE;21614;buxtehude;niedersachsen;-
niedersachsen;1.049474495086136;DE;48465;ohne, isterberg, samern, quendorf, schuttorf, engden, suddendorf;niedersachsen;-
niedersachsen;1.049474495086136;DE;38122;braunschweig;niedersachsen;-
niedersachsen;1.049474495086136;DE;30161;hannover;niedersachsen;-
niedersachsen;1.049474495086136;DE;31812;bad pyrmont;niedersachsen;-
niedersachsen;1.049474495086136;DE;31715;meerbeck meerbeck, meerbeck kuckshagen, meerbeck, meerbeck volksdorf;niedersachsen;-
niedersachsen;1.049474495086136;DE;38350;helmstedt;niedersachsen;-
niedersachsen;1.049474495086136;DE;30629;hannover;niedersachsen;-
niedersachsen;1.049474495086136;DE;30165;hannover;niedersachsen;-
niedersachsen;1.049474495086136;DE;26169;friesoythe;niedersachsen;-
niedersachsen;1.049474495086136;DE;21423;drage, winsen (luhe);niedersachsen;-
niedersachsen;1.049474495086136;DE;49565;bramsche;niedersachsen;-
niedersachsen;1.049474495086136;DE;21337;luneburg;niedersachsen;-
niedersachsen;1.049474495086136;DE;30177;hannover;niedersachsen;-
niedersachsen;1.049474495086136;DE;29221;celle;niedersachsen;-
niedersachsen;1.049474495086136;DE;48480;schapen, spelle, lunne;niedersachsen;-
niedersachsen;1.049474495086136;DE;38226;salzgitter, salzgitter lebenstedt;niedersachsen;-
niedersachsen;1.049474495086136;DE;29640;schneverdingen;niedersachsen;-
niedersachsen;1.049474495086136;DE;49835;wietmarschen;niedersachsen;-
niedersachsen;1.049474495086136;DE;27624;lintig, elmlohe, kohlen, kuhrstedt, drangstedt, flogeln, bad bederkesa, ringstedt;niedersachsen;-
niedersachsen;1.049474495086136;DE;26901;lorup, rastdorf;niedersachsen;-
niedersachsen;1.049474495086136;DE;26129;oldenburg;niedersachsen;-
niedersachsen;1.049474495086136;DE;30916;isernhagen;niedersachsen;-
niedersachsen;1.049474495086136;DE;30451;hannover;niedersachsen;-
niedersachsen;1.049474495086136;DE;27616;heerstedt, bokel, stubben, lunestedt, beverstedt, frelsdorf, kirchwistedt, appeln, hollen;niedersachsen;-
niedersachsen;1.049474495086136;DE;30974;wennigsen;niedersachsen;-
niedersachsen;1.049474495086136;DE;27474;cuxhaven;niedersachsen;-
niedersachsen;1.049474495086136;DE;38118;braunschweig;niedersachsen;-
niedersachsen;1.049474495086136;DE;26487;neuschoo, blomberg;niedersachsen;-
niedersachsen;1.049474495086136;DE;31785;hameln;niedersachsen;-
niedersachsen;1.049474495086136;DE;29559;wrestedt;niedersachsen;-
niedersachsen;1.049474495086136;DE;21770;mittelstenahe;niedersachsen;-
niedersachsen;1.049474495086136;DE;27283;verden (aller);niedersachsen;-
niedersachsen;1.049474495086136;DE;29328;fassberg;niedersachsen;-
niedersachsen;1.049474495086136;DE;29525;uelzen;niedersachsen;-
niedersachsen;1.049474495086136;DE;37434;rhumspringe, wollbrandshausen, bilshausen, obernfeld, wollershausen, krebeck, bodensee, rollshausen, rudershausen, gieboldehausen;niedersachsen;-
niedersachsen;1.049474495086136;DE;27356;rotenburg (wumme);niedersachsen;-
niedersachsen;1.049474495086136;DE;30890;barsinghausen;niedersachsen;-
niedersachsen;1.049474495086136;DE;21423;drage, winsen (luhe);niedersachsen;-
niedersachsen;1.049474495086136;DE;29336;nienhagen;niedersachsen;-
niedersachsen;1.049474495086136;DE;26203;wardenburg;niedersachsen;-
niedersachsen;1.049474495086136;DE;30419;hannover;niedersachsen;-
niedersachsen;1.049474495086136;DE;31855;aerzen;niedersachsen;-
niedersachsen;1.049474495086136;DE;30659;hannover;niedersachsen;-
niedersachsen;1.049474495086136;DE;38723;seesen;niedersachsen;-
niedersachsen;1.049474495086136;DE;49835;wietmarschen;niedersachsen;-
niedersachsen;1.049474495086136;DE;26446;friedeburg etzel, friedeburg wiesedermeer, friedeburg reepsholt, abickhafe, friedeburg horsten, friedeburg hesel, friedeburg reepsholt, dose, friedeburg, friedeburg marx, friedeburg wiesede, friedeburg reepsholt, hoheesche, friedeburg bentstreek, friedeburg reepsholt, friedeburg reepsholt, reepsholt, friedeburg friedeburg;niedersachsen;-
niedersachsen;1.049474495086136;DE;31134;hildesheim;niedersachsen;-
niedersachsen;1.049474495086136;DE;31275;lehrte;niedersachsen;-
niedersachsen;1.049474495086136;DE;34355;staufenberg;niedersachsen;-
niedersachsen;1.049474495086136;DE;26624;sudbrookmerland moordorf, sudbrookmerland moorhusen, sudbrookmerland forlitz-blaukirchen, sudbrookmerland uthwerdum, sudbrookmerland, sudbrookmerland theene, sudbrookmerland bedekaspel, sudbrookmerland victorbur, sudbrookmerland wiegboldsbur, sudbrookmerland oldeborg, sudbrookmerland munkeboe;niedersachsen;-
niedersachsen;1.049474495086136;DE;31177;harsum;niedersachsen;-
niedersachsen;1.049474495086136;DE;38226;salzgitter, salzgitter lebenstedt;niedersachsen;-
niedersachsen;1.049474495086136;DE;38124;braunschweig;niedersachsen;-
niedersachsen;1.049474495086136;DE;38108;braunschweig;niedersachsen;-
niedersachsen;1.049474495086136;DE;30169;hannover;niedersachsen;-
niedersachsen;1.049474495086136;DE;30890;barsinghausen;niedersachsen;-
niedersachsen;1.049474495086136;DE;26131;oldenburg;niedersachsen;-
niedersachsen;1.049474495086136;DE;31020;salzhemmendorf;niedersachsen;-
niedersachsen;1.049474495086136;DE;30655;hannover;niedersachsen;-
niedersachsen;1.049474495086136;DE;49406;eydelstedt, barnstorf, drentwede;niedersachsen;-
niedersachsen;1.049474495086136;DE;30823;garbsen;niedersachsen;-
niedersachsen;1.049474495086136;DE;29392;wesendorf;niedersachsen;-
niedersachsen;1.049474495086136;DE;26506;norden, norden westermarsch ii, norden ostermarsch, norden leybuchtpolder, norden bargebur, norden suderneuland ii, norden westermarsch i, norden tidofeld, norden neuwesteel, norden suderneuland i, norden norddeich, norden norden;niedersachsen;-
niedersachsen;1.049474495086136;DE;38170;kneitlingen, dahlum, winnigstedt, schoppenstedt, uehrde, vahlberg;niedersachsen;-
niedersachsen;1.049474495086136;DE;29379;wittingen;niedersachsen;-
niedersachsen;1.049474495086136;DE;30167;hannover;niedersachsen;-
niedersachsen;1.049474495086136;DE;38440;wolfsburg;niedersachsen;-
niedersachsen;1.049474495086136;DE;21680;stade;niedersachsen;-
niedersachsen;1.049474495086136;DE;27419;gross meckelsen, tiste, kalbe, hamersen, klein meckelsen, lengenbostel, wohnste, sittensen, vierden;niedersachsen;-
niedersachsen;1.049474495086136;DE;21769;lamstedt, armstorf, hollnseth;niedersachsen;-
niedersachsen;1.049474495086136;DE;37154;northeim;niedersachsen;-
nordrhein-westfalen;1.0585557252094144;DE;46485;wesel;nordrhein-westfalen;reg.-bez. dusseldorf
nordrhein-westfalen;1.0585557252094144;DE;33129;delbruck;nordrhein-westfalen;reg.-bez. detmold
nordrhein-westfalen;1.0585557252094144;DE;46397;bocholt;nordrhein-westfalen;reg.-bez. munster
nordrhein-westfalen;1.0585557252094144;DE;48336;sassenberg;nordrhein-westfalen;reg.-bez. munster
nordrhein-westfalen;1.0585557252094144;DE;40885;ratingen;nordrhein-westfalen;reg.-bez. dusseldorf
nordrhein-westfalen;1.0585557252094144;DE;52134;herzogenrath;nordrhein-westfalen;regierungsbezirk koln
nordrhein-westfalen;1.0585557252094144;DE;45665;recklinghausen;nordrhein-westfalen;reg.-bez. munster
nordrhein-westfalen;1.0585557252094144;DE;42653;solingen;nordrhein-westfalen;reg.-bez. dusseldorf
nordrhein-westfalen;1.0585557252094144;DE;44532;lunen;nordrhein-westfalen;reg.-bez. arnsberg
nordrhein-westfalen;1.0585557252094144;DE;47608;geldern;nordrhein-westfalen;reg.-bez. dusseldorf
nordrhein-westfalen;1.0585557252094144;DE;52391;vettweiss;nordrhein-westfalen;regierungsbezirk koln
nordrhein-westfalen;1.0585557252094144;DE;45356;essen;nordrhein-westfalen;reg.-bez. dusseldorf
nordrhein-westfalen;1.0585557252094144;DE;46539;dinslaken;nordrhein-westfalen;reg.-bez. dusseldorf
nordrhein-westfalen;1.0585557252094144;DE;45770;marl;nordrhein-westfalen;reg.-bez. munster
nordrhein-westfalen;1.0585557252094144;DE;52499;baesweiler;nordrhein-westfalen;regierungsbezirk koln
nordrhein-westfalen;1.0585557252094144;DE;44623;herne;nordrhein-westfalen;reg.-bez. arnsberg
nordrhein-westfalen;1.0585557252094144;DE;44803;bochum;nordrhein-westfalen;reg.-bez. arnsberg
nordrhein-westfalen;1.0585557252094144;DE;44625;herne;nordrhein-westfalen;reg.-bez. arnsberg
nordrhein-westfalen;1.0585557252094144;DE;47906;kempen;nordrhein-westfalen;reg.-bez. dusseldorf
nordrhein-westfalen;1.0585557252094144;DE;33178;borchen;nordrhein-westfalen;reg.-bez. detmold
nordrhein-westfalen;1.0585557252094144;DE;44575;castrop-rauxel;nordrhein-westfalen;reg.-bez. munster
nordrhein-westfalen;1.0585557252094144;DE;52080;aachen;nordrhein-westfalen;regierungsbezirk koln
nordrhein-westfalen;1.0585557252094144;DE;41334;nettetal;nordrhein-westfalen;reg.-bez. dusseldorf
nordrhein-westfalen;1.0585557252094144;DE;50169;kerpen;nordrhein-westfalen;regierungsbezirk koln
nordrhein-westfalen;1.0585557252094144;DE;40225;dusseldorf;nordrhein-westfalen;reg.-bez. dusseldorf
nordrhein-westfalen;1.0585557252094144;DE;42859;remscheid;nordrhein-westfalen;reg.-bez. dusseldorf
nordrhein-westfalen;1.0585557252094144;DE;33014;bad driburg;nordrhein-westfalen;reg.-bez. detmold
nordrhein-westfalen;1.0585557252094144;DE;52457;aldenhoven;nordrhein-westfalen;regierungsbezirk koln
nordrhein-westfalen;1.0585557252094144;DE;57271;hilchenbach;nordrhein-westfalen;reg.-bez. arnsberg
nordrhein-westfalen;1.0585557252094144;DE;33790;halle;nordrhein-westfalen;reg.-bez. detmold
nordrhein-westfalen;1.0585557252094144;DE;45476;mulheim an der ruhr;nordrhein-westfalen;reg.-bez. dusseldorf
nordrhein-westfalen;1.0585557252094144;DE;47058;duisburg;nordrhein-westfalen;reg.-bez. dusseldorf
nordrhein-westfalen;1.0585557252094144;DE;42103;wuppertal;nordrhein-westfalen;reg.-bez. dusseldorf
nordrhein-westfalen;1.0585557252094144;DE;50668;koln;nordrhein-westfalen;regierungsbezirk koln
nordrhein-westfalen;1.0585557252094144;DE;47057;duisburg;nordrhein-westfalen;reg.-bez. dusseldorf
nordrhein-westfalen;1.0585557252094144;DE;45731;waltrop;nordrhein-westfalen;reg.-bez. munster
nordrhein-westfalen;1.0585557252094144;DE;50670;koln;nordrhein-westfalen;regierungsbezirk koln
nordrhein-westfalen;1.0585557252094144;DE;57072;siegen;nordrhein-westfalen;reg.-bez. arnsberg
nordrhein-westfalen;1.0585557252094144;DE;32049;herford;nordrhein-westfalen;reg.-bez. detmold
nordrhein-westfalen;1.0585557252094144;DE;44625;herne;nordrhein-westfalen;reg.-bez. arnsberg
nordrhein-westfalen;1.0585557252094144;DE;33824;werther;nordrhein-westfalen;reg.-bez. detmold
nordrhein-westfalen;1.0585557252094144;DE;44809;bochum;nordrhein-westfalen;reg.-bez. arnsberg
nordrhein-westfalen;1.0585557252094144;DE;46238;bottrop;nordrhein-westfalen;reg.-bez. munster
nordrhein-westfalen;1.0585557252094144;DE;53925;kall;nordrhein-westfalen;regierungsbezirk koln
nordrhein-westfalen;1.0585557252094144;DE;58300;wetter (ruhr);nordrhein-westfalen;reg.-bez. arnsberg
nordrhein-westfalen;1.0585557252094144;DE;44534;lunen;nordrhein-westfalen;reg.-bez. arnsberg
nordrhein-westfalen;1.0585557252094144;DE;48703;stadtlohn;nordrhein-westfalen;reg.-bez. munster
nordrhein-westfalen;1.0585557252094144;DE;44263;dortmund;nordrhein-westfalen;reg.-bez. arnsberg
nordrhein-westfalen;1.0585557252094144;DE;48683;ahaus;nordrhein-westfalen;reg.-bez. munster
nordrhein-westfalen;1.0585557252094144;DE;41747;viersen;nordrhein-westfalen;reg.-bez. dusseldorf
nordrhein-westfalen;1.0585557252094144;DE;59067;hamm;nordrhein-westfalen;reg.-bez. arnsberg
nordrhein-westfalen;1.0585557252094144;DE;50670;koln;nordrhein-westfalen;regierungsbezirk koln
nordrhein-westfalen;1.0585557252094144;DE;40822;mettmann;nordrhein-westfalen;reg.-bez. dusseldorf
nordrhein-westfalen;1.0585557252094144;DE;47198;duisburg;nordrhein-westfalen;reg.-bez. dusseldorf
nordrhein-westfalen;1.0585557252094144;DE;50259;pulheim;nordrhein-westfalen;regierungsbezirk koln
nordrhein-westfalen;1.0585557252094144;DE;48346;ostbevern;nordrhein-westfalen;reg.-bez. munster
nordrhein-westfalen;1.0585557252094144;DE;52538;selfkant, gangelt;nordrhein-westfalen;regierungsbezirk koln
nordrhein-westfalen;1.0585557252094144;DE;59229;ahlen;nordrhein-westfalen;reg.-bez. munster
nordrhein-westfalen;1.0585557252094144;DE;40233;dusseldorf;nordrhein-westfalen;reg.-bez. dusseldorf
nordrhein-westfalen;1.0585557252094144;DE;41189;monchengladbach;nordrhein-westfalen;reg.-bez. dusseldorf
nordrhein-westfalen;1.0585557252094144;DE;44225;dortmund;nordrhein-westfalen;reg.-bez. arnsberg
nordrhein-westfalen;1.0585557252094144;DE;41836;huckelhoven;nordrhein-westfalen;regierungsbezirk koln
nordrhein-westfalen;1.0585557252094144;DE;59075;hamm;nordrhein-westfalen;reg.-bez. arnsberg
nordrhein-westfalen;1.0585557252094144;DE;47623;kevelaer;nordrhein-westfalen;reg.-bez. dusseldorf
nordrhein-westfalen;1.0585557252094144;DE;47475;kamp-lintfort;nordrhein-westfalen;reg.-bez. dusseldorf
nordrhein-westfalen;1.0585557252094144;DE;48151;munster;nordrhein-westfalen;reg.-bez. munster
nordrhein-westfalen;1.0585557252094144;DE;45772;marl;nordrhein-westfalen;reg.-bez. munster
nordrhein-westfalen;1.0585557252094144;DE;44269;dortmund;nordrhein-westfalen;reg.-bez. arnsberg
nordrhein-westfalen;1.0585557252094144;DE;50354;hurth;nordrhein-westfalen;regierungsbezirk koln
nordrhein-westfalen;1.0585557252094144;DE;58456;witten;nordrhein-westfalen;reg.-bez. arnsberg
nordrhein-westfalen;1.0585557252094144;DE;45359;essen;nordrhein-westfalen;reg.-bez. dusseldorf
nordrhein-westfalen;1.0585557252094144;DE;33659;bielefeld;nordrhein-westfalen;reg.-bez. detmold
nordrhein-westfalen;1.0585557252094144;DE;59423;unna;nordrhein-westfalen;reg.-bez. arnsberg
nordrhein-westfalen;1.0585557252094144;DE;53113;bonn;nordrhein-westfalen;regierungsbezirk koln
nordrhein-westfalen;1.0585557252094144;DE;53809;ruppichteroth;nordrhein-westfalen;regierungsbezirk koln
nordrhein-westfalen;1.0585557252094144;DE;57080;siegen;nordrhein-westfalen;reg.-bez. arnsberg
nordrhein-westfalen;1.0585557252094144;DE;48351;everswinkel;nordrhein-westfalen;reg.-bez. munster
nordrhein-westfalen;1.0585557252094144;DE;52146;wurselen;nordrhein-westfalen;regierungsbezirk koln
nordrhein-westfalen;1.0585557252094144;DE;33605;bielefeld;nordrhein-westfalen;reg.-bez. detmold
nordrhein-westfalen;1.0585557252094144;DE;45470;mulheim an der ruhr;nordrhein-westfalen;reg.-bez. dusseldorf
nordrhein-westfalen;1.0585557252094144;DE;50937;koln;nordrhein-westfalen;regierungsbezirk koln
nordrhein-westfalen;1.0585557252094144;DE;45470;mulheim an der ruhr;nordrhein-westfalen;reg.-bez. dusseldorf
nordrhein-westfalen;1.0585557252094144;DE;33790;halle;nordrhein-westfalen;reg.-bez. detmold
nordrhein-westfalen;1.0585557252094144;DE;50389;wesseling;nordrhein-westfalen;regierungsbezirk koln
nordrhein-westfalen;1.0585557252094144;DE;44357;dortmund;nordrhein-westfalen;reg.-bez. arnsberg
nordrhein-westfalen;1.0585557252094144;DE;45529;hattingen;nordrhein-westfalen;reg.-bez. arnsberg
nordrhein-westfalen;1.0585557252094144;DE;50189;elsdorf;nordrhein-westfalen;regierungsbezirk koln
nordrhein-westfalen;1.0585557252094144;DE;47058;duisburg;nordrhein-westfalen;reg.-bez. dusseldorf
nordrhein-westfalen;1.0585557252094144;DE;48165;munster;nordrhein-westfalen;reg.-bez. munster
nordrhein-westfalen;1.0585557252094144;DE;53757;sankt augustin;nordrhein-westfalen;regierungsbezirk koln
nordrhein-westfalen;1.0585557252094144;DE;44263;dortmund;nordrhein-westfalen;reg.-bez. arnsberg
nordrhein-westfalen;1.0585557252094144;DE;47179;duisburg;nordrhein-westfalen;reg.-bez. dusseldorf
nordrhein-westfalen;1.0585557252094144;DE;47441;moers;nordrhein-westfalen;reg.-bez. dusseldorf
nordrhein-westfalen;1.0585557252094144;DE;40237;dusseldorf;nordrhein-westfalen;reg.-bez. dusseldorf
nordrhein-westfalen;1.0585557252094144;DE;33397;rietberg;nordrhein-westfalen;reg.-bez. detmold
nordrhein-westfalen;1.0585557252094144;DE;45472;mulheim an der ruhr;nordrhein-westfalen;reg.-bez. dusseldorf
nordrhein-westfalen;1.0585557252094144;DE;32756;detmold;nordrhein-westfalen;reg.-bez. detmold
nordrhein-westfalen;1.0585557252094144;DE;47608;geldern;nordrhein-westfalen;reg.-bez. dusseldorf
nordrhein-westfalen;1.0585557252094144;DE;48317;drensteinfurt;nordrhein-westfalen;reg.-bez. munster
nordrhein-westfalen;1.0585557252094144;DE;42327;wuppertal;nordrhein-westfalen;reg.-bez. dusseldorf
nordrhein-westfalen;1.0585557252094144;DE;58809;neuenrade;nordrhein-westfalen;reg.-bez. arnsberg
nordrhein-westfalen;1.0585557252094144;DE;59067;hamm;nordrhein-westfalen;reg.-bez. arnsberg
nordrhein-westfalen;1.0585557252094144;DE;50937;koln;nordrhein-westfalen;regierungsbezirk koln
nordrhein-westfalen;1.0585557252094144;DE;45897;gelsenkirchen;nordrhein-westfalen;reg.-bez. munster
nordrhein-westfalen;1.0585557252094144;DE;32427;minden;nordrhein-westfalen;reg.-bez. detmold
nordrhein-westfalen;1.0585557252094144;DE;46244;bottrop;nordrhein-westfalen;reg.-bez. munster
nordrhein-westfalen;1.0585557252094144;DE;53840;troisdorf;nordrhein-westfalen;regierungsbezirk koln
nordrhein-westfalen;1.0585557252094144;DE;50354;hurth;nordrhein-westfalen;regierungsbezirk koln
nordrhein-westfalen;1.0585557252094144;DE;33378;rheda-wiedenbruck;nordrhein-westfalen;reg.-bez. detmold
nordrhein-westfalen;1.0585557252094144;DE;42399;wuppertal;nordrhein-westfalen;reg.-bez. dusseldorf
nordrhein-westfalen;1.0585557252094144;DE;59581;warstein;nordrhein-westfalen;reg.-bez. arnsberg
nordrhein-westfalen;1.0585557252094144;DE;40219;dusseldorf;nordrhein-westfalen;reg.-bez. dusseldorf
nordrhein-westfalen;1.0585557252094144;DE;40629;dusseldorf;nordrhein-westfalen;reg.-bez. dusseldorf
nordrhein-westfalen;1.0585557252094144;DE;47057;duisburg;nordrhein-westfalen;reg.-bez. dusseldorf
nordrhein-westfalen;1.0585557252094144;DE;41542;dormagen;nordrhein-westfalen;reg.-bez. dusseldorf
nordrhein-westfalen;1.0585557252094144;DE;45896;gelsenkirchen;nordrhein-westfalen;reg.-bez. munster
nordrhein-westfalen;1.0585557252094144;DE;45665;recklinghausen;nordrhein-westfalen;reg.-bez. munster
nordrhein-westfalen;1.0585557252094144;DE;33813;oerlinghausen;nordrhein-westfalen;reg.-bez. detmold
nordrhein-westfalen;1.0585557252094144;DE;44581;castrop-rauxel;nordrhein-westfalen;reg.-bez. munster
nordrhein-westfalen;1.0585557252094144;DE;41068;monchengladbach;nordrhein-westfalen;reg.-bez. dusseldorf
nordrhein-westfalen;1.0585557252094144;DE;48683;ahaus;nordrhein-westfalen;reg.-bez. munster
nordrhein-westfalen;1.0585557252094144;DE;57482;wenden;nordrhein-westfalen;reg.-bez. arnsberg
nordrhein-westfalen;1.0585557252094144;DE;32689;kalletal;nordrhein-westfalen;reg.-bez. detmold
nordrhein-westfalen;1.0585557252094144;DE;51063;koln;nordrhein-westfalen;regierungsbezirk koln
nordrhein-westfalen;1.0585557252094144;DE;45881;gelsenkirchen;nordrhein-westfalen;reg.-bez. munster
nordrhein-westfalen;1.0585557252094144;DE;50733;koln;nordrhein-westfalen;regierungsbezirk koln
nordrhein-westfalen;1.0585557252094144;DE;59320;ennigerloh;nordrhein-westfalen;reg.-bez. munster
nordrhein-westfalen;1.0585557252094144;DE;46049;oberhausen;nordrhein-westfalen;reg.-bez. dusseldorf
nordrhein-westfalen;1.0585557252094144;DE;50170;kerpen;nordrhein-westfalen;regierungsbezirk koln
nordrhein-westfalen;1.0585557252094144;DE;53879;euskirchen;nordrhein-westfalen;regierungsbezirk koln
nordrhein-westfalen;1.0585557252094144;DE;48145;munster;nordrhein-westfalen;reg.-bez. munster
nordrhein-westfalen;1.0585557252094144;DE;51503;rosrath;nordrhein-westfalen;regierungsbezirk koln
nordrhein-westfalen;1.0585557252094144;DE;40227;dusseldorf;nordrhein-westfalen;reg.-bez. dusseldorf
nordrhein-westfalen;1.0585557252094144;DE;32805;horn-bad meinberg;nordrhein-westfalen;reg.-bez. detmold
nordrhein-westfalen;1.0585557252094144;DE;51379;leverkusen;nordrhein-westfalen;regierungsbezirk koln
nordrhein-westfalen;1.0585557252094144;DE;40472;dusseldorf;nordrhein-westfalen;reg.-bez. dusseldorf
nordrhein-westfalen;1.0585557252094144;DE;48163;munster;nordrhein-westfalen;reg.-bez. munster
nordrhein-westfalen;1.0585557252094144;DE;47809;krefeld;nordrhein-westfalen;reg.-bez. dusseldorf
nordrhein-westfalen;1.0585557252094144;DE;44628;herne;nordrhein-westfalen;reg.-bez. arnsberg
nordrhein-westfalen;1.0585557252094144;DE;46236;bottrop;nordrhein-westfalen;reg.-bez. munster
nordrhein-westfalen;1.0585557252094144;DE;44649;herne;nordrhein-westfalen;reg.-bez. arnsberg
nordrhein-westfalen;1.0585557252094144;DE;44575;castrop-rauxel;nordrhein-westfalen;reg.-bez. munster
nordrhein-westfalen;1.0585557252094144;DE;46049;oberhausen;nordrhein-westfalen;reg.-bez. dusseldorf
nordrhein-westfalen;1.0585557252094144;DE;32832;augustdorf;nordrhein-westfalen;reg.-bez. detmold
nordrhein-westfalen;1.0585557252094144;DE;32549;bad oeynhausen;nordrhein-westfalen;reg.-bez. detmold
nordrhein-westfalen;1.0585557252094144;DE;59073;hamm;nordrhein-westfalen;reg.-bez. arnsberg
nordrhein-westfalen;1.0585557252094144;DE;52457;aldenhoven;nordrhein-westfalen;regierungsbezirk koln
nordrhein-westfalen;1.0585557252094144;DE;44229;dortmund;nordrhein-westfalen;reg.-bez. arnsberg
nordrhein-westfalen;1.0585557252094144;DE;47626;kevelaer;nordrhein-westfalen;reg.-bez. dusseldorf
nordrhein-westfalen;1.0585557252094144;DE;32312;lubbecke;nordrhein-westfalen;reg.-bez. detmold
nordrhein-westfalen;1.0585557252094144;DE;47665;sonsbeck;nordrhein-westfalen;reg.-bez. dusseldorf
nordrhein-westfalen;1.0585557252094144;DE;59394;nordkirchen;nordrhein-westfalen;reg.-bez. munster
nordrhein-westfalen;1.0585557252094144;DE;50674;koln;nordrhein-westfalen;regierungsbezirk koln
nordrhein-westfalen;1.0585557252094144;DE;44309;dortmund;nordrhein-westfalen;reg.-bez. arnsberg
nordrhein-westfalen;1.0585557252094144;DE;40885;ratingen;nordrhein-westfalen;reg.-bez. dusseldorf
nordrhein-westfalen;1.0585557252094144;DE;45897;gelsenkirchen;nordrhein-westfalen;reg.-bez. munster
nordrhein-westfalen;1.0585557252094144;DE;40595;dusseldorf;nordrhein-westfalen;reg.-bez. dusseldorf
nordrhein-westfalen;1.0585557252094144;DE;33154;salzkotten;nordrhein-westfalen;reg.-bez. detmold
nordrhein-westfalen;1.0585557252094144;DE;32584;lohne;nordrhein-westfalen;reg.-bez. detmold
nordrhein-westfalen;1.0585557252094144;DE;52525;waldfeucht, heinsberg;nordrhein-westfalen;regierungsbezirk koln
nordrhein-westfalen;1.0585557252094144;DE;48249;dulmen;nordrhein-westfalen;reg.-bez. munster
nordrhein-westfalen;1.0585557252094144;DE;46119;oberhausen;nordrhein-westfalen;reg.-bez. dusseldorf
nordrhein-westfalen;1.0585557252094144;DE;47809;krefeld;nordrhein-westfalen;reg.-bez. dusseldorf
nordrhein-westfalen;1.0585557252094144;DE;52351;duren;nordrhein-westfalen;regierungsbezirk koln
nordrhein-westfalen;1.0585557252094144;DE;33098;paderborn;nordrhein-westfalen;reg.-bez. detmold
nordrhein-westfalen;1.0585557252094144;DE;58119;hagen;nordrhein-westfalen;reg.-bez. arnsberg
nordrhein-westfalen;1.0585557252094144;DE;44139;dortmund;nordrhein-westfalen;reg.-bez. arnsberg
nordrhein-westfalen;1.0585557252094144;DE;57250;netphen;nordrhein-westfalen;reg.-bez. arnsberg
nordrhein-westfalen;1.0585557252094144;DE;58095;hagen;nordrhein-westfalen;reg.-bez. arnsberg
nordrhein-westfalen;1.0585557252094144;DE;40880;ratingen;nordrhein-westfalen;reg.-bez. dusseldorf
nordrhein-westfalen;1.0585557252094144;DE;32423;minden;nordrhein-westfalen;reg.-bez. detmold
nordrhein-westfalen;1.0585557252094144;DE;51103;koln;nordrhein-westfalen;regierungsbezirk koln
nordrhein-westfalen;1.0585557252094144;DE;41065;monchengladbach;nordrhein-westfalen;reg.-bez. dusseldorf
nordrhein-westfalen;1.0585557252094144;DE;42115;wuppertal;nordrhein-westfalen;reg.-bez. dusseldorf
nordrhein-westfalen;1.0585557252094144;DE;45525;hattingen;nordrhein-westfalen;reg.-bez. arnsberg
rheinland-pfalz;1.05913245521434;DE;56727;reudelsterz, mayen, sankt johann;rheinland-pfalz;-
rheinland-pfalz;1.05913245521434;DE;54296;trier;rheinland-pfalz;-
rheinland-pfalz;1.05913245521434;DE;67105;schifferstadt;rheinland-pfalz;-
rheinland-pfalz;1.05913245521434;DE;57610;almersbach, gieleroth, bachenberg, altenkirchen, michelbach, ingelbach;rheinland-pfalz;-
rheinland-pfalz;1.05913245521434;DE;55130;mainz;rheinland-pfalz;-
rheinland-pfalz;1.05913245521434;DE;67547;worms;rheinland-pfalz;-
rheinland-pfalz;1.05913245521434;DE;76887;bollenborn, oberhausen, bad bergzabern;rheinland-pfalz;-
rheinland-pfalz;1.05913245521434;DE;54344;kenn;rheinland-pfalz;-
rheinland-pfalz;1.05913245521434;DE;56477;waigandshain, nister-mohrendorf, rennerod, zehnhausen bei rennerod;rheinland-pfalz;-
rheinland-pfalz;1.05913245521434;DE;67061;ludwigshafen am rhein;rheinland-pfalz;-
rheinland-pfalz;1.05913245521434;DE;55130;mainz;rheinland-pfalz;-
rheinland-pfalz;1.05913245521434;DE;55232;ensheim, alzey;rheinland-pfalz;-
rheinland-pfalz;1.05913245521434;DE;54570;kalenborn-scheuern, weidenbach, neroth, bleckhausen, densborn, hohenfels-essingen, pelm, deudesfeld, meisburg, betteldorf, kirchweiler, schutz, berlingen, niederstadtfeld, murlenbach, wallenborn, rockeskyll, hinterweiler, salm, oberstadtfeld;rheinland-pfalz;-
rheinland-pfalz;1.05913245521434;DE;67141;neuhofen;rheinland-pfalz;-
rheinland-pfalz;1.05913245521434;DE;56410;montabaur;rheinland-pfalz;-
rheinland-pfalz;1.05913245521434;DE;56462;hohn;rheinland-pfalz;-
rheinland-pfalz;1.05913245521434;DE;67308;immesheim, russingen, niefernheim-zellertal, biedesheim, einselthum, albisheim (pfrimm), bubenheim, ottersheim, harxheim-zellertal, lautersheim, zell-zellertal;rheinland-pfalz;-
rheinland-pfalz;1.05913245521434;DE;54516;wittlich, flussbach;rheinland-pfalz;-
rheinland-pfalz;1.05913245521434;DE;67549;worms;rheinland-pfalz;-
rheinland-pfalz;1.05913245521434;DE;67549;worms;rheinland-pfalz;-
rheinland-pfalz;1.05913245521434;DE;55118;mainz;rheinland-pfalz;-
rheinland-pfalz;1.05913245521434;DE;56477;waigandshain, nister-mohrendorf, rennerod, zehnhausen bei rennerod;rheinland-pfalz;-
rheinland-pfalz;1.05913245521434;DE;66953;pirmasens;rheinland-pfalz;-
rheinland-pfalz;1.05913245521434;DE;55124;mainz;rheinland-pfalz;-
rheinland-pfalz;1.05913245521434;DE;67166;otterstadt;rheinland-pfalz;-
rheinland-pfalz;1.05913245521434;DE;54317;kasel, gutweiler, riveris, gusterath, korlingen, osburg, herl, morscheid, sommerau, lorscheid, thomm, farschweiler;rheinland-pfalz;-
rheinland-pfalz;1.05913245521434;DE;66497;contwig;rheinland-pfalz;-
rheinland-pfalz;1.05913245521434;DE;66892;bruchmuhlbach-miesau;rheinland-pfalz;-
rheinland-pfalz;1.05913245521434;DE;56072;koblenz;rheinland-pfalz;-
rheinland-pfalz;1.05913245521434;DE;67259;kleinniedesheim, beindersheim, heuchelheim bei frankenthal, grossniedesheim;rheinland-pfalz;-
rheinland-pfalz;1.05913245521434;DE;66955;pirmasens;rheinland-pfalz;-
rheinland-pfalz;1.05913245521434;DE;56130;bad ems;rheinland-pfalz;-
rheinland-pfalz;1.05913245521434;DE;66919;hettenhausen, hermersberg, obernheim-kirchenarnbach, herschberg, schauerberg, saalstadt, weselberg;rheinland-pfalz;-
rheinland-pfalz;1.05913245521434;DE;56072;koblenz;rheinland-pfalz;-
rheinland-pfalz;1.05913245521434;DE;66482;zweibrucken;rheinland-pfalz;-
rheinland-pfalz;1.05913245521434;DE;67578;gimbsheim;rheinland-pfalz;-
saarland;1.04835539247805;DE;66450;bexbach;saarland;-
saarland;1.04835539247805;DE;66663;merzig;saarland;-
saarland;1.04835539247805;DE;66132;saarbrucken;saarland;-
saarland;1.04835539247805;DE;66271;kleinblittersdorf;saarland;-
saarland;1.04835539247805;DE;66606;sankt wendel;saarland;-
saarland;1.04835539247805;DE;66578;schiffweiler;saarland;-
saarland;1.04835539247805;DE;66333;volklingen;saarland;-
saarland;1.04835539247805;DE;66740;saarlouis;saarland;-
saarland;1.04835539247805;DE;66763;dillingen;saarland;-
saarland;1.04835539247805;DE;66359;bous;saarland;-
saarland;1.04835539247805;DE;66839;schmelz;saarland;-
sachsen;1.1603641873303456;DE;7985;vogtlandisches oberland, elsterberg;sachsen;-
sachsen;1.1603641873303456;DE;4509;neukyhna, zwochau, krostitz, schonwolkau, zschortau, dobernitz, wiedemar, delitzsch, lobnitz;sachsen;-
sachsen;1.1603641873303456;DE;1309;dresden blasewitz, dresden;sachsen;-
sachsen;1.1603641873303456;DE;4207;leipzig;sachsen;-
sachsen;1.1603641873303456;DE;4279;leipzig;sachsen;-
sachsen;1.1603641873303456;DE;2785;olbersdorf;sachsen;-
sachsen;1.1603641873303456;DE;9126;chemnitz;sachsen;-
sachsen;1.1603641873303456;DE;9113;chemnitz;sachsen;-
sachsen;1.1603641873303456;DE;1169;dresden;sachsen;-
sachsen;1.1603641873303456;DE;1169;dresden;sachsen;-
sachsen;1.1603641873303456;DE;1796;struppen, pirna, dohma;sachsen;-
sachsen;1.1603641873303456;DE;1809;muglitztal, dohna, heidenau;sachsen;-
sachsen;1.1603641873303456;DE;8112;wilkau-hasslau;sachsen;-
sachsen;1.1603641873303456;DE;4720;zschaitz-ottewig, mochau, grossweitzschen, ziegra-knobelsdorf, dobeln, ebersbach;sachsen;-
sachsen;1.1603641873303456;DE;1169;dresden;sachsen;-
sachsen;1.1603641873303456;DE;4279;leipzig;sachsen;-
sachsen;1.1603641873303456;DE;1277;dresden striesen, dresden tolkewitz, dresden;sachsen;-
sachsen;1.1603641873303456;DE;4329;leipzig;sachsen;-
sachsen;1.1603641873303456;DE;4105;leipzig;sachsen;-
sachsen;1.1603641873303456;DE;1069;dresden;sachsen;-
sachsen;1.1603641873303456;DE;1277;dresden striesen, dresden tolkewitz, dresden;sachsen;-
sachsen;1.1603641873303456;DE;4179;leipzig;sachsen;-
sachsen;1.1603641873303456;DE;4155;leipzig;sachsen;-
sachsen;1.1603641873303456;DE;9111;chemnitz;sachsen;-
sachsen;1.1603641873303456;DE;9241;muhlau;sachsen;-
sachsen;1.1603641873303456;DE;1445;radebeul;sachsen;-
sachsen;1.1603641873303456;DE;4849;bad duben, kossa;sachsen;-
sachsen;1.1603641873303456;DE;8118;hartenstein hartenstein, hartenstein, hartenstein thierfeld, hartenstein zschocken;sachsen;-
sachsen;1.1603641873303456;DE;4179;leipzig;sachsen;-
sachsen;1.1603641873303456;DE;9456;annaberg-buchholz, mildenau;sachsen;-
sachsen;1.1603641873303456;DE;4207;leipzig;sachsen;-
sachsen;1.1603641873303456;DE;2826;gorlitz;sachsen;-
sachsen;1.1603641873303456;DE;9131;chemnitz;sachsen;-
sachsen;1.1603641873303456;DE;2979;spreetal, elsterheide;sachsen;-
sachsen;1.1603641873303456;DE;1561;thiendorf, zabeltitz, tauscha, lampertswalde, priestewitz, wildenhain, schonfeld, ebersbach, weissig am raschutz;sachsen;-
sachsen;1.1603641873303456;DE;2779;grossschonau, hainewalde;sachsen;-
sachsen;1.1603641873303456;DE;4874;belgern;sachsen;-
sachsen;1.1603641873303456;DE;4860;torgau, zinna, pfluckuff, dreiheide;sachsen;-
sachsen;1.1603641873303456;DE;1896;pulsnitz, ohorn, lichtenberg;sachsen;-
sachsen;1.1603641873303456;DE;1844;neustadt in sachsen, hohwald;sachsen;-
sachsen;1.1603641873303456;DE;1561;thiendorf, zabeltitz, tauscha, lampertswalde, priestewitz, wildenhain, schonfeld, ebersbach, weissig am raschutz;sachsen;-
sachsen;1.1603641873303456;DE;4328;sellerhausen-stunz;sachsen;-
sachsen;1.1603641873303456;DE;1279;dresden tolkewitz, dresden;sachsen;-
sachsen;1.1603641873303456;DE;2689;sohland an der spree;sachsen;-
sachsen-anhalt;1.0617196302069667;DE;6242;grosskayna, braunsbedra, krumpa, rossbach;sachsen-anhalt;-
sachsen-anhalt;1.0617196302069667;DE;6905;bad schmiedeberg, meuro, korgau;sachsen-anhalt;-
sachsen-anhalt;1.0617196302069667;DE;6749;friedersdorf, bitterfeld;sachsen-anhalt;-
sachsen-anhalt;1.0617196302069667;DE;6526;wippra, sangerhausen;sachsen-anhalt;-
sachsen-anhalt;1.0617196302069667;DE;6184;grobers, schkopau lochau, schkopau burgliebenau, dolbau, schkopau rassnitz, grosskugel, schkopau ermlitz, dieskau, schkopau roglitz, schkopau, schkopau dollnitz;sachsen-anhalt;-
sachsen-anhalt;1.0617196302069667;DE;6766;bobbau, wolfen, thalheim, rodgen;sachsen-anhalt;-
sachsen-anhalt;1.0617196302069667;DE;6886;lutherstadt wittenberg;sachsen-anhalt;-
sachsen-anhalt;1.0617196302069667;DE;6766;bobbau, wolfen, thalheim, rodgen;sachsen-anhalt;-
sachsen-anhalt;1.0617196302069667;DE;6766;bobbau, wolfen, thalheim, rodgen;sachsen-anhalt;-
sachsen-anhalt;1.0617196302069667;DE;38828;wegeleben;sachsen-anhalt;-
sachsen-anhalt;1.0617196302069667;DE;39576;stendal;sachsen-anhalt;-
sachsen-anhalt;1.0617196302069667;DE;6188;spickendorf, peissen, braschwitz, oppin, niemberg, schwerz, sietzsch, queis, landsberg, hohenthurm, brachstedt, reussen;sachsen-anhalt;-
sachsen-anhalt;1.0617196302069667;DE;6862;rodleben, rosslau, brambach;sachsen-anhalt;-
sachsen-anhalt;1.0617196302069667;DE;39288;burg;sachsen-anhalt;-
sachsen-anhalt;1.0617196302069667;DE;38855;wernigerode, danstedt, reddeber, schmatzfeld, heudeber;sachsen-anhalt;-
sachsen-anhalt;1.0617196302069667;DE;39387;ampfurth, am grossen bruch neuwegersleben, altbrandsleben, am grossen bruch, wulferstedt, oschersleben, hornhausen, schermcke;sachsen-anhalt;-
sachsen-anhalt;1.0617196302069667;DE;39365;sommersdorf, ummendorf, eilsleben, marienborn, harbke, dreileben, seehausen, ovelgunne, eggenstedt, drackenstedt, wormsdorf, wefensleben, druxberge;sachsen-anhalt;-
sachsen-anhalt;1.0617196302069667;DE;38899;trautenstein, stiege, hasselfelde;sachsen-anhalt;-
sachsen-anhalt;1.0617196302069667;DE;39128;magdeburg;sachsen-anhalt;-
schleswig-holstein;1.0304961573399851;DE;25746;lohe-rickelshof, wesseln, ostrohe, norderwohrden, heide;schleswig-holstein;-
schleswig-holstein;1.0304961573399851;DE;25693;volsemenhusen, trennewurth, gudendorf, sankt michaelisdonn;schleswig-holstein;-
schleswig-holstein;1.0304961573399851;DE;22926;ahrensburg;schleswig-holstein;-
schleswig-holstein;1.0304961573399851;DE;25337;seeth-ekholt, elmshorn, kolln-reisiek;schleswig-holstein;-
schleswig-holstein;1.0304961573399851;DE;24146;kiel;schleswig-holstein;-
schleswig-holstein;1.0304961573399851;DE;24558;henstedt-ulzburg, wakendorf ii;schleswig-holstein;-
schleswig-holstein;1.0304961573399851;DE;23899;besenthal, gudow;schleswig-holstein;-
schleswig-holstein;1.0304961573399851;DE;25845;nordstrand, elisabeth-sophien-koog;schleswig-holstein;-
schleswig-holstein;1.0304961573399851;DE;23909;mechow, romnitz, giesensdorf, bak, ratzeburg, fredeburg, albsfelde;schleswig-holstein;-
schleswig-holstein;1.0304961573399851;DE;25524;breitenburg, kollmoor, heiligenstedtenerkamp, bekmunde, oelixdorf, heiligenstedten, itzehoe;schleswig-holstein;-
schleswig-holstein;1.0304961573399851;DE;24558;henstedt-ulzburg, wakendorf ii;schleswig-holstein;-
schleswig-holstein;1.0304961573399851;DE;24114;kiel;schleswig-holstein;-
schleswig-holstein;1.0304961573399851;DE;24943;tastrup, flensburg;schleswig-holstein;-
schleswig-holstein;1.0304961573399851;DE;23554;lubeck;schleswig-holstein;-
schleswig-holstein;1.0304961573399851;DE;24229;danischenhagen, strande, schwedeneck;schleswig-holstein;-
schleswig-holstein;1.0304961573399851;DE;24119;kronshagen;schleswig-holstein;-
schleswig-holstein;1.0304961573399851;DE;23558;lubeck;schleswig-holstein;-
schleswig-holstein;1.0304961573399851;DE;23701;susel, eutin;schleswig-holstein;-
schleswig-holstein;1.0304961573399851;DE;24628;hartenholm;schleswig-holstein;-
schleswig-holstein;1.0304961573399851;DE;21481;lauenburg/elbe, buchhorst, schnakenbek;schleswig-holstein;-
schleswig-holstein;1.0304961573399851;DE;24113;molfsee, kiel;schleswig-holstein;-
schleswig-holstein;1.0304961573399851;DE;23909;mechow, romnitz, giesensdorf, bak, ratzeburg, fredeburg, albsfelde;schleswig-holstein;-
schleswig-holstein;1.0304961573399851;DE;25917;stadum, tinningstedt, sprakebull, enge-sande, achtrup, leck;schleswig-holstein;-
thuringen;1.0582176174713038;DE;98634;humpfershausen, oberweid, melpers, kaltenwestheim, frankenheim, unterweid, unterkatz, kaltensundheim, friedelshausen, wasungen, erbenhausen, wahns, birx, oberkatz, oepfershausen, mehmels, aschenhausen;thuringen;-
thuringen;1.0582176174713038;DE;99817;eisenach;thuringen;-
thuringen;1.0582176174713038;DE;99310;wachsenburggemeinde, osthausen-wulfershausen, wipfratal, witzleben, alkersleben, dornheim, bosleben-wullersleben, arnstadt;thuringen;-
thuringen;1.0582176174713038;DE;99102;rockhausen, klettbach;thuringen;-
thuringen;1.0582176174713038;DE;98528;suhl;thuringen;-
thuringen;1.0582176174713038;DE;7749;jena;thuringen;-
thuringen;1.0582176174713038;DE;4600;altenburg;thuringen;-
thuringen;1.0582176174713038;DE;96515;sonneberg;thuringen;-
thuringen;1.0582176174713038;DE;99817;eisenach;thuringen;-
thuringen;1.0582176174713038;DE;36433;bad salzungen, leimbach, moorgrund, immelborn;thuringen;-
thuringen;1.0582176174713038;DE;99706;sondershausen;thuringen;-
thuringen;1.0582176174713038;DE;98587;steinbach-hallenberg, altersbach, bermbach, rotterode, oberschonau, unterschonau, springstille;thuringen;-
thuringen;1.0582176174713038;DE;7639;bad klosterlausnitz, weissenborn, tautenhain;thuringen;-
thuringen;1.0582176174713038;DE;99330;liebenstein, grafenroda, crawinkel, frankenhain;thuringen;-
thuringen;1.0582176174713038;DE;7338;altenbeuthen, hohenwarte, leutenberg, drognitz, kaulsdorf;thuringen;-
thuringen;1.0582176174713038;DE;99734;nordhausen;thuringen;-
thuringen;1.0582176174713038;DE;98587;steinbach-hallenberg, altersbach, bermbach, rotterode, oberschonau, unterschonau, springstille;thuringen;-
thuringen;1.0582176174713038;DE;98617;vachdorf, obermassfeld-grimmenthal, stepfershausen, belrieth, einhausen, herpf, rhonblick, ritschenhausen, ellingshausen, sulzfeld, leutersdorf, henneberg, bauerbach, untermassfeld, neubrunn, meiningen, wolfershausen, utendorf;thuringen;-
thuringen;1.0582176174713038;DE;7747;jena;thuringen;-
thuringen;1.0582176174713038;DE;98574;schmalkalden;thuringen;-
thuringen;1.0582176174713038;DE;99817;eisenach;thuringen;-
thuringen;1.0582176174713038;DE;4639;gossnitz;thuringen;-
thuringen;1.0582176174713038;DE;99310;wachsenburggemeinde, osthausen-wulfershausen, wipfratal, witzleben, alkersleben, dornheim, bosleben-wullersleben, arnstadt;thuringen;-
thuringen;1.0582176174713038;DE;99867;gotha;thuringen;-
thuringen;1.0582176174713038;DE;7545;gera;thuringen;-
