state;mortality_rate;country_code;postal_code;place_name;state_name;county_name
budapest;1.1040777201463134;HU;1119;budapest;budapest;-
budapest;1.1040777201463134;HU;1111;budapest;budapest;-
budapest;1.1040777201463134;HU;1038;budapest;budapest;-
budapest;1.1040777201463134;HU;1046;budapest;budapest;-
budapest;1.1040777201463134;HU;1193;budapest;budapest;-
budapest;1.1040777201463134;HU;1165;budapest;budapest;-
budapest;1.1040777201463134;HU;1046;budapest;budapest;-
budapest;1.1040777201463134;HU;1031;budapest;budapest;-
budapest;1.1040777201463134;HU;1214;budapest;budapest;-
budapest;1.1040777201463134;HU;1204;budapest;budapest;-
budapest;1.1040777201463134;HU;1171;budapest;budapest;-
budapest;1.1040777201463134;HU;1173;budapest;budapest;-
budapest;1.1040777201463134;HU;1135;budapest;budapest;-
budapest;1.1040777201463134;HU;1203;budapest;budapest;-
budapest;1.1040777201463134;HU;1132;budapest;budapest;-
budapest;1.1040777201463134;HU;1036;budapest;budapest;-
budapest;1.1040777201463134;HU;1024;budapest;budapest;-
budapest;1.1040777201463134;HU;1035;budapest;budapest;-
budapest;1.1040777201463134;HU;1103;budapest;budapest;-
budapest;1.1040777201463134;HU;1192;budapest;budapest;-
budapest;1.1040777201463134;HU;1174;budapest;budapest;-
budapest;1.1040777201463134;HU;1172;budapest;budapest;-
budapest;1.1040777201463134;HU;1223;budapest;budapest;-
budapest;1.1040777201463134;HU;1107;budapest;budapest;-
budapest;1.1040777201463134;HU;1095;budapest;budapest;-
budapest;1.1040777201463134;HU;1115;budapest;budapest;-
budapest;1.1040777201463134;HU;1203;budapest;budapest;-
budapest;1.1040777201463134;HU;1144;budapest;budapest;-
budapest;1.1040777201463134;HU;1215;budapest;budapest;-
budapest;1.1040777201463134;HU;1118;budapest;budapest;-
budapest;1.1040777201463134;HU;1112;budapest;budapest;-
budapest;1.1040777201463134;HU;1147;budapest;budapest;-
budapest;1.1040777201463134;HU;1074;budapest;budapest;-
budapest;1.1040777201463134;HU;1144;budapest;budapest;-
budapest;1.1040777201463134;HU;1132;budapest;budapest;-
budapest;1.1040777201463134;HU;1141;budapest;budapest;-
budapest;1.1040777201463134;HU;1181;budapest;budapest;-
budapest;1.1040777201463134;HU;1118;budapest;budapest;-
budapest;1.1040777201463134;HU;1118;budapest;budapest;-
budapest;1.1040777201463134;HU;1214;budapest;budapest;-
budapest;1.1040777201463134;HU;1035;budapest;budapest;-
budapest;1.1040777201463134;HU;1149;budapest;budapest;-
budapest;1.1040777201463134;HU;1162;budapest;budapest;-
budapest;1.1040777201463134;HU;1203;budapest;budapest;-
budapest;1.1040777201463134;HU;1135;budapest;budapest;-
budapest;1.1040777201463134;HU;1116;budapest;budapest;-
budapest;1.1040777201463134;HU;1132;budapest;budapest;-
budapest;1.1040777201463134;HU;1132;budapest;budapest;-
budapest;1.1040777201463134;HU;1201;budapest;budapest;-
budapest;1.1040777201463134;HU;1115;budapest;budapest;-
budapest;1.1040777201463134;HU;1106;budapest;budapest;-
budapest;1.1040777201463134;HU;1214;budapest;budapest;-
budapest;1.1040777201463134;HU;1108;budapest;budapest;-
budapest;1.1040777201463134;HU;1188;budapest;budapest;-
budapest;1.1040777201463134;HU;1013;budapest;budapest;-
budapest;1.1040777201463134;HU;1214;budapest;budapest;-
budapest;1.1040777201463134;HU;1183;budapest;budapest;-
budapest;1.1040777201463134;HU;1042;budapest;budapest;-
budapest;1.1040777201463134;HU;1136;budapest;budapest;-
budapest;1.1040777201463134;HU;1031;budapest;budapest;-
budapest;1.1040777201463134;HU;1118;budapest;budapest;-
budapest;1.1040777201463134;HU;1149;budapest;budapest;-
budapest;1.1040777201463134;HU;1116;budapest;budapest;-
budapest;1.1040777201463134;HU;1071;budapest;budapest;-
budapest;1.1040777201463134;HU;1171;budapest;budapest;-
budapest;1.1040777201463134;HU;1031;budapest;budapest;-
budapest;1.1040777201463134;HU;1203;budapest;budapest;-
budapest;1.1040777201463134;HU;1154;budapest;budapest;-
budapest;1.1040777201463134;HU;1048;budapest;budapest;-
budapest;1.1040777201463134;HU;1134;budapest;budapest;-
budapest;1.1040777201463134;HU;1214;budapest;budapest;-
budapest;1.1040777201463134;HU;1201;budapest;budapest;-
budapest;1.1040777201463134;HU;1124;budapest;budapest;-
budapest;1.1040777201463134;HU;1046;budapest;budapest;-
budapest;1.1040777201463134;HU;1039;budapest;budapest;-
budapest;1.1040777201463134;HU;1144;budapest;budapest;-
budapest;1.1040777201463134;HU;1172;budapest;budapest;-
budapest;1.1040777201463134;HU;1148;budapest;budapest;-
budapest;1.1040777201463134;HU;1149;budapest;budapest;-
budapest;1.1040777201463134;HU;1121;budapest;budapest;-
budapest;1.1040777201463134;HU;1035;budapest;budapest;-
budapest;1.1040777201463134;HU;1173;budapest;budapest;-
budapest;1.1040777201463134;HU;1039;budapest;budapest;-
budapest;1.1040777201463134;HU;1039;budapest;budapest;-
budapest;1.1040777201463134;HU;1181;budapest;budapest;-
budapest;1.1040777201463134;HU;1213;budapest;budapest;-
budapest;1.1040777201463134;HU;1108;budapest;budapest;-
budapest;1.1040777201463134;HU;1195;budapest;budapest;-
budapest;1.1040777201463134;HU;1039;budapest;budapest;-
budapest;1.1040777201463134;HU;1156;budapest;budapest;-
budapest;1.1040777201463134;HU;1011;budapest;budapest;-
budapest;1.1040777201463134;HU;1188;budapest;budapest;-
budapest;1.1040777201463134;HU;1027;budapest;budapest;-
budapest;1.1040777201463134;HU;1138;budapest;budapest;-
budapest;1.1040777201463134;HU;1145;budapest;budapest;-
budapest;1.1040777201463134;HU;1095;budapest;budapest;-
budapest;1.1040777201463134;HU;1184;budapest;budapest;-
budapest;1.1040777201463134;HU;1116;budapest;budapest;-
budapest;1.1040777201463134;HU;1145;budapest;budapest;-
budapest;1.1040777201463134;HU;1117;budapest;budapest;-
budapest;1.1040777201463134;HU;1162;budapest;budapest;-
budapest;1.1040777201463134;HU;1136;budapest;budapest;-
budapest;1.1040777201463134;HU;1042;budapest;budapest;-
budapest;1.1040777201463134;HU;1215;budapest;budapest;-
budapest;1.1040777201463134;HU;1043;budapest;budapest;-
budapest;1.1040777201463134;HU;1134;budapest;budapest;-
budapest;1.1040777201463134;HU;1117;budapest;budapest;-
budapest;1.1040777201463134;HU;1046;budapest;budapest;-
budapest;1.1040777201463134;HU;1131;budapest;budapest;-
budapest;1.1040777201463134;HU;1023;budapest;budapest;-
budapest;1.1040777201463134;HU;1188;budapest;budapest;-
budapest;1.1040777201463134;HU;1054;budapest;budapest;-
budapest;1.1040777201463134;HU;1185;budapest;budapest;-
budapest;1.1040777201463134;HU;1213;budapest;budapest;-
budapest;1.1040777201463134;HU;1238;budapest;budapest;-
budapest;1.1040777201463134;HU;1237;budapest;budapest;-
budapest;1.1040777201463134;HU;1022;budapest;budapest;-
budapest;1.1040777201463134;HU;1046;budapest;budapest;-
budapest;1.1040777201463134;HU;1165;budapest;budapest;-
budapest;1.1040777201463134;HU;1082;budapest;budapest;-
budapest;1.1040777201463134;HU;1116;budapest;budapest;-
budapest;1.1040777201463134;HU;1037;budapest;budapest;-
budapest;1.1040777201463134;HU;1117;budapest;budapest;-
budapest;1.1040777201463134;HU;1041;budapest;budapest;-
budapest;1.1040777201463134;HU;1133;budapest;budapest;-
budapest;1.1040777201463134;HU;1021;budapest;budapest;-
budapest;1.1040777201463134;HU;1185;budapest;budapest;-
budapest;1.1040777201463134;HU;1103;budapest;budapest;-
budapest;1.1040777201463134;HU;1085;budapest;budapest;-
budapest;1.1040777201463134;HU;1091;budapest;budapest;-
budapest;1.1040777201463134;HU;1138;budapest;budapest;-
budapest;1.1040777201463134;HU;1028;budapest;budapest;-
budapest;1.1040777201463134;HU;1084;budapest;budapest;-
budapest;1.1040777201463134;HU;1105;budapest;budapest;-
budapest;1.1040777201463134;HU;1108;budapest;budapest;-
budapest;1.1040777201463134;HU;1027;budapest;budapest;-
budapest;1.1040777201463134;HU;1204;budapest;budapest;-
budapest;1.1040777201463134;HU;1144;budapest;budapest;-
budapest;1.1040777201463134;HU;1062;budapest;budapest;-
budapest;1.1040777201463134;HU;1041;budapest;budapest;-
budapest;1.1040777201463134;HU;1021;budapest;budapest;-
budapest;1.1040777201463134;HU;1144;budapest;budapest;-
budapest;1.1040777201463134;HU;1138;budapest;budapest;-
budapest;1.1040777201463134;HU;1101;budapest;budapest;-
budapest;1.1040777201463134;HU;1214;budapest;budapest;-
pest;1.0911152339723769;HU;2220;vecses;pest;-
pest;1.0911152339723769;HU;2143;kistarcsa;pest;-
pest;1.0911152339723769;HU;2337;delegyhaza;pest;-
pest;1.0911152339723769;HU;2225;ullo;pest;-
pest;1.0911152339723769;HU;2461;tarnok;pest;-
pest;1.0911152339723769;HU;2700;cegled;pest;-
pest;1.0911152339723769;HU;2112;veresegyhaz;pest;-
pest;1.0911152339723769;HU;2100;godollo;pest;-
pest;1.0911152339723769;HU;2319;szigetujfalu;pest;-
pest;1.0911152339723769;HU;2600;vac;pest;-
pest;1.0911152339723769;HU;2711;tapioszentmarton;pest;-
pest;1.0911152339723769;HU;2040;budaors;pest;-
pest;1.0911152339723769;HU;2120;dunakeszi;pest;-
pest;1.0911152339723769;HU;2214;pand;pest;-
pest;1.0911152339723769;HU;2755;kocser;pest;-
pest;1.0911152339723769;HU;2000;szentendre;pest;-
pest;1.0911152339723769;HU;2132;god;pest;-
pest;1.0911152339723769;HU;2013;pomaz;pest;-
pest;1.0911152339723769;HU;2089;telki;pest;-
pest;1.0911152339723769;HU;2022;tahitotfalu;pest;-
pest;1.0911152339723769;HU;2234;maglod;pest;-
pest;1.0911152339723769;HU;2030;erd;pest;-
pest;1.0911152339723769;HU;2600;vac;pest;-
pest;1.0911152339723769;HU;2330;dunaharaszti;pest;-
pest;1.0911152339723769;HU;2233;ecser;pest;-
pest;1.0911152339723769;HU;2330;dunaharaszti;pest;-
pest;1.0911152339723769;HU;2120;dunakeszi;pest;-
pest;1.0911152339723769;HU;2200;monor;pest;-
pest;1.0911152339723769;HU;2233;ecser;pest;-
pest;1.0911152339723769;HU;2040;budaors;pest;-
pest;1.0911152339723769;HU;2337;delegyhaza;pest;-
pest;1.0911152339723769;HU;2143;kistarcsa;pest;-
pest;1.0911152339723769;HU;2461;tarnok;pest;-
pest;1.0911152339723769;HU;2711;tapioszentmarton;pest;-
pest;1.0911152339723769;HU;2085;pilisvorosvar;pest;-
pest;1.0911152339723769;HU;2134;szod;pest;-
pest;1.0911152339723769;HU;2143;kistarcsa;pest;-
pest;1.0911152339723769;HU;2040;budaors;pest;-
pest;1.0911152339723769;HU;2113;erdokertes;pest;-
pest;1.0911152339723769;HU;2750;nagykoros;pest;-
pest;1.0911152339723769;HU;2767;tapiogyorgye;pest;-
pest;1.0911152339723769;HU;2120;dunakeszi;pest;-
pest;1.0911152339723769;HU;2623;kismaros;pest;-
pest;1.0911152339723769;HU;2220;vecses;pest;-
pest;1.0911152339723769;HU;2225;ullo;pest;-
pest;1.0911152339723769;HU;2162;orbottyan;pest;-
pest;1.0911152339723769;HU;2120;dunakeszi;pest;-
pest;1.0911152339723769;HU;2330;dunaharaszti;pest;-
pest;1.0911152339723769;HU;2173;kartal;pest;-
pest;1.0911152339723769;HU;2118;dany;pest;-
pest;1.0911152339723769;HU;2142;nagytarcsa;pest;-
pest;1.0911152339723769;HU;2184;vacegres;pest;-
pest;1.0911152339723769;HU;2600;vac;pest;-
pest;1.0911152339723769;HU;2335;taksony;pest;-
pest;1.0911152339723769;HU;2200;monor;pest;-
pest;1.0911152339723769;HU;2315;szigethalom;pest;-
pest;1.0911152339723769;HU;2120;dunakeszi;pest;-
pest;1.0911152339723769;HU;2220;vecses;pest;-
pest;1.0911152339723769;HU;2220;vecses;pest;-
pest;1.0911152339723769;HU;2113;erdokertes;pest;-
pest;1.0911152339723769;HU;2194;tura;pest;-
pest;1.0911152339723769;HU;2740;abony;pest;-
pest;1.0911152339723769;HU;2315;szigethalom;pest;-
pest;1.0911152339723769;HU;2377;orkeny;pest;-
pest;1.0911152339723769;HU;2700;cegled;pest;-
pest;1.0911152339723769;HU;2071;paty;pest;-
pest;1.0911152339723769;HU;2120;dunakeszi;pest;-
pest;1.0911152339723769;HU;2100;godollo;pest;-
pest;1.0911152339723769;HU;2768;ujszilvas;pest;-
pest;1.0911152339723769;HU;2030;erd;pest;-
pest;1.0911152339723769;HU;2613;rad;pest;-
pest;1.0911152339723769;HU;2120;dunakeszi;pest;-
pest;1.0911152339723769;HU;2085;pilisvorosvar;pest;-
pest;1.0911152339723769;HU;2254;szentmartonkata;pest;-
pest;1.0911152339723769;HU;2364;ocsa;pest;-
pest;1.0911152339723769;HU;2316;tokol;pest;-
pest;1.0911152339723769;HU;2113;erdokertes;pest;-
pest;1.0911152339723769;HU;2151;fot;pest;-
pest;1.0911152339723769;HU;2030;erd;pest;-
pest;1.0911152339723769;HU;2116;zsambok;pest;-
pest;1.0911152339723769;HU;2045;torokbalint;pest;-
fejer;1.0929822179991855;HU;8000;szekesfehervar;fejer;-
fejer;1.0929822179991855;HU;8056;bakonycsernye;fejer;-
fejer;1.0929822179991855;HU;8000;szekesfehervar;fejer;-
fejer;1.0929822179991855;HU;8000;szekesfehervar;fejer;-
fejer;1.0929822179991855;HU;8000;szekesfehervar;fejer;-
fejer;1.0929822179991855;HU;7000;sarbogard;fejer;-
fejer;1.0929822179991855;HU;2400;dunaujvaros;fejer;-
fejer;1.0929822179991855;HU;8000;szekesfehervar;fejer;-
fejer;1.0929822179991855;HU;2400;dunaujvaros;fejer;-
fejer;1.0929822179991855;HU;2091;etyek;fejer;-
fejer;1.0929822179991855;HU;8000;szekesfehervar;fejer;-
fejer;1.0929822179991855;HU;8095;pakozd;fejer;-
fejer;1.0929822179991855;HU;2400;dunaujvaros;fejer;-
fejer;1.0929822179991855;HU;8000;szekesfehervar;fejer;-
fejer;1.0929822179991855;HU;8000;szekesfehervar;fejer;-
fejer;1.0929822179991855;HU;8000;szekesfehervar;fejer;-
fejer;1.0929822179991855;HU;8145;nadasdladany;fejer;-
fejer;1.0929822179991855;HU;8111;seregelyes;fejer;-
fejer;1.0929822179991855;HU;8000;szekesfehervar;fejer;-
fejer;1.0929822179991855;HU;8000;szekesfehervar;fejer;-
fejer;1.0929822179991855;HU;2060;bicske;fejer;-
fejer;1.0929822179991855;HU;8000;szekesfehervar;fejer;-
fejer;1.0929822179991855;HU;2431;perkata;fejer;-
fejer;1.0929822179991855;HU;7011;alap;fejer;-
fejer;1.0929822179991855;HU;8111;seregelyes;fejer;-
fejer;1.0929822179991855;HU;2463;tordas;fejer;-
fejer;1.0929822179991855;HU;8000;szekesfehervar;fejer;-
fejer;1.0929822179991855;HU;8081;zamoly;fejer;-
fejer;1.0929822179991855;HU;2091;etyek;fejer;-
fejer;1.0929822179991855;HU;8142;urhida;fejer;-
fejer;1.0929822179991855;HU;2400;dunaujvaros;fejer;-
fejer;1.0929822179991855;HU;8000;szekesfehervar;fejer;-
komarom-esztergom;1.133139570836683;HU;2800;tatabanya;komarom-esztergom;-
komarom-esztergom;1.133139570836683;HU;2533;bajot;komarom-esztergom;-
komarom-esztergom;1.133139570836683;HU;2545;dunaalmas;komarom-esztergom;-
komarom-esztergom;1.133139570836683;HU;2900;komarom;komarom-esztergom;-
komarom-esztergom;1.133139570836683;HU;2900;komarom;komarom-esztergom;-
komarom-esztergom;1.133139570836683;HU;2890;tata;komarom-esztergom;-
komarom-esztergom;1.133139570836683;HU;2896;szomod;komarom-esztergom;-
komarom-esztergom;1.133139570836683;HU;2500;esztergom;komarom-esztergom;-
komarom-esztergom;1.133139570836683;HU;2500;esztergom;komarom-esztergom;-
komarom-esztergom;1.133139570836683;HU;2800;tatabanya;komarom-esztergom;-
komarom-esztergom;1.133139570836683;HU;2859;verteskethely;komarom-esztergom;-
komarom-esztergom;1.133139570836683;HU;2800;tatabanya;komarom-esztergom;-
komarom-esztergom;1.133139570836683;HU;2500;esztergom;komarom-esztergom;-
komarom-esztergom;1.133139570836683;HU;2500;esztergom;komarom-esztergom;-
komarom-esztergom;1.133139570836683;HU;2800;tatabanya;komarom-esztergom;-
komarom-esztergom;1.133139570836683;HU;2900;komarom;komarom-esztergom;-
komarom-esztergom;1.133139570836683;HU;2500;esztergom;komarom-esztergom;-
komarom-esztergom;1.133139570836683;HU;2800;tatabanya;komarom-esztergom;-
komarom-esztergom;1.133139570836683;HU;2800;tatabanya;komarom-esztergom;-
komarom-esztergom;1.133139570836683;HU;2536;nyergesujfalu;komarom-esztergom;-
komarom-esztergom;1.133139570836683;HU;2837;vertesszolos;komarom-esztergom;-
komarom-esztergom;1.133139570836683;HU;2840;oroszlany;komarom-esztergom;-
komarom-esztergom;1.133139570836683;HU;2800;tatabanya;komarom-esztergom;-
komarom-esztergom;1.133139570836683;HU;2941;acs;komarom-esztergom;-
komarom-esztergom;1.133139570836683;HU;2500;esztergom;komarom-esztergom;-
komarom-esztergom;1.133139570836683;HU;2534;tat;komarom-esztergom;-
komarom-esztergom;1.133139570836683;HU;2800;tatabanya;komarom-esztergom;-
komarom-esztergom;1.133139570836683;HU;2800;tatabanya;komarom-esztergom;-
veszprem;1.1315291957003186;HU;8220;balatonalmadi;veszprem;-
veszprem;1.1315291957003186;HU;8300;raposka, tapolca;veszprem;-
veszprem;1.1315291957003186;HU;8227;felsoors;veszprem;-
veszprem;1.1315291957003186;HU;8553;lovaszpatona;veszprem;-
veszprem;1.1315291957003186;HU;8196;liter;veszprem;-
veszprem;1.1315291957003186;HU;8230;balatonfured;veszprem;-
veszprem;1.1315291957003186;HU;8191;osku;veszprem;-
veszprem;1.1315291957003186;HU;8319;lesenceistvand;veszprem;-
veszprem;1.1315291957003186;HU;8500;papa;veszprem;-
veszprem;1.1315291957003186;HU;8500;papa;veszprem;-
veszprem;1.1315291957003186;HU;8500;papa;veszprem;-
veszprem;1.1315291957003186;HU;8500;papa;veszprem;-
veszprem;1.1315291957003186;HU;8100;varpalota;veszprem;-
veszprem;1.1315291957003186;HU;8174;balatonkenese;veszprem;-
veszprem;1.1315291957003186;HU;8230;balatonfured;veszprem;-
veszprem;1.1315291957003186;HU;8420;zirc;veszprem;-
veszprem;1.1315291957003186;HU;8230;balatonfured;veszprem;-
veszprem;1.1315291957003186;HU;8175;balatonfuzfo;veszprem;-
veszprem;1.1315291957003186;HU;8551;nagygyimot;veszprem;-
veszprem;1.1315291957003186;HU;8412;veszprem;veszprem;-
veszprem;1.1315291957003186;HU;8105;petfurdo;veszprem;-
veszprem;1.1315291957003186;HU;8441;marko;veszprem;-
veszprem;1.1315291957003186;HU;8220;balatonalmadi;veszprem;-
veszprem;1.1315291957003186;HU;8220;balatonalmadi;veszprem;-
veszprem;1.1315291957003186;HU;8200;veszprem;veszprem;-
veszprem;1.1315291957003186;HU;8200;veszprem;veszprem;-
veszprem;1.1315291957003186;HU;8400;ajka;veszprem;-
veszprem;1.1315291957003186;HU;8500;papa;veszprem;-
veszprem;1.1315291957003186;HU;8196;liter;veszprem;-
veszprem;1.1315291957003186;HU;8300;raposka, tapolca;veszprem;-
gyor-moson-sopron;1.1561536305018223;HU;9023;gyor;gyor-moson-sopron;-
gyor-moson-sopron;1.1561536305018223;HU;9023;gyor;gyor-moson-sopron;-
gyor-moson-sopron;1.1561536305018223;HU;9064;vamosszabadi;gyor-moson-sopron;-
gyor-moson-sopron;1.1561536305018223;HU;9025;gyor;gyor-moson-sopron;-
gyor-moson-sopron;1.1561536305018223;HU;9085;pazmandfalu;gyor-moson-sopron;-
gyor-moson-sopron;1.1561536305018223;HU;9024;gyor;gyor-moson-sopron;-
gyor-moson-sopron;1.1561536305018223;HU;9028;gyor;gyor-moson-sopron;-
gyor-moson-sopron;1.1561536305018223;HU;9022;gyor;gyor-moson-sopron;-
gyor-moson-sopron;1.1561536305018223;HU;9011;gyor;gyor-moson-sopron;-
gyor-moson-sopron;1.1561536305018223;HU;9400;sopron;gyor-moson-sopron;-
gyor-moson-sopron;1.1561536305018223;HU;9019;gyor;gyor-moson-sopron;-
gyor-moson-sopron;1.1561536305018223;HU;9012;gyor;gyor-moson-sopron;-
gyor-moson-sopron;1.1561536305018223;HU;9200;mosonmagyarovar;gyor-moson-sopron;-
gyor-moson-sopron;1.1561536305018223;HU;9400;sopron;gyor-moson-sopron;-
gyor-moson-sopron;1.1561536305018223;HU;9028;gyor;gyor-moson-sopron;-
gyor-moson-sopron;1.1561536305018223;HU;9400;sopron;gyor-moson-sopron;-
gyor-moson-sopron;1.1561536305018223;HU;9027;gyor;gyor-moson-sopron;-
gyor-moson-sopron;1.1561536305018223;HU;9026;gyor;gyor-moson-sopron;-
gyor-moson-sopron;1.1561536305018223;HU;9200;mosonmagyarovar;gyor-moson-sopron;-
gyor-moson-sopron;1.1561536305018223;HU;9400;sopron;gyor-moson-sopron;-
gyor-moson-sopron;1.1561536305018223;HU;9300;csorna;gyor-moson-sopron;-
gyor-moson-sopron;1.1561536305018223;HU;9023;gyor;gyor-moson-sopron;-
gyor-moson-sopron;1.1561536305018223;HU;9372;csapod;gyor-moson-sopron;-
gyor-moson-sopron;1.1561536305018223;HU;9400;sopron;gyor-moson-sopron;-
gyor-moson-sopron;1.1561536305018223;HU;9023;gyor;gyor-moson-sopron;-
gyor-moson-sopron;1.1561536305018223;HU;9200;mosonmagyarovar;gyor-moson-sopron;-
gyor-moson-sopron;1.1561536305018223;HU;9096;nyalka;gyor-moson-sopron;-
gyor-moson-sopron;1.1561536305018223;HU;9400;sopron;gyor-moson-sopron;-
gyor-moson-sopron;1.1561536305018223;HU;9200;mosonmagyarovar;gyor-moson-sopron;-
gyor-moson-sopron;1.1561536305018223;HU;9176;mecser;gyor-moson-sopron;-
gyor-moson-sopron;1.1561536305018223;HU;9461;lovo;gyor-moson-sopron;-
gyor-moson-sopron;1.1561536305018223;HU;9012;gyor;gyor-moson-sopron;-
gyor-moson-sopron;1.1561536305018223;HU;9330;kapuvar;gyor-moson-sopron;-
gyor-moson-sopron;1.1561536305018223;HU;9172;gyorzamoly;gyor-moson-sopron;-
gyor-moson-sopron;1.1561536305018223;HU;9400;sopron;gyor-moson-sopron;-
gyor-moson-sopron;1.1561536305018223;HU;9025;gyor;gyor-moson-sopron;-
gyor-moson-sopron;1.1561536305018223;HU;9023;gyor;gyor-moson-sopron;-
gyor-moson-sopron;1.1561536305018223;HU;9444;fertoszentmiklos;gyor-moson-sopron;-
gyor-moson-sopron;1.1561536305018223;HU;9028;gyor;gyor-moson-sopron;-
gyor-moson-sopron;1.1561536305018223;HU;9012;gyor;gyor-moson-sopron;-
gyor-moson-sopron;1.1561536305018223;HU;9400;sopron;gyor-moson-sopron;-
gyor-moson-sopron;1.1561536305018223;HU;9400;sopron;gyor-moson-sopron;-
gyor-moson-sopron;1.1561536305018223;HU;9400;sopron;gyor-moson-sopron;-
gyor-moson-sopron;1.1561536305018223;HU;9072;nagyszentjanos;gyor-moson-sopron;-
gyor-moson-sopron;1.1561536305018223;HU;9142;rabapatona;gyor-moson-sopron;-
vas;1.1272807210375906;HU;9600;sarvar;vas;-
vas;1.1272807210375906;HU;9900;kormend;vas;-
vas;1.1272807210375906;HU;9700;szombathely;vas;-
vas;1.1272807210375906;HU;9798;jak;vas;-
vas;1.1272807210375906;HU;9700;szombathely;vas;-
vas;1.1272807210375906;HU;9700;szombathely;vas;-
vas;1.1272807210375906;HU;9500;celldomolk;vas;-
vas;1.1272807210375906;HU;9651;uraiujfalu;vas;-
vas;1.1272807210375906;HU;9700;szombathely;vas;-
vas;1.1272807210375906;HU;9900;kormend;vas;-
vas;1.1272807210375906;HU;9653;repcelak;vas;-
vas;1.1272807210375906;HU;9766;rabatottos, rum, zsennye;vas;-
vas;1.1272807210375906;HU;9700;szombathely;vas;-
vas;1.1272807210375906;HU;9730;koszeg;vas;-
vas;1.1272807210375906;HU;9841;kam;vas;-
vas;1.1272807210375906;HU;9500;celldomolk;vas;-
zala;1.1473990306946689;HU;8900;zalaegerszeg;zala;-
zala;1.1473990306946689;HU;8314;vonyarcvashegy;zala;-
zala;1.1473990306946689;HU;8900;zalaegerszeg;zala;-
zala;1.1473990306946689;HU;8800;nagykanizsa;zala;-
zala;1.1473990306946689;HU;8900;zalaegerszeg;zala;-
zala;1.1473990306946689;HU;8380;heviz;zala;-
zala;1.1473990306946689;HU;8900;zalaegerszeg;zala;-
zala;1.1473990306946689;HU;8752;zalakomar;zala;-
zala;1.1473990306946689;HU;8360;keszthely;zala;-
zala;1.1473990306946689;HU;8800;nagykanizsa;zala;-
zala;1.1473990306946689;HU;8360;keszthely;zala;-
zala;1.1473990306946689;HU;8900;zalaegerszeg;zala;-
zala;1.1473990306946689;HU;8900;zalaegerszeg;zala;-
zala;1.1473990306946689;HU;8800;nagykanizsa;zala;-
zala;1.1473990306946689;HU;8800;nagykanizsa;zala;-
zala;1.1473990306946689;HU;8900;zalaegerszeg;zala;-
zala;1.1473990306946689;HU;8911;nagykutas, kiskutas;zala;-
baranya;1.0866732477788743;HU;7735;szur, himeshaza, erdosmarok;baranya;-
baranya;1.0866732477788743;HU;7813;szava;baranya;-
baranya;1.0866732477788743;HU;7811;szalanta, bosta, szilvas, turony, csarnota, bisse;baranya;-
baranya;1.0866732477788743;HU;7960;dravasztara, dravaivanyi, sumony, sellye, sosvertike, marocsa;baranya;-
baranya;1.0866732477788743;HU;7951;pecsbagota, veleny, gerde, szabadszentkiraly;baranya;-
baranya;1.0866732477788743;HU;7300;komlo;baranya;-
baranya;1.0866732477788743;HU;7815;harkany;baranya;-
baranya;1.0866732477788743;HU;7847;dravaszerdahely, kovacshida, ipacsfa;baranya;-
baranya;1.0866732477788743;HU;7621;pecs;baranya;-
baranya;1.0866732477788743;HU;7632;pecs;baranya;-
baranya;1.0866732477788743;HU;7635;pecs;baranya;-
baranya;1.0866732477788743;HU;7900;botykapeterd, szigetvar, cserto;baranya;-
baranya;1.0866732477788743;HU;7621;pecs;baranya;-
baranya;1.0866732477788743;HU;7623;pecs;baranya;-
baranya;1.0866732477788743;HU;7635;pecs;baranya;-
baranya;1.0866732477788743;HU;7833;szoke, regenye, gorcsony;baranya;-
baranya;1.0866732477788743;HU;7632;pecs;baranya;-
baranya;1.0866732477788743;HU;7691;pecs;baranya;-
baranya;1.0866732477788743;HU;7622;pecs;baranya;-
baranya;1.0866732477788743;HU;7300;komlo;baranya;-
baranya;1.0866732477788743;HU;7631;pecs;baranya;-
baranya;1.0866732477788743;HU;7627;pecs;baranya;-
baranya;1.0866732477788743;HU;7632;pecs;baranya;-
baranya;1.0866732477788743;HU;7747;belvardgyula, birjan;baranya;-
baranya;1.0866732477788743;HU;7634;pecs;baranya;-
baranya;1.0866732477788743;HU;7633;pecs;baranya;-
baranya;1.0866732477788743;HU;7626;pecs;baranya;-
baranya;1.0866732477788743;HU;7635;pecs;baranya;-
baranya;1.0866732477788743;HU;7632;pecs;baranya;-
baranya;1.0866732477788743;HU;7811;szalanta, bosta, szilvas, turony, csarnota, bisse;baranya;-
baranya;1.0866732477788743;HU;7800;siklos, kisharsany, nagytotfalu;baranya;-
baranya;1.0866732477788743;HU;7754;boly;baranya;-
baranya;1.0866732477788743;HU;7733;maraza, geresdlak;baranya;-
baranya;1.0866732477788743;HU;7691;pecs;baranya;-
somogy;1.068869912387712;HU;7521;kaposmero;somogy;-
somogy;1.068869912387712;HU;7400;zselickislak, kaposvar;somogy;-
somogy;1.068869912387712;HU;7400;zselickislak, kaposvar;somogy;-
somogy;1.068869912387712;HU;8600;siofok;somogy;-
somogy;1.068869912387712;HU;7400;zselickislak, kaposvar;somogy;-
somogy;1.068869912387712;HU;8674;nagocs;somogy;-
somogy;1.068869912387712;HU;7442;varda;somogy;-
somogy;1.068869912387712;HU;7400;zselickislak, kaposvar;somogy;-
somogy;1.068869912387712;HU;7400;zselickislak, kaposvar;somogy;-
somogy;1.068869912387712;HU;8719;bohonye;somogy;-
somogy;1.068869912387712;HU;8600;siofok;somogy;-
somogy;1.068869912387712;HU;7400;zselickislak, kaposvar;somogy;-
somogy;1.068869912387712;HU;8600;siofok;somogy;-
somogy;1.068869912387712;HU;7500;nagyatad;somogy;-
somogy;1.068869912387712;HU;7400;zselickislak, kaposvar;somogy;-
somogy;1.068869912387712;HU;8624;balatonszarszo;somogy;-
somogy;1.068869912387712;HU;8600;siofok;somogy;-
somogy;1.068869912387712;HU;7400;zselickislak, kaposvar;somogy;-
somogy;1.068869912387712;HU;7400;zselickislak, kaposvar;somogy;-
somogy;1.068869912387712;HU;8719;bohonye;somogy;-
somogy;1.068869912387712;HU;7400;zselickislak, kaposvar;somogy;-
somogy;1.068869912387712;HU;8600;siofok;somogy;-
somogy;1.068869912387712;HU;7461;orci;somogy;-
somogy;1.068869912387712;HU;8627;kotcse;somogy;-
tolna;1.1085632956432356;HU;7030;paks;tolna;-
tolna;1.1085632956432356;HU;7047;sarszentlorinc;tolna;-
tolna;1.1085632956432356;HU;7100;szekszard;tolna;-
tolna;1.1085632956432356;HU;7150;bonyhad;tolna;-
tolna;1.1085632956432356;HU;7131;tolna;tolna;-
tolna;1.1085632956432356;HU;7100;szekszard;tolna;-
tolna;1.1085632956432356;HU;7100;szekszard;tolna;-
tolna;1.1085632956432356;HU;7100;szekszard;tolna;-
tolna;1.1085632956432356;HU;7228;dobrokoz;tolna;-
tolna;1.1085632956432356;HU;7100;szekszard;tolna;-
tolna;1.1085632956432356;HU;7130;tolna;tolna;-
tolna;1.1085632956432356;HU;7100;szekszard;tolna;-
tolna;1.1085632956432356;HU;7100;szekszard;tolna;-
tolna;1.1085632956432356;HU;7085;nagyszekely;tolna;-
tolna;1.1085632956432356;HU;7100;szekszard;tolna;-
tolna;1.1085632956432356;HU;7030;paks;tolna;-
borsod-abauj-zemplen;1.1116643712257654;HU;3700;kazincbarcika;borsod-abauj-zemplen;-
borsod-abauj-zemplen;1.1116643712257654;HU;3528;miskolc;borsod-abauj-zemplen;-
borsod-abauj-zemplen;1.1116643712257654;HU;3524;miskolc;borsod-abauj-zemplen;-
borsod-abauj-zemplen;1.1116643712257654;HU;3532;miskolc;borsod-abauj-zemplen;-
borsod-abauj-zemplen;1.1116643712257654;HU;3519;miskolc;borsod-abauj-zemplen;-
borsod-abauj-zemplen;1.1116643712257654;HU;3980;satoraljaujhely;borsod-abauj-zemplen;-
borsod-abauj-zemplen;1.1116643712257654;HU;3636;vadna, sajogalgoc;borsod-abauj-zemplen;-
borsod-abauj-zemplen;1.1116643712257654;HU;3796;borsodszirak;borsod-abauj-zemplen;-
borsod-abauj-zemplen;1.1116643712257654;HU;3535;miskolc;borsod-abauj-zemplen;-
borsod-abauj-zemplen;1.1116643712257654;HU;3759;aggtelek;borsod-abauj-zemplen;-
borsod-abauj-zemplen;1.1116643712257654;HU;3525;miskolc;borsod-abauj-zemplen;-
borsod-abauj-zemplen;1.1116643712257654;HU;3525;miskolc;borsod-abauj-zemplen;-
borsod-abauj-zemplen;1.1116643712257654;HU;3600;ozd;borsod-abauj-zemplen;-
borsod-abauj-zemplen;1.1116643712257654;HU;3411;szomolya;borsod-abauj-zemplen;-
borsod-abauj-zemplen;1.1116643712257654;HU;3535;miskolc;borsod-abauj-zemplen;-
borsod-abauj-zemplen;1.1116643712257654;HU;3843;kiskinizs;borsod-abauj-zemplen;-
borsod-abauj-zemplen;1.1116643712257654;HU;3532;miskolc;borsod-abauj-zemplen;-
borsod-abauj-zemplen;1.1116643712257654;HU;3600;ozd;borsod-abauj-zemplen;-
borsod-abauj-zemplen;1.1116643712257654;HU;3529;miskolc;borsod-abauj-zemplen;-
borsod-abauj-zemplen;1.1116643712257654;HU;3580;tiszaujvaros;borsod-abauj-zemplen;-
borsod-abauj-zemplen;1.1116643712257654;HU;3565;tiszaluc;borsod-abauj-zemplen;-
borsod-abauj-zemplen;1.1116643712257654;HU;3530;miskolc;borsod-abauj-zemplen;-
borsod-abauj-zemplen;1.1116643712257654;HU;3884;boldogkoujfalu;borsod-abauj-zemplen;-
borsod-abauj-zemplen;1.1116643712257654;HU;3532;miskolc;borsod-abauj-zemplen;-
borsod-abauj-zemplen;1.1116643712257654;HU;3508;miskolc;borsod-abauj-zemplen;-
borsod-abauj-zemplen;1.1116643712257654;HU;3580;tiszaujvaros;borsod-abauj-zemplen;-
borsod-abauj-zemplen;1.1116643712257654;HU;3580;tiszaujvaros;borsod-abauj-zemplen;-
borsod-abauj-zemplen;1.1116643712257654;HU;3646;nekezseny;borsod-abauj-zemplen;-
borsod-abauj-zemplen;1.1116643712257654;HU;3416;tard;borsod-abauj-zemplen;-
borsod-abauj-zemplen;1.1116643712257654;HU;3980;satoraljaujhely;borsod-abauj-zemplen;-
borsod-abauj-zemplen;1.1116643712257654;HU;3530;miskolc;borsod-abauj-zemplen;-
borsod-abauj-zemplen;1.1116643712257654;HU;3626;hangony;borsod-abauj-zemplen;-
borsod-abauj-zemplen;1.1116643712257654;HU;3998;nyiri;borsod-abauj-zemplen;-
borsod-abauj-zemplen;1.1116643712257654;HU;3532;miskolc;borsod-abauj-zemplen;-
borsod-abauj-zemplen;1.1116643712257654;HU;3980;satoraljaujhely;borsod-abauj-zemplen;-
borsod-abauj-zemplen;1.1116643712257654;HU;3532;miskolc;borsod-abauj-zemplen;-
borsod-abauj-zemplen;1.1116643712257654;HU;3700;kazincbarcika;borsod-abauj-zemplen;-
borsod-abauj-zemplen;1.1116643712257654;HU;3526;miskolc;borsod-abauj-zemplen;-
borsod-abauj-zemplen;1.1116643712257654;HU;3922;taktaharkany;borsod-abauj-zemplen;-
borsod-abauj-zemplen;1.1116643712257654;HU;3518;miskolc;borsod-abauj-zemplen;-
borsod-abauj-zemplen;1.1116643712257654;HU;3529;miskolc;borsod-abauj-zemplen;-
borsod-abauj-zemplen;1.1116643712257654;HU;3600;ozd;borsod-abauj-zemplen;-
borsod-abauj-zemplen;1.1116643712257654;HU;3400;mezokovesd;borsod-abauj-zemplen;-
borsod-abauj-zemplen;1.1116643712257654;HU;3423;tibolddaroc;borsod-abauj-zemplen;-
borsod-abauj-zemplen;1.1116643712257654;HU;3556;kisgyor;borsod-abauj-zemplen;-
borsod-abauj-zemplen;1.1116643712257654;HU;3580;tiszaujvaros;borsod-abauj-zemplen;-
borsod-abauj-zemplen;1.1116643712257654;HU;3533;miskolc;borsod-abauj-zemplen;-
borsod-abauj-zemplen;1.1116643712257654;HU;3526;miskolc;borsod-abauj-zemplen;-
borsod-abauj-zemplen;1.1116643712257654;HU;3533;miskolc;borsod-abauj-zemplen;-
borsod-abauj-zemplen;1.1116643712257654;HU;3530;miskolc;borsod-abauj-zemplen;-
borsod-abauj-zemplen;1.1116643712257654;HU;3530;miskolc;borsod-abauj-zemplen;-
borsod-abauj-zemplen;1.1116643712257654;HU;3432;emod;borsod-abauj-zemplen;-
borsod-abauj-zemplen;1.1116643712257654;HU;3574;bocs;borsod-abauj-zemplen;-
heves;1.1205722070844686;HU;3300;eger;heves;-
heves;1.1205722070844686;HU;3381;pely;heves;-
heves;1.1205722070844686;HU;3348;szilvasvarad;heves;-
heves;1.1205722070844686;HU;3000;hatvan;heves;-
heves;1.1205722070844686;HU;3300;eger;heves;-
heves;1.1205722070844686;HU;3375;mezotarkany;heves;-
heves;1.1205722070844686;HU;3300;eger;heves;-
heves;1.1205722070844686;HU;3300;eger;heves;-
heves;1.1205722070844686;HU;3200;gyongyos;heves;-
heves;1.1205722070844686;HU;3246;matraderecske;heves;-
heves;1.1205722070844686;HU;3200;gyongyos;heves;-
heves;1.1205722070844686;HU;3300;eger;heves;-
heves;1.1205722070844686;HU;3275;detk;heves;-
heves;1.1205722070844686;HU;3273;halmajugra;heves;-
heves;1.1205722070844686;HU;3200;gyongyos;heves;-
heves;1.1205722070844686;HU;3015;csany;heves;-
heves;1.1205722070844686;HU;3377;szihalom;heves;-
heves;1.1205722070844686;HU;3394;egerszalok;heves;-
heves;1.1205722070844686;HU;3300;eger;heves;-
heves;1.1205722070844686;HU;3300;eger;heves;-
heves;1.1205722070844686;HU;3300;eger;heves;-
heves;1.1205722070844686;HU;3246;matraderecske;heves;-
heves;1.1205722070844686;HU;3300;eger;heves;-
heves;1.1205722070844686;HU;3384;kiskore;heves;-
heves;1.1205722070844686;HU;3000;hatvan;heves;-
heves;1.1205722070844686;HU;3261;abasar, palosvorosmart;heves;-
heves;1.1205722070844686;HU;3397;maklar;heves;-
heves;1.1205722070844686;HU;3200;gyongyos;heves;-
heves;1.1205722070844686;HU;3300;eger;heves;-
heves;1.1205722070844686;HU;3394;egerszalok;heves;-
nograd;1.088615997344839;HU;2669;ipolyvece;nograd;-
nograd;1.088615997344839;HU;3136;etes;nograd;-
nograd;1.088615997344839;HU;3077;matraverebely;nograd;-
nograd;1.088615997344839;HU;2669;ipolyvece;nograd;-
nograd;1.088615997344839;HU;3070;batonyterenye;nograd;-
nograd;1.088615997344839;HU;2660;balassagyarmat, ipolyszog;nograd;-
nograd;1.088615997344839;HU;3100;salgotarjan;nograd;-
nograd;1.088615997344839;HU;3100;salgotarjan;nograd;-
nograd;1.088615997344839;HU;3100;salgotarjan;nograd;-
nograd;1.088615997344839;HU;3187;nogradszakal;nograd;-
nograd;1.088615997344839;HU;3100;salgotarjan;nograd;-
nograd;1.088615997344839;HU;3060;paszto;nograd;-
nograd;1.088615997344839;HU;3100;salgotarjan;nograd;-
nograd;1.088615997344839;HU;3182;karancslapujto;nograd;-
nograd;1.088615997344839;HU;3100;salgotarjan;nograd;-
nograd;1.088615997344839;HU;3065;paszto;nograd;-
nograd;1.088615997344839;HU;3144;matranovak;nograd;-
nograd;1.088615997344839;HU;2618;nezsa;nograd;-
nograd;1.088615997344839;HU;3170;szecseny;nograd;-
nograd;1.088615997344839;HU;3070;batonyterenye;nograd;-
nograd;1.088615997344839;HU;2660;balassagyarmat, ipolyszog;nograd;-
hajdu-bihar;1.0986121256391526;HU;4026;debrecen;hajdu-bihar;-
hajdu-bihar;1.0986121256391526;HU;4026;debrecen;hajdu-bihar;-
hajdu-bihar;1.0986121256391526;HU;4087;hajdudorog;hajdu-bihar;-
hajdu-bihar;1.0986121256391526;HU;4030;debrecen;hajdu-bihar;-
hajdu-bihar;1.0986121256391526;HU;4026;debrecen;hajdu-bihar;-
hajdu-bihar;1.0986121256391526;HU;4031;debrecen;hajdu-bihar;-
hajdu-bihar;1.0986121256391526;HU;4067;egyek;hajdu-bihar;-
hajdu-bihar;1.0986121256391526;HU;4031;debrecen;hajdu-bihar;-
hajdu-bihar;1.0986121256391526;HU;4032;debrecen;hajdu-bihar;-
hajdu-bihar;1.0986121256391526;HU;4080;hajdunanas;hajdu-bihar;-
hajdu-bihar;1.0986121256391526;HU;4032;debrecen;hajdu-bihar;-
hajdu-bihar;1.0986121256391526;HU;4273;hajdubagos;hajdu-bihar;-
hajdu-bihar;1.0986121256391526;HU;4071;hortobagy;hajdu-bihar;-
hajdu-bihar;1.0986121256391526;HU;4271;mikepercs;hajdu-bihar;-
hajdu-bihar;1.0986121256391526;HU;4026;debrecen;hajdu-bihar;-
hajdu-bihar;1.0986121256391526;HU;4026;debrecen;hajdu-bihar;-
hajdu-bihar;1.0986121256391526;HU;4225;debrecen;hajdu-bihar;-
hajdu-bihar;1.0986121256391526;HU;4002;debrecen;hajdu-bihar;-
hajdu-bihar;1.0986121256391526;HU;4150;puspokladany;hajdu-bihar;-
hajdu-bihar;1.0986121256391526;HU;4271;mikepercs;hajdu-bihar;-
hajdu-bihar;1.0986121256391526;HU;4026;debrecen;hajdu-bihar;-
hajdu-bihar;1.0986121256391526;HU;4225;debrecen;hajdu-bihar;-
hajdu-bihar;1.0986121256391526;HU;4002;debrecen;hajdu-bihar;-
hajdu-bihar;1.0986121256391526;HU;4026;debrecen;hajdu-bihar;-
hajdu-bihar;1.0986121256391526;HU;4033;debrecen;hajdu-bihar;-
hajdu-bihar;1.0986121256391526;HU;4150;puspokladany;hajdu-bihar;-
hajdu-bihar;1.0986121256391526;HU;4029;debrecen;hajdu-bihar;-
hajdu-bihar;1.0986121256391526;HU;4031;debrecen;hajdu-bihar;-
hajdu-bihar;1.0986121256391526;HU;4031;debrecen;hajdu-bihar;-
hajdu-bihar;1.0986121256391526;HU;4029;debrecen;hajdu-bihar;-
hajdu-bihar;1.0986121256391526;HU;4032;debrecen;hajdu-bihar;-
hajdu-bihar;1.0986121256391526;HU;4028;debrecen;hajdu-bihar;-
hajdu-bihar;1.0986121256391526;HU;4080;hajdunanas;hajdu-bihar;-
hajdu-bihar;1.0986121256391526;HU;4220;hajduboszormeny;hajdu-bihar;-
hajdu-bihar;1.0986121256391526;HU;4031;debrecen;hajdu-bihar;-
hajdu-bihar;1.0986121256391526;HU;4031;debrecen;hajdu-bihar;-
hajdu-bihar;1.0986121256391526;HU;4060;balmazujvaros;hajdu-bihar;-
hajdu-bihar;1.0986121256391526;HU;4034;debrecen;hajdu-bihar;-
hajdu-bihar;1.0986121256391526;HU;4030;debrecen;hajdu-bihar;-
hajdu-bihar;1.0986121256391526;HU;4024;debrecen;hajdu-bihar;-
hajdu-bihar;1.0986121256391526;HU;4100;berettyoujfalu;hajdu-bihar;-
hajdu-bihar;1.0986121256391526;HU;4200;hajduszoboszlo;hajdu-bihar;-
hajdu-bihar;1.0986121256391526;HU;4030;debrecen;hajdu-bihar;-
hajdu-bihar;1.0986121256391526;HU;4032;debrecen;hajdu-bihar;-
hajdu-bihar;1.0986121256391526;HU;4031;debrecen;hajdu-bihar;-
hajdu-bihar;1.0986121256391526;HU;4225;debrecen;hajdu-bihar;-
hajdu-bihar;1.0986121256391526;HU;4031;debrecen;hajdu-bihar;-
hajdu-bihar;1.0986121256391526;HU;4100;berettyoujfalu;hajdu-bihar;-
hajdu-bihar;1.0986121256391526;HU;4225;debrecen;hajdu-bihar;-
hajdu-bihar;1.0986121256391526;HU;4181;nadudvar;hajdu-bihar;-
hajdu-bihar;1.0986121256391526;HU;4032;debrecen;hajdu-bihar;-
hajdu-bihar;1.0986121256391526;HU;4177;foldes;hajdu-bihar;-
hajdu-bihar;1.0986121256391526;HU;4032;debrecen;hajdu-bihar;-
hajdu-bihar;1.0986121256391526;HU;4030;debrecen;hajdu-bihar;-
hajdu-bihar;1.0986121256391526;HU;4110;biharkeresztes;hajdu-bihar;-
jasz-nagykun-szolnok;1.1151504217220694;HU;5100;jaszbereny;jasz-nagykun-szolnok;-
jasz-nagykun-szolnok;1.1151504217220694;HU;5085;rakoczifalva;jasz-nagykun-szolnok;-
jasz-nagykun-szolnok;1.1151504217220694;HU;5085;rakoczifalva;jasz-nagykun-szolnok;-
jasz-nagykun-szolnok;1.1151504217220694;HU;5340;kunhegyes;jasz-nagykun-szolnok;-
jasz-nagykun-szolnok;1.1151504217220694;HU;5000;szolnok;jasz-nagykun-szolnok;-
jasz-nagykun-szolnok;1.1151504217220694;HU;5440;kunszentmarton;jasz-nagykun-szolnok;-
jasz-nagykun-szolnok;1.1151504217220694;HU;5000;szolnok;jasz-nagykun-szolnok;-
jasz-nagykun-szolnok;1.1151504217220694;HU;5310;kisujszallas;jasz-nagykun-szolnok;-
jasz-nagykun-szolnok;1.1151504217220694;HU;5300;karcag;jasz-nagykun-szolnok;-
jasz-nagykun-szolnok;1.1151504217220694;HU;5440;kunszentmarton;jasz-nagykun-szolnok;-
jasz-nagykun-szolnok;1.1151504217220694;HU;5100;jaszbereny;jasz-nagykun-szolnok;-
jasz-nagykun-szolnok;1.1151504217220694;HU;5300;karcag;jasz-nagykun-szolnok;-
jasz-nagykun-szolnok;1.1151504217220694;HU;5000;szolnok;jasz-nagykun-szolnok;-
jasz-nagykun-szolnok;1.1151504217220694;HU;5464;tiszainoka;jasz-nagykun-szolnok;-
jasz-nagykun-szolnok;1.1151504217220694;HU;5091;toszeg;jasz-nagykun-szolnok;-
jasz-nagykun-szolnok;1.1151504217220694;HU;5063;hunyadfalva;jasz-nagykun-szolnok;-
jasz-nagykun-szolnok;1.1151504217220694;HU;5400;mezotur;jasz-nagykun-szolnok;-
jasz-nagykun-szolnok;1.1151504217220694;HU;5062;kotelek;jasz-nagykun-szolnok;-
jasz-nagykun-szolnok;1.1151504217220694;HU;5052;ujszasz;jasz-nagykun-szolnok;-
jasz-nagykun-szolnok;1.1151504217220694;HU;5122;jaszdozsa;jasz-nagykun-szolnok;-
jasz-nagykun-szolnok;1.1151504217220694;HU;5008;szolnok;jasz-nagykun-szolnok;-
jasz-nagykun-szolnok;1.1151504217220694;HU;5430;tiszafoldvar;jasz-nagykun-szolnok;-
jasz-nagykun-szolnok;1.1151504217220694;HU;5400;mezotur;jasz-nagykun-szolnok;-
jasz-nagykun-szolnok;1.1151504217220694;HU;5400;mezotur;jasz-nagykun-szolnok;-
jasz-nagykun-szolnok;1.1151504217220694;HU;5440;kunszentmarton;jasz-nagykun-szolnok;-
jasz-nagykun-szolnok;1.1151504217220694;HU;5211;tiszapuspoki;jasz-nagykun-szolnok;-
jasz-nagykun-szolnok;1.1151504217220694;HU;5310;kisujszallas;jasz-nagykun-szolnok;-
jasz-nagykun-szolnok;1.1151504217220694;HU;5300;karcag;jasz-nagykun-szolnok;-
jasz-nagykun-szolnok;1.1151504217220694;HU;5064;csataszog;jasz-nagykun-szolnok;-
jasz-nagykun-szolnok;1.1151504217220694;HU;5051;zagyvarekas;jasz-nagykun-szolnok;-
jasz-nagykun-szolnok;1.1151504217220694;HU;5234;tiszaroff;jasz-nagykun-szolnok;-
jasz-nagykun-szolnok;1.1151504217220694;HU;5141;jasztelek;jasz-nagykun-szolnok;-
jasz-nagykun-szolnok;1.1151504217220694;HU;5141;jasztelek;jasz-nagykun-szolnok;-
jasz-nagykun-szolnok;1.1151504217220694;HU;5081;szajol;jasz-nagykun-szolnok;-
jasz-nagykun-szolnok;1.1151504217220694;HU;5411;ketpo;jasz-nagykun-szolnok;-
szabolcs-szatmar-bereg;1.160463832136941;HU;4400;nyiregyhaza;szabolcs-szatmar-bereg;-
szabolcs-szatmar-bereg;1.160463832136941;HU;4400;nyiregyhaza;szabolcs-szatmar-bereg;-
szabolcs-szatmar-bereg;1.160463832136941;HU;4400;nyiregyhaza;szabolcs-szatmar-bereg;-
szabolcs-szatmar-bereg;1.160463832136941;HU;4515;kek;szabolcs-szatmar-bereg;-
szabolcs-szatmar-bereg;1.160463832136941;HU;4524;ajak;szabolcs-szatmar-bereg;-
szabolcs-szatmar-bereg;1.160463832136941;HU;4440;tiszavasvari;szabolcs-szatmar-bereg;-
szabolcs-szatmar-bereg;1.160463832136941;HU;4600;kisvarda;szabolcs-szatmar-bereg;-
szabolcs-szatmar-bereg;1.160463832136941;HU;4625;zahony, gyorocske;szabolcs-szatmar-bereg;-
szabolcs-szatmar-bereg;1.160463832136941;HU;4400;nyiregyhaza;szabolcs-szatmar-bereg;-
szabolcs-szatmar-bereg;1.160463832136941;HU;4600;kisvarda;szabolcs-szatmar-bereg;-
szabolcs-szatmar-bereg;1.160463832136941;HU;4474;tiszabercel;szabolcs-szatmar-bereg;-
szabolcs-szatmar-bereg;1.160463832136941;HU;4400;nyiregyhaza;szabolcs-szatmar-bereg;-
szabolcs-szatmar-bereg;1.160463832136941;HU;4300;nyirbator;szabolcs-szatmar-bereg;-
szabolcs-szatmar-bereg;1.160463832136941;HU;4341;nyirvasvari;szabolcs-szatmar-bereg;-
szabolcs-szatmar-bereg;1.160463832136941;HU;4400;nyiregyhaza;szabolcs-szatmar-bereg;-
szabolcs-szatmar-bereg;1.160463832136941;HU;4474;tiszabercel;szabolcs-szatmar-bereg;-
szabolcs-szatmar-bereg;1.160463832136941;HU;4600;kisvarda;szabolcs-szatmar-bereg;-
szabolcs-szatmar-bereg;1.160463832136941;HU;4400;nyiregyhaza;szabolcs-szatmar-bereg;-
szabolcs-szatmar-bereg;1.160463832136941;HU;4400;nyiregyhaza;szabolcs-szatmar-bereg;-
szabolcs-szatmar-bereg;1.160463832136941;HU;4965;kolcse;szabolcs-szatmar-bereg;-
szabolcs-szatmar-bereg;1.160463832136941;HU;4400;nyiregyhaza;szabolcs-szatmar-bereg;-
szabolcs-szatmar-bereg;1.160463832136941;HU;4400;nyiregyhaza;szabolcs-szatmar-bereg;-
szabolcs-szatmar-bereg;1.160463832136941;HU;4755;okoritofulpos;szabolcs-szatmar-bereg;-
szabolcs-szatmar-bereg;1.160463832136941;HU;4700;mateszalka;szabolcs-szatmar-bereg;-
szabolcs-szatmar-bereg;1.160463832136941;HU;4400;nyiregyhaza;szabolcs-szatmar-bereg;-
szabolcs-szatmar-bereg;1.160463832136941;HU;4400;nyiregyhaza;szabolcs-szatmar-bereg;-
szabolcs-szatmar-bereg;1.160463832136941;HU;4625;zahony, gyorocske;szabolcs-szatmar-bereg;-
szabolcs-szatmar-bereg;1.160463832136941;HU;4455;tiszadada;szabolcs-szatmar-bereg;-
szabolcs-szatmar-bereg;1.160463832136941;HU;4400;nyiregyhaza;szabolcs-szatmar-bereg;-
szabolcs-szatmar-bereg;1.160463832136941;HU;4440;tiszavasvari;szabolcs-szatmar-bereg;-
bacs-kiskun;1.1124852557457912;HU;6100;kiskunfelegyhaza;bacs-kiskun;-
bacs-kiskun;1.1124852557457912;HU;6341;homokmegy;bacs-kiskun;-
bacs-kiskun;1.1124852557457912;HU;6042;fulophaza;bacs-kiskun;-
bacs-kiskun;1.1124852557457912;HU;6430;bacsalmas;bacs-kiskun;-
bacs-kiskun;1.1124852557457912;HU;6000;kecskemet;bacs-kiskun;-
bacs-kiskun;1.1124852557457912;HU;6000;kecskemet;bacs-kiskun;-
bacs-kiskun;1.1124852557457912;HU;6000;kecskemet;bacs-kiskun;-
bacs-kiskun;1.1124852557457912;HU;6300;kalocsa;bacs-kiskun;-
bacs-kiskun;1.1124852557457912;HU;6000;kecskemet;bacs-kiskun;-
bacs-kiskun;1.1124852557457912;HU;6400;kiskunhalas;bacs-kiskun;-
bacs-kiskun;1.1124852557457912;HU;6200;kiskoros;bacs-kiskun;-
bacs-kiskun;1.1124852557457912;HU;6000;kecskemet;bacs-kiskun;-
bacs-kiskun;1.1124852557457912;HU;6085;fulopszallas;bacs-kiskun;-
bacs-kiskun;1.1124852557457912;HU;6500;baja;bacs-kiskun;-
bacs-kiskun;1.1124852557457912;HU;6100;kiskunfelegyhaza;bacs-kiskun;-
bacs-kiskun;1.1124852557457912;HU;6100;kiskunfelegyhaza;bacs-kiskun;-
bacs-kiskun;1.1124852557457912;HU;6000;kecskemet;bacs-kiskun;-
bacs-kiskun;1.1124852557457912;HU;6076;agasegyhaza;bacs-kiskun;-
bacs-kiskun;1.1124852557457912;HU;6326;harta;bacs-kiskun;-
bacs-kiskun;1.1124852557457912;HU;6050;lajosmizse;bacs-kiskun;-
bacs-kiskun;1.1124852557457912;HU;6000;kecskemet;bacs-kiskun;-
bacs-kiskun;1.1124852557457912;HU;6451;tatahaza;bacs-kiskun;-
bacs-kiskun;1.1124852557457912;HU;6400;kiskunhalas;bacs-kiskun;-
bacs-kiskun;1.1124852557457912;HU;6120;kiskunmajsa;bacs-kiskun;-
bacs-kiskun;1.1124852557457912;HU;6000;kecskemet;bacs-kiskun;-
bacs-kiskun;1.1124852557457912;HU;6400;kiskunhalas;bacs-kiskun;-
bacs-kiskun;1.1124852557457912;HU;6522;gara;bacs-kiskun;-
bacs-kiskun;1.1124852557457912;HU;6525;hercegszanto;bacs-kiskun;-
bacs-kiskun;1.1124852557457912;HU;6060;tiszakecske;bacs-kiskun;-
bacs-kiskun;1.1124852557457912;HU;6000;kecskemet;bacs-kiskun;-
bacs-kiskun;1.1124852557457912;HU;6525;hercegszanto;bacs-kiskun;-
bacs-kiskun;1.1124852557457912;HU;6000;kecskemet;bacs-kiskun;-
bacs-kiskun;1.1124852557457912;HU;6075;pahi;bacs-kiskun;-
bacs-kiskun;1.1124852557457912;HU;6345;nemesnadudvar;bacs-kiskun;-
bekes;1.1168831168831168;HU;5561;bekesszentandras;bekes;-
bekes;1.1168831168831168;HU;5700;gyula;bekes;-
bekes;1.1168831168831168;HU;5751;nagykamaras;bekes;-
bekes;1.1168831168831168;HU;5600;bekescsaba;bekes;-
bekes;1.1168831168831168;HU;5600;bekescsaba;bekes;-
bekes;1.1168831168831168;HU;5600;bekescsaba;bekes;-
bekes;1.1168831168831168;HU;5900;oroshaza;bekes;-
bekes;1.1168831168831168;HU;5743;lokoshaza;bekes;-
bekes;1.1168831168831168;HU;5525;fuzesgyarmat;bekes;-
bekes;1.1168831168831168;HU;5621;csardaszallas;bekes;-
bekes;1.1168831168831168;HU;5900;oroshaza;bekes;-
bekes;1.1168831168831168;HU;5600;bekescsaba;bekes;-
bekes;1.1168831168831168;HU;5540;szarvas;bekes;-
bekes;1.1168831168831168;HU;5900;oroshaza;bekes;-
bekes;1.1168831168831168;HU;5630;bekes;bekes;-
bekes;1.1168831168831168;HU;5500;gyomaendrod;bekes;-
bekes;1.1168831168831168;HU;5600;bekescsaba;bekes;-
bekes;1.1168831168831168;HU;5600;bekescsaba;bekes;-
bekes;1.1168831168831168;HU;5820;mezohegyes;bekes;-
bekes;1.1168831168831168;HU;5650;mezobereny;bekes;-
bekes;1.1168831168831168;HU;5600;bekescsaba;bekes;-
bekes;1.1168831168831168;HU;5623;bekescsaba;bekes;-
bekes;1.1168831168831168;HU;5820;mezohegyes;bekes;-
bekes;1.1168831168831168;HU;5700;gyula;bekes;-
bekes;1.1168831168831168;HU;5742;elek;bekes;-
bekes;1.1168831168831168;HU;5600;bekescsaba;bekes;-
bekes;1.1168831168831168;HU;5500;gyomaendrod;bekes;-
csongrad;1.0883798571826022;HU;6800;hodmezovasarhely;csongrad;-
csongrad;1.0883798571826022;HU;6700;szeged;csongrad;-
csongrad;1.0883798571826022;HU;6762;sandorfalva;csongrad;-
csongrad;1.0883798571826022;HU;6724;szeged;csongrad;-
csongrad;1.0883798571826022;HU;6640;csongrad;csongrad;-
csongrad;1.0883798571826022;HU;6600;szentes;csongrad;-
csongrad;1.0883798571826022;HU;6900;mako;csongrad;-
csongrad;1.0883798571826022;HU;6600;szentes;csongrad;-
csongrad;1.0883798571826022;HU;6724;szeged;csongrad;-
csongrad;1.0883798571826022;HU;6762;sandorfalva;csongrad;-
csongrad;1.0883798571826022;HU;6723;szeged;csongrad;-
csongrad;1.0883798571826022;HU;6800;hodmezovasarhely;csongrad;-
csongrad;1.0883798571826022;HU;6800;hodmezovasarhely;csongrad;-
csongrad;1.0883798571826022;HU;6800;hodmezovasarhely;csongrad;-
csongrad;1.0883798571826022;HU;6900;mako;csongrad;-
csongrad;1.0883798571826022;HU;6760;kistelek;csongrad;-
csongrad;1.0883798571826022;HU;6800;hodmezovasarhely;csongrad;-
csongrad;1.0883798571826022;HU;6760;kistelek;csongrad;-
csongrad;1.0883798571826022;HU;6640;csongrad;csongrad;-
csongrad;1.0883798571826022;HU;6800;hodmezovasarhely;csongrad;-
csongrad;1.0883798571826022;HU;6636;martely;csongrad;-
csongrad;1.0883798571826022;HU;6795;bordany;csongrad;-
csongrad;1.0883798571826022;HU;6729;szeged;csongrad;-
csongrad;1.0883798571826022;HU;6922;foldeak;csongrad;-
csongrad;1.0883798571826022;HU;6800;hodmezovasarhely;csongrad;-
csongrad;1.0883798571826022;HU;6900;mako;csongrad;-
csongrad;1.0883798571826022;HU;6723;szeged;csongrad;-
csongrad;1.0883798571826022;HU;6762;sandorfalva;csongrad;-
csongrad;1.0883798571826022;HU;6724;szeged;csongrad;-
csongrad;1.0883798571826022;HU;6723;szeged;csongrad;-
csongrad;1.0883798571826022;HU;6600;szentes;csongrad;-
csongrad;1.0883798571826022;HU;6723;szeged;csongrad;-
csongrad;1.0883798571826022;HU;6922;foldeak;csongrad;-
csongrad;1.0883798571826022;HU;6800;hodmezovasarhely;csongrad;-
csongrad;1.0883798571826022;HU;6900;mako;csongrad;-
csongrad;1.0883798571826022;HU;6800;hodmezovasarhely;csongrad;-
csongrad;1.0883798571826022;HU;6723;szeged;csongrad;-
csongrad;1.0883798571826022;HU;6640;csongrad;csongrad;-
csongrad;1.0883798571826022;HU;6900;mako;csongrad;-
csongrad;1.0883798571826022;HU;6726;szeged;csongrad;-
csongrad;1.0883798571826022;HU;6640;csongrad;csongrad;-
csongrad;1.0883798571826022;HU;6800;hodmezovasarhely;csongrad;-
csongrad;1.0883798571826022;HU;6913;csanadpalota;csongrad;-
csongrad;1.0883798571826022;HU;6729;szeged;csongrad;-
