state;mortality_rate;country_code;postal_code;place_name;state_name;county_name
torino;1.2547747956416415;IT;10074;lanzo torinese;piemonte;torino
torino;1.2547747956416415;IT;10100;torino;piemonte;torino
torino;1.2547747956416415;IT;10068;villafranca piemonte;piemonte;torino
torino;1.2547747956416415;IT;10152;torino;piemonte;torino
torino;1.2547747956416415;IT;10036;settimo torinese, olimpia;piemonte;torino
torino;1.2547747956416415;IT;10154;torino;piemonte;torino
torino;1.2547747956416415;IT;10022;fumeri, cavalleri, borgo salsasio, carmagnola, san bernardo carmagnola, san michele e grato;piemonte;torino
torino;1.2547747956416415;IT;10137;torino;piemonte;torino
torino;1.2547747956416415;IT;10147;torino;piemonte;torino
torino;1.2547747956416415;IT;10060;pragelato, massello, osasco, frossasco, roreto, rora', porte, miradolo, candiolo, san secondo di pinerolo, combalere, angrogna, villar pellice, dubbione, bibiana, buriasco, salza di pinerolo, roure, roletto, castagnole piemonte, piscina, bricherasio, none, scalenghe, mentoulles, viotto, villaretto chisone, prarostino, virle piemonte, cantalupa, airasca, campiglione fenile, riclaretto, villaretto, fenestrelle, garzigliana, castel del bosco, macello, san pietro val lemina, lusernetta, perrero, pinasca, inverso pinasca, roreto chisone, prali, castelnuovo, bobbio pellice, pra' catinat, pancalieri, usseaux, campiglione, cercenasco;piemonte;torino
torino;1.2547747956416415;IT;10126;torino;piemonte;torino
torino;1.2547747956416415;IT;10064;baudenasca, riva di pinerolo, pinerolo, abbadia alpina;piemonte;torino
torino;1.2547747956416415;IT;10137;torino;piemonte;torino
torino;1.2547747956416415;IT;10098;rivoli, cascine vica, tetti neirotti, bruere;piemonte;torino
torino;1.2547747956416415;IT;10124;torino;piemonte;torino
torino;1.2547747956416415;IT;10137;torino;piemonte;torino
torino;1.2547747956416415;IT;10060;pragelato, massello, osasco, frossasco, roreto, rora', porte, miradolo, candiolo, san secondo di pinerolo, combalere, angrogna, villar pellice, dubbione, bibiana, buriasco, salza di pinerolo, roure, roletto, castagnole piemonte, piscina, bricherasio, none, scalenghe, mentoulles, viotto, villaretto chisone, prarostino, virle piemonte, cantalupa, airasca, campiglione fenile, riclaretto, villaretto, fenestrelle, garzigliana, castel del bosco, macello, san pietro val lemina, lusernetta, perrero, pinasca, inverso pinasca, roreto chisone, prali, castelnuovo, bobbio pellice, pra' catinat, pancalieri, usseaux, campiglione, cercenasco;piemonte;torino
torino;1.2547747956416415;IT;10100;torino;piemonte;torino
torino;1.2547747956416415;IT;10078;venaria reale, altessano;piemonte;torino
torino;1.2547747956416415;IT;10031;borgomasino;piemonte;torino
torino;1.2547747956416415;IT;10134;torino;piemonte;torino
torino;1.2547747956416415;IT;10134;torino;piemonte;torino
torino;1.2547747956416415;IT;10070;chialamberto, monasterolo torinese, procaria, ala di stura, usseglio, robassomero, cantoira, rocca canavese, groscavallo, monastero di lanzo, vauda canavese superiore, vallo torinese, coassolo torinese, levone, viu', pessinetto, benne, fiano, san carlo canavese, monasterolo, bonzo, balme, traves, san francesco al campo, germagnano, front, lemie, vauda canavese, balangero, grosso, la villa, mondrone, corio, villanova canavese, barbania, ceres, forno alpi graie, cafasse, varisella, mezzenile, col san giovanni, col san giovanni di viu';piemonte;torino
torino;1.2547747956416415;IT;10148;torino;piemonte;torino
torino;1.2547747956416415;IT;10064;baudenasca, riva di pinerolo, pinerolo, abbadia alpina;piemonte;torino
torino;1.2547747956416415;IT;10093;collegno, savonera, regina margherita, borgata paradiso di collegno, leumann;piemonte;torino
torino;1.2547747956416415;IT;10155;torino;piemonte;torino
torino;1.2547747956416415;IT;10040;rivarossa, rivera, osasio, montelera, almese, piobesi torinese, caselette, novaretto, lombriasco, milanere, leini', pralormo, givoletto, san gillio, la cassa, lombardore, villar dora, brione, volvera, caprie, cumiana, zucche, la loggia, rubiana, gerbole, druento, tedeschi, val della torre, bivio cumiana, rivalta di torino;piemonte;torino
torino;1.2547747956416415;IT;10135;torino;piemonte;torino
vercelli;1.2990003029385035;IT;13100;brarola, vercelli, larizzate, prarolo, cappuccini, lignana;piemonte;vercelli
novara;1.254384400451816;IT;28062;cameri, cameri aeronautica;piemonte;novara
novara;1.254384400451816;IT;28040;massino visconti, marano ticino, oleggio castello, borgo ticino, varallo pombia, dormelletto, paruzzaro, lesa, mezzomerico;piemonte;novara
novara;1.254384400451816;IT;28010;soriso, bolzano novarese, fontaneto d'agogna, pisano, nebbiuno, ameno, boca, revislate, alzo, bogogno, divignano, agrate conturbia, briga novarese, cavaglietto, barengo, cavaglio d'agogna, colazza, caltignaga, sologno, vaprio d'agogna, cavallirio, miasino, gargallo, pella;piemonte;novara
novara;1.254384400451816;IT;28100;novara, olengo, casalgiate, torrion quartara, pernate, veveri, lumellogno, vignale, bicocca di novara, agognate, sant'agabio;piemonte;novara
cuneo;1.2247708033299378;IT;12030;gambasca, rifreddo di saluzzo, villanova solaro, monasterolo di savigliano, manta, rifreddo, ostana, murello, cavallerleone, faule, sanfront, crissolo, pagno, carde', marene, torre san giorgio, polonghera, caramagna piemonte, envie, scarnafigi, oncino, brondello, madonna del pilone, cavallermaggiore, lagnasco, martiniana po, casalgrasso, ruffia;piemonte;cuneo
cuneo;1.2247708033299378;IT;12060;niella tanaro, macellai, roddi, farigliano, barolo, verduno, piozzo, castiglione falletto, bossolasco, pocapaglia, magliano alpi sottano, marsaglia, clavesana, lequio tanaro, castellino tanaro, gallo di grinzane, madonna della neve, grinzane cavour, gallo, novello, magliano alpi, igliano, magliano alpi soprano, belvedere langhe, rocca ciglie', ciglie', somano, monchiero, bastia mondovi', murazzano, bonvicino;piemonte;cuneo
cuneo;1.2247708033299378;IT;12100;madonna delle grazie, san pietro del gallo, borgo gesso, roata rossi, ronchi, spinetta, passatore, madonna dell'olmo, confreria, cuneo, san rocco castagnaretta, san benigno, borgo san giuseppe;piemonte;cuneo
asti;1.2570277754468406;IT;14100;serravalle, stazione di portacomaro, sessant, quarto d'asti, revignano, mombarone, casabianca, variglie, montegrosso, san marzanotto, vaglierano, montemarzo d'asti, asti, poggio d'asti, portacomaro stazione, valletanaro, castiglione, valgera, montemarzo, viatosto, valleandona;piemonte;asti
asti;1.2570277754468406;IT;14100;serravalle, stazione di portacomaro, sessant, quarto d'asti, revignano, mombarone, casabianca, variglie, montegrosso, san marzanotto, vaglierano, montemarzo d'asti, asti, poggio d'asti, portacomaro stazione, valletanaro, castiglione, valgera, montemarzo, viatosto, valleandona;piemonte;asti
alessandria;1.2737070698946351;IT;15121;alessandria;piemonte;alessandria
alessandria;1.2737070698946351;IT;15011;moirano, acqui terme;piemonte;alessandria
alessandria;1.2737070698946351;IT;15071;carpeneto;piemonte;alessandria
alessandria;1.2737070698946351;IT;15066;gavi;piemonte;alessandria
alessandria;1.2737070698946351;IT;15020;villadeati, pozzengo, ponzano monferrato, valle cerrina, montalero, camino, cereseto, vallegioliti, casalbagliano, moncestino, villa del foro, san giorgio, mombello monferrato, odalengo piccolo, castelletto merli, gabiano, castel san pietro, brusaschetto, lussello, murisengo, casalino di mombello, san giorgio monferrato, cantavenna, zanco, castel san pietro monferrato, villamiroglio, cerrina monferrato, varengo, odalengo grande, serralunga di crea, solonghello;piemonte;alessandria
imperia;1.1551680777936122;IT;18032;perinaldo;liguria;imperia
savona;1.1478458910609224;IT;17042;pontinvrea, giovo, giovo ligure;liguria;savona
savona;1.1478458910609224;IT;17100;fornaci, savona, santuario, santuario di savona, lavagnola, legino, zinola;liguria;savona
savona;1.1478458910609224;IT;17100;fornaci, savona, santuario, santuario di savona, lavagnola, legino, zinola;liguria;savona
genova;1.2261243579571557;IT;16031;bogliasco, san bernardo, poggio favaro;liguria;genova
genova;1.2261243579571557;IT;16031;bogliasco, san bernardo, poggio favaro;liguria;genova
genova;1.2261243579571557;IT;16148;quarto dei mille, genova;liguria;genova
genova;1.2261243579571557;IT;16143;genova;liguria;genova
genova;1.2261243579571557;IT;16125;genova;liguria;genova
genova;1.2261243579571557;IT;16036;recco;liguria;genova
genova;1.2261243579571557;IT;16035;san massimo, rapallo, san michele di pagana;liguria;genova
genova;1.2261243579571557;IT;16162;bolzaneto, genova;liguria;genova
genova;1.2261243579571557;IT;16132;genova;liguria;genova
la spezia;1.175798319327731;IT;19121;laspezia;liguria;la spezia
la spezia;1.175798319327731;IT;19100;la spezia;liguria;la spezia
varese;1.289333733329697;IT;21015;lonate pozzolo, sant'antonino ticino, tornavento;lombardia;varese
varese;1.289333733329697;IT;21011;casorate sempione;lombardia;varese
varese;1.289333733329697;IT;21052;borsano, sacconago, busto arsizio;lombardia;varese
varese;1.289333733329697;IT;21013;gallarate, crenna, cedrate;lombardia;varese
varese;1.289333733329697;IT;21100;varese, casbeno, calcinate del pesce, masnago, capolago, rasa, santa maria del monte, rasa di velate, bizzozero, san fermo, sant'ambrogio olona, cartabbia;lombardia;varese
varese;1.289333733329697;IT;21052;borsano, sacconago, busto arsizio;lombardia;varese
varese;1.289333733329697;IT;21021;angera;lombardia;varese
varese;1.289333733329697;IT;21050;besano, cairate, saltrio, gorla maggiore, cuasso al piano, brusimpiano, porto ceresio, cavagnano, cantello, cuasso al monte, bolladello, gaggiolo, marnate, lonate ceppino, bisuschio, castelseprio, clivio;lombardia;varese
varese;1.289333733329697;IT;21021;angera;lombardia;varese
varese;1.289333733329697;IT;21052;borsano, sacconago, busto arsizio;lombardia;varese
varese;1.289333733329697;IT;21050;besano, cairate, saltrio, gorla maggiore, cuasso al piano, brusimpiano, porto ceresio, cavagnano, cantello, cuasso al monte, bolladello, gaggiolo, marnate, lonate ceppino, bisuschio, castelseprio, clivio;lombardia;varese
varese;1.289333733329697;IT;21022;azzate;lombardia;varese
varese;1.289333733329697;IT;21100;varese, casbeno, calcinate del pesce, masnago, capolago, rasa, santa maria del monte, rasa di velate, bizzozero, san fermo, sant'ambrogio olona, cartabbia;lombardia;varese
varese;1.289333733329697;IT;21047;saronno;lombardia;varese
varese;1.289333733329697;IT;21052;borsano, sacconago, busto arsizio;lombardia;varese
varese;1.289333733329697;IT;21036;gemonio;lombardia;varese
varese;1.289333733329697;IT;21100;varese, casbeno, calcinate del pesce, masnago, capolago, rasa, santa maria del monte, rasa di velate, bizzozero, san fermo, sant'ambrogio olona, cartabbia;lombardia;varese
como;1.3245328163029575;IT;22063;vighizzolo di cantu', cantu', mirabello di cantu', cantu' asnago, cascina amata, asnago di cantu';lombardia;como
como;1.3245328163029575;IT;22031;albavilla;lombardia;como
como;1.3245328163029575;IT;22076;mozzate;lombardia;como
como;1.3245328163029575;IT;22100;como, breccia, tavernola, albate, rebbio, ponte chiasso, monte olimpino, camnago volta, camerlata, lora, civiglio;lombardia;como
como;1.3245328163029575;IT;22063;vighizzolo di cantu', cantu', mirabello di cantu', cantu' asnago, cascina amata, asnago di cantu';lombardia;como
como;1.3245328163029575;IT;22018;porlezza, cima;lombardia;como
como;1.3245328163029575;IT;22100;como, breccia, tavernola, albate, rebbio, ponte chiasso, monte olimpino, camnago volta, camerlata, lora, civiglio;lombardia;como
como;1.3245328163029575;IT;22075;lurate caccivio;lombardia;como
lecco;1.409878224037516;IT;23880;campofiorenzo, casatenovo, valaperta, galgiana, rogoredo, california, rimoldo;lombardia;lecco
sondrio;1.3025666337611057;IT;23017;campovico, morbegno;lombardia;sondrio
bergamo;1.630785950699007;IT;24043;vidalengo, masano, caravaggio;lombardia;bergamo
bergamo;1.630785950699007;IT;24042;capriate san gervasio, crespi d'adda, san gervasio d'adda;lombardia;bergamo
bergamo;1.630785950699007;IT;24043;vidalengo, masano, caravaggio;lombardia;bergamo
bergamo;1.630785950699007;IT;24047;castel cerreto, geromina, treviglio;lombardia;bergamo
bergamo;1.630785950699007;IT;24035;curno;lombardia;bergamo
bergamo;1.630785950699007;IT;24040;stezzano, zingonia, ghiaie, arcene, ciserano, pontirolo nuovo, osio sopra, bonate sopra, verdellino, misano di gera d'adda, chignolo d'isola, filago, lallio, boltiere, madone, arzago d'adda, pognano, comun nuovo, bonate sotto, pagazzano, grumello del piano, casirate d'adda, barbata, calvenzano, fornovo san giovanni, bottanuco, suisio, castel rozzone, levate, isso, canonica d'adda;lombardia;bergamo
bergamo;1.630785950699007;IT;24022;nese, alzano lombardo;lombardia;bergamo
bergamo;1.630785950699007;IT;24036;ponte san pietro;lombardia;bergamo
bergamo;1.630785950699007;IT;24065;lovere;lombardia;bergamo
bergamo;1.630785950699007;IT;24040;stezzano, zingonia, ghiaie, arcene, ciserano, pontirolo nuovo, osio sopra, bonate sopra, verdellino, misano di gera d'adda, chignolo d'isola, filago, lallio, boltiere, madone, arzago d'adda, pognano, comun nuovo, bonate sotto, pagazzano, grumello del piano, casirate d'adda, barbata, calvenzano, fornovo san giovanni, bottanuco, suisio, castel rozzone, levate, isso, canonica d'adda;lombardia;bergamo
bergamo;1.630785950699007;IT;24030;villa d'adda, almenno san bartolomeo, medolago, berbenno, locatello, bedulita, corna imagna, brembate di sopra, fuipiano valle imagna, solza, mozzo, ambivere, roncola, palazzago, pontida, paladina, terno d'isola, strozza, sant'antonio, costa valle imagna, caprino, crocette, presezzo, capizzone, mapello, ponte giurino, barzana, celana, carvico, gromlongo, valbrembo, camoneone, caprino bergamasco, scano al brembo;lombardia;bergamo
bergamo;1.630785950699007;IT;24126;campagnola, bergamo, colognola al piano, malpensata;lombardia;bergamo
bergamo;1.630785950699007;IT;24040;stezzano, zingonia, ghiaie, arcene, ciserano, pontirolo nuovo, osio sopra, bonate sopra, verdellino, misano di gera d'adda, chignolo d'isola, filago, lallio, boltiere, madone, arzago d'adda, pognano, comun nuovo, bonate sotto, pagazzano, grumello del piano, casirate d'adda, barbata, calvenzano, fornovo san giovanni, bottanuco, suisio, castel rozzone, levate, isso, canonica d'adda;lombardia;bergamo
brescia;1.4271625929861849;IT;25039;travagliato;lombardia;brescia
brescia;1.4271625929861849;IT;25040;galleno, esine, timoline, angolo terme, plemo, prestine, saviore dell'adamello, parmezzana calzana, gianico, incudine, forno d'allione, cividate camuno, artogne, monticelli brusati, sacca, nigoline, cerveno, berzo demo, braone, badetto, ono san pietro, colombaro, berzo inferiore, cevo, santicolo, bienno, corteno golgi, forno allione, ceto, malonno, monno, corte franca, bonomelli, borgonato, lozio;lombardia;brescia
brescia;1.4271625929861849;IT;25134;san polo, brescia;lombardia;brescia
brescia;1.4271625929861849;IT;25080;padenghe sul garda, valvestino, manerba del garda, soiano del lago, nuvolento, case nuove, raffa, ciliverghe, carzago della riviera, magasa, serle, mazzano, muscoline, tignale, moniga del garda, molinetto, nuvolera, polpenazze del garda, paitone, chiesa, puegnago sul garda, prevalle, carzago riviera, gardola, soiano, moerna, vallio terme, castello, calvagese della riviera, solarolo;lombardia;brescia
brescia;1.4271625929861849;IT;25016;ghedi;lombardia;brescia
brescia;1.4271625929861849;IT;25032;chiari;lombardia;brescia
brescia;1.4271625929861849;IT;25124;brescia;lombardia;brescia
brescia;1.4271625929861849;IT;25030;zocco, mairano, castelcovati, villa pedergnano, cossirano, berlingo, castel mella, coccaglio, comezzano cizzago, erbusco, roccafranca, lograto, comezzano, orzivecchi, pievedizio, maclodio, barbariga, villachiara, adro, brandico, cizzago, torbole casaglia, ludriano, pompiano, urago d'oglio, trenzano, castrezzato, torbiato, corzano, rudiano, paratico, roncadelle, longhena;lombardia;brescia
brescia;1.4271625929861849;IT;25030;zocco, mairano, castelcovati, villa pedergnano, cossirano, berlingo, castel mella, coccaglio, comezzano cizzago, erbusco, roccafranca, lograto, comezzano, orzivecchi, pievedizio, maclodio, barbariga, villachiara, adro, brandico, cizzago, torbole casaglia, ludriano, pompiano, urago d'oglio, trenzano, castrezzato, torbiato, corzano, rudiano, paratico, roncadelle, longhena;lombardia;brescia
brescia;1.4271625929861849;IT;25049;iseo, pilzone, clusane;lombardia;brescia
brescia;1.4271625929861849;IT;25030;zocco, mairano, castelcovati, villa pedergnano, cossirano, berlingo, castel mella, coccaglio, comezzano cizzago, erbusco, roccafranca, lograto, comezzano, orzivecchi, pievedizio, maclodio, barbariga, villachiara, adro, brandico, cizzago, torbole casaglia, ludriano, pompiano, urago d'oglio, trenzano, castrezzato, torbiato, corzano, rudiano, paratico, roncadelle, longhena;lombardia;brescia
brescia;1.4271625929861849;IT;25025;manerbio;lombardia;brescia
brescia;1.4271625929861849;IT;25074;crone, idro, lavenone;lombardia;brescia
brescia;1.4271625929861849;IT;25123;brescia;lombardia;brescia
brescia;1.4271625929861849;IT;25010;vesio, borgosatollo, isorella, montirone, campione, rivoltella, visano, remedello di sopra, limone sul garda, remedello di sotto, san martino della battaglia, tremosine, campione del garda, pozzolengo, san felice del benaco, acquafredda, san zeno naviglio, remedello;lombardia;brescia
brescia;1.4271625929861849;IT;25031;capriolo;lombardia;brescia
brescia;1.4271625929861849;IT;25062;concesio, san vigilio;lombardia;brescia
pavia;1.355221946214494;IT;27033;garbana;lombardia;pavia
pavia;1.355221946214494;IT;27026;garlasco, san biagio, madonna delle bozzole;lombardia;pavia
pavia;1.355221946214494;IT;27050;fumo, corvino san quirico, silvano pietra, brallo di pregola, val di nizza, retorbido, collegio, pizzale, corana, torricella verzate, oliva gessi, ghiaie, cervesina, menconico, torrazza coste, bagnaria, redavalle, casanova di destra, romagnese, casei gerola, ponte nizza, pancarana, codevilla, santa margherita di staffora, cecima, casei, bastida pancarana;lombardia;pavia
cremona;1.5530678411941028;IT;26100;maristella, cava tigozzi, migliaro, boschetto, cremona, san felice;lombardia;cremona
cremona;1.5530678411941028;IT;26027;rivolta d'adda;lombardia;cremona
cremona;1.5530678411941028;IT;26010;ricengo, capralba, rubbiano, casale cremasco vidolasco, monte cremasco, dovera, olmeneta, vaiano cremasco, salvirola, ripalta cremasca, pozzaglio ed uniti, casaletto vaprio, casalsigone, credera, montodine, credera rubbiano, moscazzano, cremosano, rovereto, pianengo, ripalta guerina, castel gabbiano, castelvisconti, zappello, robecco d'oglio, bagnolo cremasco, izano, ripalta nuova, casaletto ceredano, capergnanica, chieve, bolzone, offanengo, camisano, fiesco, azzanello, ripalta arpina, campagnola cremasca, sergnano, pozzaglio, casale cremasco, corte de' frati;lombardia;cremona
cremona;1.5530678411941028;IT;26100;maristella, cava tigozzi, migliaro, boschetto, cremona, san felice;lombardia;cremona
cremona;1.5530678411941028;IT;26010;ricengo, capralba, rubbiano, casale cremasco vidolasco, monte cremasco, dovera, olmeneta, vaiano cremasco, salvirola, ripalta cremasca, pozzaglio ed uniti, casaletto vaprio, casalsigone, credera, montodine, credera rubbiano, moscazzano, cremosano, rovereto, pianengo, ripalta guerina, castel gabbiano, castelvisconti, zappello, robecco d'oglio, bagnolo cremasco, izano, ripalta nuova, casaletto ceredano, capergnanica, chieve, bolzone, offanengo, camisano, fiesco, azzanello, ripalta arpina, campagnola cremasca, sergnano, pozzaglio, casale cremasco, corte de' frati;lombardia;cremona
cremona;1.5530678411941028;IT;26010;ricengo, capralba, rubbiano, casale cremasco vidolasco, monte cremasco, dovera, olmeneta, vaiano cremasco, salvirola, ripalta cremasca, pozzaglio ed uniti, casaletto vaprio, casalsigone, credera, montodine, credera rubbiano, moscazzano, cremosano, rovereto, pianengo, ripalta guerina, castel gabbiano, castelvisconti, zappello, robecco d'oglio, bagnolo cremasco, izano, ripalta nuova, casaletto ceredano, capergnanica, chieve, bolzone, offanengo, camisano, fiesco, azzanello, ripalta arpina, campagnola cremasca, sergnano, pozzaglio, casale cremasco, corte de' frati;lombardia;cremona
cremona;1.5530678411941028;IT;26013;santo stefano in vairano, ombriano, crema, sabbioni, santa maria della croce;lombardia;cremona
cremona;1.5530678411941028;IT;26013;santo stefano in vairano, ombriano, crema, sabbioni, santa maria della croce;lombardia;cremona
cremona;1.5530678411941028;IT;26100;maristella, cava tigozzi, migliaro, boschetto, cremona, san felice;lombardia;cremona
mantova;1.2797385620915032;IT;46032;castelbelforte;lombardia;mantova
mantova;1.2797385620915032;IT;46100;frassino mantovano, mantova, formigosa, lunetta, borgovirgiliana;lombardia;mantova
mantova;1.2797385620915032;IT;46030;mottella, ca' vecchia, tripoli, sustinente, villastrada, correggioverde, libiola, gazzo, pomponesco, dosolo, stradella, serravalle a po, sacchetta, villanova de bellis;lombardia;mantova
mantova;1.2797385620915032;IT;46018;ponteterra, sabbioneta, breda cisoni, villa pasquali;lombardia;mantova
mantova;1.2797385620915032;IT;46100;frassino mantovano, mantova, formigosa, lunetta, borgovirgiliana;lombardia;mantova
mantova;1.2797385620915032;IT;46044;cerlongo, goito, solarolo;lombardia;mantova
milano;1.3445886192979917;IT;20133;milano;lombardia;milano
milano;1.3445886192979917;IT;20063;cernusco sul naviglio;lombardia;milano
milano;1.3445886192979917;IT;20162;niguarda, milano;lombardia;milano
milano;1.3445886192979917;IT;20121;milano;lombardia;milano
milano;1.3445886192979917;IT;20157;quarto oggiaro, vialba, milano;lombardia;milano
milano;1.3445886192979917;IT;20068;bettola, zeloforomagno, san bovio, linate, mezzate, bellaria, linate paese, peschiera borromeo;lombardia;milano
milano;1.3445886192979917;IT;20151;musocco, milano;lombardia;milano
milano;1.3445886192979917;IT;20121;milano;lombardia;milano
milano;1.3445886192979917;IT;20121;milano;lombardia;milano
milano;1.3445886192979917;IT;20124;milano;lombardia;milano
milano;1.3445886192979917;IT;20121;milano;lombardia;milano
milano;1.3445886192979917;IT;20123;milano;lombardia;milano
milano;1.3445886192979917;IT;20099;sesto san giovanni;lombardia;milano
milano;1.3445886192979917;IT;20020;nosate, arconate, barbaiana, cascina nuova di misinto, robecchetto con induno, villaggio brollo, vanzaghello, bienate, magnago;lombardia;milano
milano;1.3445886192979917;IT;20135;milano;lombardia;milano
milano;1.3445886192979917;IT;20040;cambiago, velate milanese, torrazza dei mandelli;lombardia;milano
milano;1.3445886192979917;IT;20125;gorla, greco, precotto, milano;lombardia;milano
milano;1.3445886192979917;IT;20014;nerviano, sant'ilario milanese;lombardia;milano
milano;1.3445886192979917;IT;20094;corsico;lombardia;milano
milano;1.3445886192979917;IT;20094;corsico;lombardia;milano
milano;1.3445886192979917;IT;20155;milano;lombardia;milano
milano;1.3445886192979917;IT;20090;romano banco, buccinasco, fizzonasco, cesano boscone, trezzano sul naviglio, millepini, caleppio, premenugo, san felice, noverasco, lucino, sporting mirasole, novegro, monzoro, linate aeroporto, tregarezzo, zingone, zingone di trezzano sul naviglio;lombardia;milano
milano;1.3445886192979917;IT;20070;sarmazzano, cerro al lambro, villa bissone, dresano, san zenone al lambro, riozzo, vizzolo predabissi;lombardia;milano
milano;1.3445886192979917;IT;20132;milano;lombardia;milano
milano;1.3445886192979917;IT;20017;rho, passirana, mazzo milanese, terrazzano, lucernate;lombardia;milano
milano;1.3445886192979917;IT;20151;musocco, milano;lombardia;milano
milano;1.3445886192979917;IT;20125;gorla, greco, precotto, milano;lombardia;milano
milano;1.3445886192979917;IT;20129;milano;lombardia;milano
milano;1.3445886192979917;IT;20096;seggiano, pioltello, limito;lombardia;milano
milano;1.3445886192979917;IT;20068;bettola, zeloforomagno, san bovio, linate, mezzate, bellaria, linate paese, peschiera borromeo;lombardia;milano
milano;1.3445886192979917;IT;20121;milano;lombardia;milano
milano;1.3445886192979917;IT;20017;rho, passirana, mazzo milanese, terrazzano, lucernate;lombardia;milano
milano;1.3445886192979917;IT;20090;romano banco, buccinasco, fizzonasco, cesano boscone, trezzano sul naviglio, millepini, caleppio, premenugo, san felice, noverasco, lucino, sporting mirasole, novegro, monzoro, linate aeroporto, tregarezzo, zingone, zingone di trezzano sul naviglio;lombardia;milano
milano;1.3445886192979917;IT;20146;milano;lombardia;milano
milano;1.3445886192979917;IT;20121;milano;lombardia;milano
milano;1.3445886192979917;IT;20020;nosate, arconate, barbaiana, cascina nuova di misinto, robecchetto con induno, villaggio brollo, vanzaghello, bienate, magnago;lombardia;milano
milano;1.3445886192979917;IT;20125;gorla, greco, precotto, milano;lombardia;milano
milano;1.3445886192979917;IT;20021;baranzate, cassina nuova, bollate;lombardia;milano
milano;1.3445886192979917;IT;20099;sesto san giovanni;lombardia;milano
milano;1.3445886192979917;IT;20124;milano;lombardia;milano
milano;1.3445886192979917;IT;20121;milano;lombardia;milano
milano;1.3445886192979917;IT;20127;crescenzago, milano;lombardia;milano
milano;1.3445886192979917;IT;20020;nosate, arconate, barbaiana, cascina nuova di misinto, robecchetto con induno, villaggio brollo, vanzaghello, bienate, magnago;lombardia;milano
milano;1.3445886192979917;IT;20134;lambrate, milano;lombardia;milano
milano;1.3445886192979917;IT;20025;legnano;lombardia;milano
milano;1.3445886192979917;IT;20127;crescenzago, milano;lombardia;milano
milano;1.3445886192979917;IT;20069;vaprio d'adda;lombardia;milano
milano;1.3445886192979917;IT;20133;milano;lombardia;milano
milano;1.3445886192979917;IT;20080;moncucco, besate, badile, albairate, bubbiano, moirago, san pietro cusico, vernate, pasturago, calvignasco, ozzero;lombardia;milano
milano;1.3445886192979917;IT;20093;san maurizio al lambro, cologno monzese;lombardia;milano
milano;1.3445886192979917;IT;20025;legnano;lombardia;milano
milano;1.3445886192979917;IT;20134;lambrate, milano;lombardia;milano
milano;1.3445886192979917;IT;20143;barona, milano;lombardia;milano
milano;1.3445886192979917;IT;20033;solaro;lombardia;milano
milano;1.3445886192979917;IT;20122;milano;lombardia;milano
milano;1.3445886192979917;IT;20017;rho, passirana, mazzo milanese, terrazzano, lucernate;lombardia;milano
milano;1.3445886192979917;IT;20064;gorgonzola;lombardia;milano
milano;1.3445886192979917;IT;20134;lambrate, milano;lombardia;milano
milano;1.3445886192979917;IT;20131;milano;lombardia;milano
milano;1.3445886192979917;IT;20157;quarto oggiaro, vialba, milano;lombardia;milano
milano;1.3445886192979917;IT;20152;baggio, milano;lombardia;milano
milano;1.3445886192979917;IT;20099;sesto san giovanni;lombardia;milano
milano;1.3445886192979917;IT;20147;milano;lombardia;milano
milano;1.3445886192979917;IT;20068;bettola, zeloforomagno, san bovio, linate, mezzate, bellaria, linate paese, peschiera borromeo;lombardia;milano
milano;1.3445886192979917;IT;20017;rho, passirana, mazzo milanese, terrazzano, lucernate;lombardia;milano
milano;1.3445886192979917;IT;20144;milano;lombardia;milano
milano;1.3445886192979917;IT;20089;quinto de stampi, rozzano;lombardia;milano
milano;1.3445886192979917;IT;20025;legnano;lombardia;milano
milano;1.3445886192979917;IT;20144;milano;lombardia;milano
milano;1.3445886192979917;IT;20021;baranzate, cassina nuova, bollate;lombardia;milano
milano;1.3445886192979917;IT;20144;milano;lombardia;milano
milano;1.3445886192979917;IT;20099;sesto san giovanni;lombardia;milano
milano;1.3445886192979917;IT;20078;san colombano al lambro;lombardia;milano
verona;1.2721780959838909;IT;37064;povegliano veronese;veneto;verona
verona;1.2721780959838909;IT;37131;verona;veneto;verona
verona;1.2721780959838909;IT;37057;raldon, san giovanni lupatoto, pozzo camacici;veneto;verona
verona;1.2721780959838909;IT;37054;nogara;veneto;verona
verona;1.2721780959838909;IT;37138;verona;veneto;verona
verona;1.2721780959838909;IT;37036;san martino buon albergo, mambrotta, ferrazze, marcellise;veneto;verona
verona;1.2721780959838909;IT;37047;prova, villabella, locara, san bonifacio;veneto;verona
verona;1.2721780959838909;IT;37057;raldon, san giovanni lupatoto, pozzo camacici;veneto;verona
verona;1.2721780959838909;IT;37060;bonferraro, roncoleva', mozzecane, correzzo, sona, gazzo veronese, pradelle, nogarole rocca, palazzolo, marchesino, trevenzuolo, beccacivetta, erbe', azzano, maccacari, roncanova, san pietro in valle, sorga', san giorgio in salici, bagnolo, bovo, lugagnano, buttapietra, pontepossero, castel d'azzano;veneto;verona
verona;1.2721780959838909;IT;37026;settimo, pescantina, ospedaletto;veneto;verona
verona;1.2721780959838909;IT;37029;pedemonte, san pietro in cariano, bure, negarine, corrubbio, san floriano;veneto;verona
vicenza;1.2179735249854111;IT;36065;mussolente, casoni;veneto;vicenza
vicenza;1.2179735249854111;IT;36056;belvedere, tezze sul brenta;veneto;vicenza
vicenza;1.2179735249854111;IT;36061;campese, bassano del grappa, valrovina;veneto;vicenza
vicenza;1.2179735249854111;IT;36075;alte ceccato, montecchio maggiore, alte di montecchio maggiore, sant'urbano;veneto;vicenza
vicenza;1.2179735249854111;IT;36030;sant'antonio valli, villaverla, san vito di leguzzano, leva', calvene, priabona, sant'antonio, valli del pasubio, montecchio precalcino, caldogno, rettorgole, centrale, monte di malo, costabissara, motta, leva' di montecchio precalcino, fara vicentino, zugliano, sarcedo, cresole, preara, san giorgio di perlena, lugo di vicenza, caltrano, staro, grumolo pedemonte, novoledo;veneto;vicenza
vicenza;1.2179735249854111;IT;36013;piovene rocchette;veneto;vicenza
vicenza;1.2179735249854111;IT;36100;anconetta, campedello, setteca', polegge, vicenza, longara;veneto;vicenza
vicenza;1.2179735249854111;IT;36036;pievebelvicino, torrebelvicino;veneto;vicenza
vicenza;1.2179735249854111;IT;36061;campese, bassano del grappa, valrovina;veneto;vicenza
belluno;1.1558466576767483;IT;32100;belluno, sossai, sois, salce, tisoi, castion, bes, levego, safforze, fiammoi, bolzano di belluno, antole, caleipo, visome;veneto;belluno
belluno;1.1558466576767483;IT;32033;lamon, arina;veneto;belluno
treviso;1.1847822802405343;IT;31040;pederobba, bavaria, signoressa, falze', giavera del montello, gorgo al monticano, chiarano, covolo, santi angeli del montello, musano di trevignano, mansue', trevignano, santi angeli, cusignana, meduna di livenza, musano, fossalta maggiore, portobuffole', segusino, selva del montello, salgareda, onigo, campo di pietra, volpago del montello, cessalto, venegazzu', nervesa della battaglia, campo di pietra di salgareda;veneto;treviso
treviso;1.1847822802405343;IT;31030;valla', caselle di altivole, pero, breda di piave, dosson, castelcucco, borso del grappa, semonzo, san bartolomeo, san vito di altivole, altivole, castello di godego, tovena, arcade, cison di valmarino, casier, vacil, saletto, sant'eulalia, mignagola, carbonera;veneto;treviso
treviso;1.1847822802405343;IT;31015;conegliano, collalbrigo, scomigo;veneto;treviso
treviso;1.1847822802405343;IT;31044;montebelluna, biadene;veneto;treviso
treviso;1.1847822802405343;IT;31027;visnadello, lovadina, spresiano;veneto;treviso
treviso;1.1847822802405343;IT;31040;pederobba, bavaria, signoressa, falze', giavera del montello, gorgo al monticano, chiarano, covolo, santi angeli del montello, musano di trevignano, mansue', trevignano, santi angeli, cusignana, meduna di livenza, musano, fossalta maggiore, portobuffole', segusino, selva del montello, salgareda, onigo, campo di pietra, volpago del montello, cessalto, venegazzu', nervesa della battaglia, campo di pietra di salgareda;veneto;treviso
treviso;1.1847822802405343;IT;31030;valla', caselle di altivole, pero, breda di piave, dosson, castelcucco, borso del grappa, semonzo, san bartolomeo, san vito di altivole, altivole, castello di godego, tovena, arcade, cison di valmarino, casier, vacil, saletto, sant'eulalia, mignagola, carbonera;veneto;treviso
treviso;1.1847822802405343;IT;31015;conegliano, collalbrigo, scomigo;veneto;treviso
treviso;1.1847822802405343;IT;31030;valla', caselle di altivole, pero, breda di piave, dosson, castelcucco, borso del grappa, semonzo, san bartolomeo, san vito di altivole, altivole, castello di godego, tovena, arcade, cison di valmarino, casier, vacil, saletto, sant'eulalia, mignagola, carbonera;veneto;treviso
treviso;1.1847822802405343;IT;31057;cendon, sant'elena, silea;veneto;treviso
treviso;1.1847822802405343;IT;31040;pederobba, bavaria, signoressa, falze', giavera del montello, gorgo al monticano, chiarano, covolo, santi angeli del montello, musano di trevignano, mansue', trevignano, santi angeli, cusignana, meduna di livenza, musano, fossalta maggiore, portobuffole', segusino, selva del montello, salgareda, onigo, campo di pietra, volpago del montello, cessalto, venegazzu', nervesa della battaglia, campo di pietra di salgareda;veneto;treviso
venezia;1.1952286498383284;IT;30030;galta, robegano, fosso', martellago, olmo di martellago, cazzago, salzano, vigonovo, cazzago di pianiga, pianiga, olmo, tombelle, sandon, maerne;veneto;venezia
venezia;1.1952286498383284;IT;30175;marghera, mestre, ca' emiliani, carpenedo;veneto;venezia
venezia;1.1952286498383284;IT;30033;noale, moniego di noale, cappelletta, moniego;veneto;venezia
venezia;1.1952286498383284;IT;30028;cesarolo, pozzi san michele tagliamento, bibione, bibione pineda, san giorgio al tagliamento, san michele al tagliamento, pozzi;veneto;venezia
venezia;1.1952286498383284;IT;30010;campolongo maggiore, pegolotte, campagna lupia, lughetto, liettoli, cona, bojon, camponogara, cantarana, lova;veneto;venezia
venezia;1.1952286498383284;IT;30123;dorsoduro, venezia;veneto;venezia
venezia;1.1952286498383284;IT;30015;chioggia, sottomarina, cavanella d'adige, sant'anna, valli, sant'anna di chioggia, ca' bianca;veneto;venezia
venezia;1.1952286498383284;IT;30121;cannaregio, venezia;veneto;venezia
venezia;1.1952286498383284;IT;30171;mestre;veneto;venezia
venezia;1.1952286498383284;IT;30035;scaltenigo, ballo', zianigo, mirano, vetrego;veneto;venezia
venezia;1.1952286498383284;IT;30173;venezia, mestre, campalto, villaggio san marco;veneto;venezia
venezia;1.1952286498383284;IT;30172;mestre;veneto;venezia
venezia;1.1952286498383284;IT;30171;mestre;veneto;venezia
venezia;1.1952286498383284;IT;30173;venezia, mestre, campalto, villaggio san marco;veneto;venezia
padova;1.1375186022157306;IT;35020;sant'angelo di piove di sacco, masera' di padova, mandriola, conche, carrara santo stefano, codevigo, tribano, arzergrande, casone, ponte san nicolo', brugine, conche di codevigo, polverara, pernumia, correzzola, pozzonovo, due carrare, bertipaglia, terradura, campagnola, terrassa padovana, arre, legnaro, carrara san giorgio, arzercavalli, san pietro viminario, sant'agostino, saonara, albignasego, villatora, candiana, cive', vallonga, casalserugo, roncaglia, vigorovea;veneto;padova
padova;1.1375186022157306;IT;35020;sant'angelo di piove di sacco, masera' di padova, mandriola, conche, carrara santo stefano, codevigo, tribano, arzergrande, casone, ponte san nicolo', brugine, conche di codevigo, polverara, pernumia, correzzola, pozzonovo, due carrare, bertipaglia, terradura, campagnola, terrassa padovana, arre, legnaro, carrara san giorgio, arzercavalli, san pietro viminario, sant'agostino, saonara, albignasego, villatora, candiana, cive', vallonga, casalserugo, roncaglia, vigorovea;veneto;padova
padova;1.1375186022157306;IT;35020;sant'angelo di piove di sacco, masera' di padova, mandriola, conche, carrara santo stefano, codevigo, tribano, arzergrande, casone, ponte san nicolo', brugine, conche di codevigo, polverara, pernumia, correzzola, pozzonovo, due carrare, bertipaglia, terradura, campagnola, terrassa padovana, arre, legnaro, carrara san giorgio, arzercavalli, san pietro viminario, sant'agostino, saonara, albignasego, villatora, candiana, cive', vallonga, casalserugo, roncaglia, vigorovea;veneto;padova
padova;1.1375186022157306;IT;35020;sant'angelo di piove di sacco, masera' di padova, mandriola, conche, carrara santo stefano, codevigo, tribano, arzergrande, casone, ponte san nicolo', brugine, conche di codevigo, polverara, pernumia, correzzola, pozzonovo, due carrare, bertipaglia, terradura, campagnola, terrassa padovana, arre, legnaro, carrara san giorgio, arzercavalli, san pietro viminario, sant'agostino, saonara, albignasego, villatora, candiana, cive', vallonga, casalserugo, roncaglia, vigorovea;veneto;padova
padova;1.1375186022157306;IT;35100;padova;veneto;padova
padova;1.1375186022157306;IT;35100;padova;veneto;padova
padova;1.1375186022157306;IT;35137;padova;veneto;padova
padova;1.1375186022157306;IT;35030;cinto euganeo, tencarola, galzignano, caselle di selvazzano dentro, caselle, vo' vecchio, montemerlo, sarmeola, villaguattera, selvazzano dentro, bastia di rovolon, saccolongo, bosco, feriole, cervarese santa croce, galzignano terme, baone, valsanzibio, veggiano, rovolon, rivadolmo, fossona, bastia, rubano, vo';veneto;padova
padova;1.1375186022157306;IT;35134;padova;veneto;padova
padova;1.1375186022157306;IT;35128;padova;veneto;padova
padova;1.1375186022157306;IT;35141;padova;veneto;padova
padova;1.1375186022157306;IT;35014;fontaniva;veneto;padova
padova;1.1375186022157306;IT;35142;mandria, padova;veneto;padova
padova;1.1375186022157306;IT;35121;padova;veneto;padova
rovigo;1.135121749896822;IT;45038;raccano, polesella;veneto;rovigo
rovigo;1.135121749896822;IT;45024;fiesso umbertiano;veneto;rovigo
pordenone;1.199285214824023;IT;33080;barcis, san foca, sedrano, villanova, poffabro, zoppola, cimolais, puia, orcenico inferiore, san quirino, prata di pordenone, frisanco, bannia, fiume veneto, cimpello, porcia, andreis, vajont, erto e casso, palse, castions, claut, roraipiccolo, ghirano, roveredo in piano;friuli-venezia giulia;pordenone
udine;1.161606578115117;IT;33010;peonis, resia, carnia, vergnacco, malborghetto, braulins, malborghetto valbruna, reana del roiale, carvacco, qualso, cavalicco, adegliacco, colloredo di monte albano, chiusaforte, trasaghis, venzone, stolvizza, lusevera, resiutta, cassacco, pagnacco, feletto umberto, magnano in riviera, dogna, treppo grande, caporiacco, bordano, colugna, valbruna, osoppo, ugovizza, avasinis, vedronza, montenars, borgo zurini, tavagnacco, mels, vendoglio, alesso, la carnia, lauzzana;friuli-venezia giulia;udine
udine;1.161606578115117;IT;33033;lonca, codroipo, goricizza e pozzo, beano, biauzzo, rivolto;friuli-venezia giulia;udine
udine;1.161606578115117;IT;33039;coderno, gradisca di sedegliano, turrida, san lorenzo, sedegliano;friuli-venezia giulia;udine
udine;1.161606578115117;IT;33010;peonis, resia, carnia, vergnacco, malborghetto, braulins, malborghetto valbruna, reana del roiale, carvacco, qualso, cavalicco, adegliacco, colloredo di monte albano, chiusaforte, trasaghis, venzone, stolvizza, lusevera, resiutta, cassacco, pagnacco, feletto umberto, magnano in riviera, dogna, treppo grande, caporiacco, bordano, colugna, valbruna, osoppo, ugovizza, avasinis, vedronza, montenars, borgo zurini, tavagnacco, mels, vendoglio, alesso, la carnia, lauzzana;friuli-venezia giulia;udine
udine;1.161606578115117;IT;33033;lonca, codroipo, goricizza e pozzo, beano, biauzzo, rivolto;friuli-venezia giulia;udine
udine;1.161606578115117;IT;33100;cussignacco, udine, laipacco, godia, baldasseria, gervasutta;friuli-venezia giulia;udine
udine;1.161606578115117;IT;33100;cussignacco, udine, laipacco, godia, baldasseria, gervasutta;friuli-venezia giulia;udine
udine;1.161606578115117;IT;33100;cussignacco, udine, laipacco, godia, baldasseria, gervasutta;friuli-venezia giulia;udine
gorizia;1.1132363132363132;IT;34170;lucinico, oslavia, piedimonte del calvario, piuma, gorizia;friuli-venezia giulia;gorizia
gorizia;1.1132363132363132;IT;34170;lucinico, oslavia, piedimonte del calvario, piuma, gorizia;friuli-venezia giulia;gorizia
gorizia;1.1132363132363132;IT;34070;doberdo' del lago, polazzo, cassegliano, fogliano redipuglia, san floriano del collio, scrio', dolegna del collio, mossa, mariano del friuli, marcottini, lonzano, redipuglia sacrario, redipuglia, giasbana, rupa, mernicco, san michele del carso, san lorenzo isontino, savogna d'isonzo, jamiano, villesse, gabria, capriva del friuli, corona, san pier d'isonzo, venco', moraro, turriaco;friuli-venezia giulia;gorizia
gorizia;1.1132363132363132;IT;34170;lucinico, oslavia, piedimonte del calvario, piuma, gorizia;friuli-venezia giulia;gorizia
gorizia;1.1132363132363132;IT;34074;monfalcone, marina julia;friuli-venezia giulia;gorizia
trieste;1.131966150796676;IT;34151;trieste;friuli-venezia giulia;trieste
trieste;1.131966150796676;IT;34151;trieste;friuli-venezia giulia;trieste
piacenza;1.404660140631463;IT;29015;ganaghello, creta, castel san giovanni, fontana pradosa;emilia-romagna;piacenza
piacenza;1.404660140631463;IT;29020;vigolzone, travo, perino, gossolengo, marsaglia, cerignale, quadrelli, ponte organasco, carmiano, coli, morfasso, corte brugnatella, zerba, quadrelli di fellino, grazzano visconti, pej, quarto, settima, villo';emilia-romagna;piacenza
piacenza;1.404660140631463;IT;29122;piacenza;emilia-romagna;piacenza
piacenza;1.404660140631463;IT;29010;caminata, chiaravalle, castelnuovo fogliani, bacedasco sotto, campremoldo sopra, monticelli d'ongina, calendasco, san nicolo' a trebbia, rezzanello, gazzola, pontenure, villanova sull'arda, besenzone, agazzano, pecorara, mezzano chitantolo, san giuliano, trevozzo, san giuliano piacentino, fontana fredda, tassara, san nicolo', pianello val tidone, gragnano trebbiense, lusurasco, campremoldo sopra e sotto, san nazzaro d'ongina, ziano piacentino, vigoleno, alseno, piozzano, cadeo, sant'imento, vicobarone, sarmato, fogarole, rottofreno, valconasso, vernasca, olza, roveleto, nibbiano, campremoldo sotto, casaliggio, san pietro in cerro, villanova, castelvetro piacentino, stra';emilia-romagna;piacenza
piacenza;1.404660140631463;IT;29122;piacenza;emilia-romagna;piacenza
parma;1.329602905806705;IT;43044;ozzano taro, gaiano, san martino sinzano, collecchio, madregolo;emilia-romagna;parma
parma;1.329602905806705;IT;43044;ozzano taro, gaiano, san martino sinzano, collecchio, madregolo;emilia-romagna;parma
parma;1.329602905806705;IT;43122;parma;emilia-romagna;parma
parma;1.329602905806705;IT;43029;mamiano, castione de' baratti, vignale, traversetolo;emilia-romagna;parma
parma;1.329602905806705;IT;43044;ozzano taro, gaiano, san martino sinzano, collecchio, madregolo;emilia-romagna;parma
parma;1.329602905806705;IT;43014;ramiola, felegara, medesano;emilia-romagna;parma
parma;1.329602905806705;IT;43036;chiusa ferranda, fidenza, cogolonchio, pieve di cusignano, castione marchesi, castione dei marchesi;emilia-romagna;parma
parma;1.329602905806705;IT;43056;torrile, san polo;emilia-romagna;parma
parma;1.329602905806705;IT;43017;san secondo parmense;emilia-romagna;parma
reggio nell'emilia;1.1739408912068807;IT;42019;arceto, fellegara, pratissolo, scandiano, ventoso, iano, chiozza, rondinara, bosco, ca' de caroli;emilia-romagna;reggio nell'emilia
reggio nell'emilia;1.1739408912068807;IT;42021;bibbiano, barco;emilia-romagna;reggio nell'emilia
modena;1.1763823549464785;IT;41053;pozza, torre maina, gorzano, maranello;emilia-romagna;modena
modena;1.1763823549464785;IT;41033;santa caterina, san giovanni, concordia sulla secchia, fossa, vallalta, fossa di concordia;emilia-romagna;modena
modena;1.1763823549464785;IT;41037;tramuschio, mirandola, ponte san pellegrino, cividale, san martino carano, san martino spino, gavello, mortizzuolo, quarantoli, san giacomo roncole;emilia-romagna;modena
modena;1.1763823549464785;IT;41100;san damaso, chiesa nuova di marzaglia, portile, cognento, villanova san pancrazio, villanova, albareto, ganaceto, baggiovara, marzaglia, freto, san donnino, saliceto san giuliano, lesignana, vaciglio, modena, saliceto panaro;emilia-romagna;modena
modena;1.1763823549464785;IT;41012;budrione, san marino, gargallo, santa croce, cortile, san martino secchia, fossoli, migliarina, carpi;emilia-romagna;modena
bologna;1.16049488419881;IT;40026;san prospero, imola, spazzate sassatelli, piratello, sesto imolese, sasso morelli, ponticelli;emilia-romagna;bologna
bologna;1.16049488419881;IT;40100;bologna;emilia-romagna;bologna
bologna;1.16049488419881;IT;40100;bologna;emilia-romagna;bologna
bologna;1.16049488419881;IT;40013;trebbo, progresso, villa salina, trebbo di reno, castel maggiore;emilia-romagna;bologna
bologna;1.16049488419881;IT;40057;lovoleto, quarto inferiore, granarolo dell'emilia, fabbreria di cadriana;emilia-romagna;bologna
bologna;1.16049488419881;IT;40127;san donnino, bologna;emilia-romagna;bologna
bologna;1.16049488419881;IT;40100;bologna;emilia-romagna;bologna
bologna;1.16049488419881;IT;40010;osteria nuova, padulle, sala bolognese, interporto bentivoglio, san marino, santa maria in duno, bentivoglio;emilia-romagna;bologna
bologna;1.16049488419881;IT;40141;san ruffillo, monte donato, bologna;emilia-romagna;bologna
bologna;1.16049488419881;IT;40100;bologna;emilia-romagna;bologna
bologna;1.16049488419881;IT;40124;bologna;emilia-romagna;bologna
bologna;1.16049488419881;IT;40018;san pietro in casale, maccaretolo;emilia-romagna;bologna
bologna;1.16049488419881;IT;40135;casaglia, bologna;emilia-romagna;bologna
bologna;1.16049488419881;IT;40010;osteria nuova, padulle, sala bolognese, interporto bentivoglio, san marino, santa maria in duno, bentivoglio;emilia-romagna;bologna
bologna;1.16049488419881;IT;40026;san prospero, imola, spazzate sassatelli, piratello, sesto imolese, sasso morelli, ponticelli;emilia-romagna;bologna
bologna;1.16049488419881;IT;40057;lovoleto, quarto inferiore, granarolo dell'emilia, fabbreria di cadriana;emilia-romagna;bologna
bologna;1.16049488419881;IT;40057;lovoleto, quarto inferiore, granarolo dell'emilia, fabbreria di cadriana;emilia-romagna;bologna
bologna;1.16049488419881;IT;40121;bologna;emilia-romagna;bologna
bologna;1.16049488419881;IT;40126;bologna;emilia-romagna;bologna
bologna;1.16049488419881;IT;40100;bologna;emilia-romagna;bologna
ferrara;1.112772585669782;IT;44047;sant'agostino, san carlo, dosso;emilia-romagna;ferrara
ferrara;1.112772585669782;IT;44123;ferrara;emilia-romagna;ferrara
ferrara;1.112772585669782;IT;44033;serravalle, cologna, berra, ro;emilia-romagna;ferrara
ferrara;1.112772585669782;IT;44124;ferrara;emilia-romagna;ferrara
ferrara;1.112772585669782;IT;44022;comacchio, volania, san giuseppe, vaccolino;emilia-romagna;ferrara
ravenna;1.1531146490009616;IT;48018;faenza, granarolo, san silvestro, errano, cosina, mezzeno, fossolo, san martino, sarna, case san martino, castel raniero, reda, celle, prada, santa lucia delle spianate;emilia-romagna;ravenna
rimini;1.2711814717091765;IT;47838;riccione;emilia-romagna;rimini
rimini;1.2711814717091765;IT;47838;riccione;emilia-romagna;rimini
rimini;1.2711814717091765;IT;47924;rimini;emilia-romagna;rimini
rimini;1.2711814717091765;IT;47922;rimini;emilia-romagna;rimini
massa-carrara;1.1948757763975155;IT;54033;codena, castelpoggio, colonnata, sorgnano, avenza, fossone, carrara, torano, miseglia, fontia, bedizzano, fossola, gragnana, marina di carrara, bergiola;toscana;massa-carrara
massa-carrara;1.1948757763975155;IT;54013;agnino, monzone, campiglione, rometta, ceserano, sassalbo, gassano, soliera apuana, san terenzo monti, colla, tenerano, soliera, rometta apuana, fivizzano, vinca, gragnola, moncigoli;toscana;massa-carrara
lucca;1.0843995047461823;IT;55100;pontetetto, nozzano, maggiano, monte san quirico, san lorenzo di moriano, cerasomma, piaggione, ponte san pietro, san concordio di moriano, vinchiana, santa maria del giudice, mutigliano, montuolo, lucca, gattaiola, saltocchio, san pietro a vico, fagnano, ponte del giglio, massa pisana, picciorana, ponte a moriano;toscana;lucca
lucca;1.0843995047461823;IT;55049;viareggio, torre del lago puccini;toscana;lucca
lucca;1.0843995047461823;IT;55049;viareggio, torre del lago puccini;toscana;lucca
pistoia;1.1082926829268294;IT;51100;pracchia, villa di baggio, sammomme', valdibrana, orsigna, pistoia, corbezzi, piteccio, bottegone, grazie, villa baggio, cireglio, pontelungo, ponzano, san felice, piastre, santomato, le grazie, saturnana, chiazzano, capostrada, masiano, piazza, candeglia;toscana;pistoia
pistoia;1.1082926829268294;IT;51100;pracchia, villa di baggio, sammomme', valdibrana, orsigna, pistoia, corbezzi, piteccio, bottegone, grazie, villa baggio, cireglio, pontelungo, ponzano, san felice, piastre, santomato, le grazie, saturnana, chiazzano, capostrada, masiano, piazza, candeglia;toscana;pistoia
pistoia;1.1082926829268294;IT;51100;pracchia, villa di baggio, sammomme', valdibrana, orsigna, pistoia, corbezzi, piteccio, bottegone, grazie, villa baggio, cireglio, pontelungo, ponzano, san felice, piastre, santomato, le grazie, saturnana, chiazzano, capostrada, masiano, piazza, candeglia;toscana;pistoia
firenze;1.1312785388127853;IT;50137;firenze;toscana;firenze
firenze;1.1312785388127853;IT;50053;empoli, case nuove, marcignana, monterappoli, brusciana, osteria bianca, ponte a elsa, fontanella, sant'andrea;toscana;firenze
firenze;1.1312785388127853;IT;50144;firenze;toscana;firenze
firenze;1.1312785388127853;IT;50028;tavarnelle val di pesa, barberino val d'elsa, sambuca val di pesa, san donato in poggio, sambuca;toscana;firenze
firenze;1.1312785388127853;IT;50019;ponte a giogoli, colonnata, osmannoro, sesto fiorentino, quinto, querceto;toscana;firenze
firenze;1.1312785388127853;IT;50013;san piero a ponti, san donnino di campi, campi bisenzio, sant'angelo, capalle, sant'angelo a lecore, san donnino, il rosi;toscana;firenze
firenze;1.1312785388127853;IT;50100;firenze;toscana;firenze
firenze;1.1312785388127853;IT;50053;empoli, case nuove, marcignana, monterappoli, brusciana, osteria bianca, ponte a elsa, fontanella, sant'andrea;toscana;firenze
firenze;1.1312785388127853;IT;50145;peretola, firenze, brozzi;toscana;firenze
firenze;1.1312785388127853;IT;50012;vallina, candeli, osteria nuova, grassina, rimaggio, grassina ponte a ema, antella, bagno a ripoli;toscana;firenze
firenze;1.1312785388127853;IT;50131;firenze;toscana;firenze
prato;1.1490514905149052;IT;59100;santa lucia, iolo, maliseti, cafaggio, figline di prato, galciana, san giorgio a colonica, prato, paperino, narnali, viaccia, santa maria a colonica, tavola, coiano, mezzana, la querce;toscana;prato
prato;1.1490514905149052;IT;59100;santa lucia, iolo, maliseti, cafaggio, figline di prato, galciana, san giorgio a colonica, prato, paperino, narnali, viaccia, santa maria a colonica, tavola, coiano, mezzana, la querce;toscana;prato
livorno;1.099845293347614;IT;57021;venturina, campiglia marittima, stazione di campiglia marittima, campiglia marittima stazione;toscana;livorno
livorno;1.099845293347614;IT;57122;livorno;toscana;livorno
livorno;1.099845293347614;IT;57122;livorno;toscana;livorno
livorno;1.099845293347614;IT;57025;vignale riotorto, colmata, piombino, riotorto, cotone, torre mozza, populonia, portovecchio, colmata fiorentina di piombino;toscana;livorno
livorno;1.099845293347614;IT;57025;vignale riotorto, colmata, piombino, riotorto, cotone, torre mozza, populonia, portovecchio, colmata fiorentina di piombino;toscana;livorno
livorno;1.099845293347614;IT;57021;venturina, campiglia marittima, stazione di campiglia marittima, campiglia marittima stazione;toscana;livorno
pisa;1.117622259696459;IT;56125;pisa;toscana;pisa
pisa;1.117622259696459;IT;56126;pisa;toscana;pisa
pisa;1.117622259696459;IT;56123;pisa;toscana;pisa
pisa;1.117622259696459;IT;56025;santa lucia, la borra, il romito, montecastello, pontedera, la rotta, treggiaia;toscana;pisa
arezzo;1.1222464898595943;IT;52028;campogialli, ville, terranuova bracciolini, malva, penna, madrigale;toscana;arezzo
arezzo;1.1222464898595943;IT;52015;pratovecchio stia, pratovecchio;toscana;arezzo
siena;1.0386430678466076;IT;53035;castellina scalo, strove, tognazza, badesse, san martino, uopini, castellina in chianti stazione, belverde, monteriggioni;toscana;siena
siena;1.0386430678466076;IT;53035;castellina scalo, strove, tognazza, badesse, san martino, uopini, castellina in chianti stazione, belverde, monteriggioni;toscana;siena
siena;1.0386430678466076;IT;53100;siena, costalpino, isola d'arbia, taverne d'arbia, malafrasca, coroncina, sant'andrea a montecchio, ponte al bozzone;toscana;siena
siena;1.0386430678466076;IT;53100;siena, costalpino, isola d'arbia, taverne d'arbia, malafrasca, coroncina, sant'andrea a montecchio, ponte al bozzone;toscana;siena
grosseto;1.0949523473349805;IT;58100;grosseto, le stiacciole, montepescali stazione, roselle terme, marina di grosseto, montepescali, bagno roselle, istia d'ombrone, santa maria di rispescia, batignano, alberese, rispescia, braccagni;toscana;grosseto
perugia;1.0763223761054563;IT;6100;perugia;umbria;perugia
perugia;1.0763223761054563;IT;6132;san sisto, perugia;umbria;perugia
perugia;1.0763223761054563;IT;6073;corciano, mantignana;umbria;perugia
perugia;1.0763223761054563;IT;6132;san sisto, perugia;umbria;perugia
perugia;1.0763223761054563;IT;6084;passaggio, bettona, passaggio di bettona;umbria;perugia
perugia;1.0763223761054563;IT;6034;capodacqua, perticani, annifo, uppello, sant'eraclio, casenove, scopoli, fiamenga, belfiore, pale, foligno, verchiano, sterpete, scanzano, colfiorito, pieve fanonica, rasiglia, scafali, san giovanni profiamma;umbria;perugia
perugia;1.0763223761054563;IT;6016;san giustino, lama, selci;umbria;perugia
perugia;1.0763223761054563;IT;6012;piosina, promano, lerchi, san secondo, riosecco, fraccano, morra, san maiano, citta' di castello, cinquemiglia, cerbara, muccignano;umbria;perugia
terni;1.1030002564321737;IT;5013;castel giorgio;umbria;terni
terni;1.1030002564321737;IT;5100;collestatte, torreorsina, battiferro, giuncano scalo, rocca san zenone, valenza, giuncano, cecalocco, cesi, marmore, papigno, terni, gabelletta di cesi, collescipoli, collestatte piano, miranda, cesi di terni, piediluco;umbria;terni
pesaro e urbino;1.2970165325901055;IT;61032;fano, cuccurano, bellocchi, fenile;marche;pesaro e urbino
pesaro e urbino;1.2970165325901055;IT;61020;ca' gallo, montecalvo in foglia, gallo di petriano, casinina, petriano, tavoleto, gallo, borgo massano;marche;pesaro e urbino
pesaro e urbino;1.2970165325901055;IT;61032;fano, cuccurano, bellocchi, fenile;marche;pesaro e urbino
pesaro e urbino;1.2970165325901055;IT;61034;fossombrone, isola di fano, calmazzo;marche;pesaro e urbino
ancona;1.1217603461768633;IT;60018;lungomare, marina di montemarciano, montemarciano;marche;ancona
ancona;1.1217603461768633;IT;60020;camerata picena, polverigi, castel d'emilio, sirolo, agugliano, offagna;marche;ancona
ancona;1.1217603461768633;IT;60128;ancona;marche;ancona
ancona;1.1217603461768633;IT;60100;ancona;marche;ancona
ancona;1.1217603461768633;IT;60035;jesi;marche;ancona
macerata;1.1336411697784916;IT;62100;villa potenza, madonna del monte, corridonia stazione, piediripa, sforzacosta, macerata;marche;macerata
macerata;1.1336411697784916;IT;62100;villa potenza, madonna del monte, corridonia stazione, piediripa, sforzacosta, macerata;marche;macerata
macerata;1.1336411697784916;IT;62029;tolentino;marche;macerata
macerata;1.1336411697784916;IT;62029;tolentino;marche;macerata
macerata;1.1336411697784916;IT;62012;civitanova marche, civitanova alta, fontespina, civitanova marche alta, santa maria apparente;marche;macerata
macerata;1.1336411697784916;IT;62010;montecosaro stazione, sambucheto, treia, urbisaglia, pollenza, stazione morrovalle, mogliano, passo di treia, montecassiano, borgo stazione, montecosaro, montelupone, morrovalle stazione, trodica, montefano, santa maria in selva, chiesanuova, morrovalle, pintura, appignano, casette verdini, sant'egidio;marche;macerata
ascoli piceno;1.0936040609137057;IT;63100;venagrande, ascoli piceno, mozzano, piagge di ascoli piceno, lisciano di colloto, campolungo, poggio di bretta, castel trosino, piagge, monticelli, lisciano, marino del tronto;marche;ascoli piceno
ascoli piceno;1.0936040609137057;IT;63074;san benedetto del tronto, porto d'ascoli;marche;ascoli piceno
fermo;1.08506075768406;IT;63900;san marco, ponte ete, fermo, lido di fermo, marina palmense, caldarette, capodarco, molini di tenna, campiglione, san tommaso tre archi, salvano, torre di palme;marche;fermo
viterbo;1.0524798532398612;IT;1030;monterosi, corchiano, vitorchiano, faleria, vallerano, calcata, bassano romano, bassano in teverina, canepina, vasanello, calcata nuova, castel sant'elia, vitorchiano stazione, carbognano;lazio;viterbo
viterbo;1.0524798532398612;IT;1100;bagnaia, grotte santo stefano, san martino al cimino, viterbo, tobia, roccalvecce, magugnano, la quercia, fastello;lazio;viterbo
viterbo;1.0524798532398612;IT;1100;bagnaia, grotte santo stefano, san martino al cimino, viterbo, tobia, roccalvecce, magugnano, la quercia, fastello;lazio;viterbo
viterbo;1.0524798532398612;IT;1010;cellere, piansano, ischia di castro, marta, barbarano romano, civitella cesi, arlena di castro, latera, blera, onano, villa san giovanni in tuscia, oriolo romano, capodimonte, farnese, vejano, gradoli, monte romano, tessennano;lazio;viterbo
viterbo;1.0524798532398612;IT;1100;bagnaia, grotte santo stefano, san martino al cimino, viterbo, tobia, roccalvecce, magugnano, la quercia, fastello;lazio;viterbo
rieti;1.082929318703751;IT;2048;stimigliano, stimigliano stazione, stimigliano scalo;lazio;rieti
roma;1.0762951409431267;IT;147;roma;lazio;roma
roma;1.0762951409431267;IT;164;roma;lazio;roma
roma;1.0762951409431267;IT;198;roma;lazio;roma
roma;1.0762951409431267;IT;142;roma;lazio;roma
roma;1.0762951409431267;IT;42;anzio, lido dei pini, lavinio lido di enea, colonia di anzio;lazio;roma
roma;1.0762951409431267;IT;121;lido di ostia ponente, roma;lazio;roma
roma;1.0762951409431267;IT;181;roma;lazio;roma
roma;1.0762951409431267;IT;125;acilia, roma;lazio;roma
roma;1.0762951409431267;IT;125;acilia, roma;lazio;roma
roma;1.0762951409431267;IT;123;isola farnese, la storta, roma;lazio;roma
roma;1.0762951409431267;IT;173;roma;lazio;roma
roma;1.0762951409431267;IT;188;prima porta, labaro, roma;lazio;roma
roma;1.0762951409431267;IT;121;lido di ostia ponente, roma;lazio;roma
roma;1.0762951409431267;IT;134;divino amore, roma, castel di leva;lazio;roma
roma;1.0762951409431267;IT;54;fregene, fiumicino, focene, isola sacra, ara nova, torrimpietra, passo oscuro, maccarese, fiumicino aeroporto, testa di lepre;lazio;roma
roma;1.0762951409431267;IT;155;tor sapienza, la rustica, roma;lazio;roma
roma;1.0762951409431267;IT;55;palo, marina san nicola, ladispoli;lazio;roma
roma;1.0762951409431267;IT;72;galloro, ariccia;lazio;roma
roma;1.0762951409431267;IT;176;roma;lazio;roma
roma;1.0762951409431267;IT;54;fregene, fiumicino, focene, isola sacra, ara nova, torrimpietra, passo oscuro, maccarese, fiumicino aeroporto, testa di lepre;lazio;roma
roma;1.0762951409431267;IT;178;capannelle, torricola, roma;lazio;roma
roma;1.0762951409431267;IT;126;roma;lazio;roma
roma;1.0762951409431267;IT;40;santa maria delle mole, tor san lorenzo, ponte sulla moletta, marina di ardea, rocca di papa, ardea, frattocchie;lazio;roma
roma;1.0762951409431267;IT;174;roma;lazio;roma
roma;1.0762951409431267;IT;175;roma;lazio;roma
roma;1.0762951409431267;IT;145;roma;lazio;roma
roma;1.0762951409431267;IT;155;tor sapienza, la rustica, roma;lazio;roma
roma;1.0762951409431267;IT;166;roma, borgata casalotti;lazio;roma
roma;1.0762951409431267;IT;177;roma;lazio;roma
roma;1.0762951409431267;IT;154;roma;lazio;roma
roma;1.0762951409431267;IT;189;tomba di nerone, roma, grottarossa;lazio;roma
roma;1.0762951409431267;IT;149;roma;lazio;roma
roma;1.0762951409431267;IT;12;montecelio, albuccione, guidonia, colle verde, guidonia montecelio, villanova di guidonia, la botte, villanova, villalba;lazio;roma
roma;1.0762951409431267;IT;55;palo, marina san nicola, ladispoli;lazio;roma
roma;1.0762951409431267;IT;43;ciampino, casabianca, ciampino aeroporto;lazio;roma
roma;1.0762951409431267;IT;30;roiate, rocca santo stefano, genazzano, guadagnolo, san vito romano, castel san pietro romano, capranica prenestina, bellegra, montelanico, gorga, colonna stazione, colonna, rocca di cave, labico, gavignano, san cesareo;lazio;roma
roma;1.0762951409431267;IT;71;pomezia, pratica di mare, torvaianica, santa palomba;lazio;roma
roma;1.0762951409431267;IT;53;civitavecchia, aurelia di civitavecchia, aurelia;lazio;roma
roma;1.0762951409431267;IT;137;roma;lazio;roma
roma;1.0762951409431267;IT;169;torre maura, roma, torre spaccata;lazio;roma
roma;1.0762951409431267;IT;123;isola farnese, la storta, roma;lazio;roma
roma;1.0762951409431267;IT;166;roma, borgata casalotti;lazio;roma
roma;1.0762951409431267;IT;139;roma;lazio;roma
roma;1.0762951409431267;IT;122;castel fusano, lido di ostia levante, castel porziano, roma;lazio;roma
roma;1.0762951409431267;IT;199;roma;lazio;roma
roma;1.0762951409431267;IT;165;roma;lazio;roma
roma;1.0762951409431267;IT;144;decima, roma;lazio;roma
roma;1.0762951409431267;IT;158;roma;lazio;roma
roma;1.0762951409431267;IT;154;roma;lazio;roma
roma;1.0762951409431267;IT;154;roma;lazio;roma
roma;1.0762951409431267;IT;176;roma;lazio;roma
roma;1.0762951409431267;IT;133;torrenova, torre gaia, roma, torre angela;lazio;roma
roma;1.0762951409431267;IT;42;anzio, lido dei pini, lavinio lido di enea, colonia di anzio;lazio;roma
roma;1.0762951409431267;IT;176;roma;lazio;roma
roma;1.0762951409431267;IT;126;roma;lazio;roma
roma;1.0762951409431267;IT;139;roma;lazio;roma
roma;1.0762951409431267;IT;189;tomba di nerone, roma, grottarossa;lazio;roma
roma;1.0762951409431267;IT;162;roma;lazio;roma
roma;1.0762951409431267;IT;121;lido di ostia ponente, roma;lazio;roma
roma;1.0762951409431267;IT;128;castel di decima, castel romano, malpasso, roma, tor de' cenci;lazio;roma
roma;1.0762951409431267;IT;185;roma;lazio;roma
roma;1.0762951409431267;IT;41;albano laziale, pavona, pavona stazione, cecchina stazione, cecchina;lazio;roma
latina;1.1091156974284238;IT;4100;borgo sabotino, latina, borgo montello, borgo bainsizza, borgo isonzo, fogliano, borgo piave, borgo san michele, latina scalo, borgo grappa, tor tre ponti, borgo podgora, borgo faiti, foce verde, borgo carso, foro appio, le ferriere;lazio;latina
latina;1.1091156974284238;IT;4023;penitro, acquatraversa di formia, formia, maranola, trivio di formia, castellonorato, vindicio di formia;lazio;latina
latina;1.1091156974284238;IT;4013;sermoneta scalo, carrara, monticchio, doganella, sermoneta, latina aeroporto, doganella di ninfa;lazio;latina
latina;1.1091156974284238;IT;4013;sermoneta scalo, carrara, monticchio, doganella, sermoneta, latina aeroporto, doganella di ninfa;lazio;latina
latina;1.1091156974284238;IT;4100;borgo sabotino, latina, borgo montello, borgo bainsizza, borgo isonzo, fogliano, borgo piave, borgo san michele, latina scalo, borgo grappa, tor tre ponti, borgo podgora, borgo faiti, foce verde, borgo carso, foro appio, le ferriere;lazio;latina
latina;1.1091156974284238;IT;4100;borgo sabotino, latina, borgo montello, borgo bainsizza, borgo isonzo, fogliano, borgo piave, borgo san michele, latina scalo, borgo grappa, tor tre ponti, borgo podgora, borgo faiti, foce verde, borgo carso, foro appio, le ferriere;lazio;latina
latina;1.1091156974284238;IT;4022;fondi, salto di fondi, san magno;lazio;latina
latina;1.1091156974284238;IT;4011;camilleri, torre del padiglione, fossignano, aprilia, pantanelle, campo di carne, carano, vallelata, campoverde, casalazara, campoleone, cogna;lazio;latina
frosinone;1.0740311804008909;IT;3023;ceccano;lazio;frosinone
frosinone;1.0740311804008909;IT;3100;de matteis, frosinone, frosinone stazione, madonna della neve;lazio;frosinone
frosinone;1.0740311804008909;IT;3011;tecchiena, monte san marino, alatri, collelavena;lazio;frosinone
frosinone;1.0740311804008909;IT;3030;madonna della stella, colle san magno, santopadre, villa santa lucia, piedimonte san germano, campoli appennino, villa felice, rocca d'arce, casalattico, posta fibreno, castrocielo, piedimonte san germano alta, coldragone, broccostella, castelliri, vicalvi, piumarola, pescosolido, colfelice, fontechiari;lazio;frosinone
frosinone;1.0740311804008909;IT;3040;casalcassinese, castelnuovo parano, pignataro interamna, belmonte castello, vallemaio, cardito di vallerotonda, san biagio saracinisco, cerreto di vallerotonda, gallinaro, coreno ausonio, ausonia, san vittore del lazio, sant'ambrogio sul garigliano, vallerotonda, picinisco, sant'andrea del garigliano, viticuso, acquafondata, villa latina, selvacava, settefrati, terelle, valvori, pietrafitta;lazio;frosinone
frosinone;1.0740311804008909;IT;3100;de matteis, frosinone, frosinone stazione, madonna della neve;lazio;frosinone
frosinone;1.0740311804008909;IT;3010;fumone, san giovanni, piglio, vico nel lazio, patoni, sgurgola, quattro strade, certosa di trisulti, patrica, pitocco, collepardo, filettino, acuto, la forma, trivigliano, torre cajetani, madonna delle grazie, trevi nel lazio, serrone;lazio;frosinone
frosinone;1.0740311804008909;IT;3011;tecchiena, monte san marino, alatri, collelavena;lazio;frosinone
frosinone;1.0740311804008909;IT;3014;fiuggi fonte, fiuggi;lazio;frosinone
l'aquila;1.0524017467248907;IT;67051;paterno, san pelino, santuario di pietracquaria, avezzano, cese, antrosano;abruzzi;l'aquila
l'aquila;1.0524017467248907;IT;67030;barrea, civitella alfedena, pacentro, goriano sicoli, villa scontrone, ateleta, villetta barrea, opi, cocullo, vittorito, rocca pia, villalago, prezza, bugnara, roccacasale, anversa degli abruzzi, corfinio, campo di fano, castrovalva, cansano, torre dei nolfi, campo di giove, alfedena, scontrone, introdacqua;abruzzi;l'aquila
l'aquila;1.0524017467248907;IT;67100;san benedetto, coppito, l'aquila, poggio di roio, sassa, roio piano, colle di roio, pile, tempera, camarda, bagno, santi, campo imperatore, san vittorino, paganica, pagliare, preturo, aragno, san gregorio, collebrincioni, assergi, pianola, onna, arischia, forcella, san vittorino amiterno, monticchio, colle brincioni, bazzano;abruzzi;l'aquila
teramo;1.1333234465371496;IT;64014;villa rosa di martinsicuro, martinsicuro, villa rosa;abruzzi;teramo
pescara;1.1255361738633114;IT;65029;torre de' passeri;abruzzi;pescara
pescara;1.1255361738633114;IT;65015;montesilvano colle, villa carmine, montesilvano marina, montesilvano, montesilvano spiaggia;abruzzi;pescara
pescara;1.1255361738633114;IT;65015;montesilvano colle, villa carmine, montesilvano marina, montesilvano, montesilvano spiaggia;abruzzi;pescara
pescara;1.1255361738633114;IT;65013;san martino bassa, marina, villa cipresso, citta' sant'angelo;abruzzi;pescara
pescara;1.1255361738633114;IT;65129;pineta di pescara, pescara;abruzzi;pescara
pescara;1.1255361738633114;IT;65100;pescara;abruzzi;pescara
pescara;1.1255361738633114;IT;65015;montesilvano colle, villa carmine, montesilvano marina, montesilvano, montesilvano spiaggia;abruzzi;pescara
pescara;1.1255361738633114;IT;65010;spoltore, brittoli, cappelle sul tavo, vestea, congiunti, elice, barberi, collecorvino, picciano, montebello di bertona, villa raspa, moscufo, farindola, nocciano, santa lucia, civitella casanova, civitaquana, villa celiera, piccianello, caprara d'abruzzo, santa teresa, carpineto della nora, santa lucia di collecorvino, vicoli;abruzzi;pescara
pescara;1.1255361738633114;IT;65019;pianella, cerratina, castellana;abruzzi;pescara
chieti;1.0514383488396963;IT;66054;vasto, incoronata di vasto, san lorenzo di vasto, marina di vasto, vasto marina;abruzzi;chieti
chieti;1.0514383488396963;IT;66010;san martino sulla marrucina, lama dei peligni, terranova, giuliano teatino, san pietro, semivicoli, civitella messer raimondo, lettopalena, colledimacine, miglianico, pennapiedimonte, casacanditella, castelferrato, san rocco, tollo, ripa teatina, palombaro, canosa sannita, villamagna, gessopalena, fara filiorum petri, torrevecchia teatina, montenerodomo, ari, rapino, pretoro, vacri, roccamontepiano;abruzzi;chieti
chieti;1.0514383488396963;IT;66054;vasto, incoronata di vasto, san lorenzo di vasto, marina di vasto, vasto marina;abruzzi;chieti
chieti;1.0514383488396963;IT;66016;guardiagrele, villa san vincenzo, caporosso, comino, piano delle fonti;abruzzi;chieti
chieti;1.0514383488396963;IT;66044;piane d'archi, archi;abruzzi;chieti
chieti;1.0514383488396963;IT;66050;olmi, san salvo, monteodorisio, tufillo, palmoli, san salvo marina, san giovanni lipioni, celenza sul trigno, guilmi, fresagrandinaria, lentella, san buono, carunchio, roccaspinalveti, dogliola, torrebruna, furci, fraine, liscia, guardiabruna;abruzzi;chieti
chieti;1.0514383488396963;IT;66016;guardiagrele, villa san vincenzo, caporosso, comino, piano delle fonti;abruzzi;chieti
chieti;1.0514383488396963;IT;66034;lanciano, villa elce, rizzacorno, madonna del carmine, sant'amato, nasuti;abruzzi;chieti
chieti;1.0514383488396963;IT;66100;chieti, brecciarola, chieti stazione, chieti scalo, tricalle;abruzzi;chieti
chieti;1.0514383488396963;IT;66050;olmi, san salvo, monteodorisio, tufillo, palmoli, san salvo marina, san giovanni lipioni, celenza sul trigno, guilmi, fresagrandinaria, lentella, san buono, carunchio, roccaspinalveti, dogliola, torrebruna, furci, fraine, liscia, guardiabruna;abruzzi;chieti
isernia;1.091312056737589;IT;86170;castelromano, miranda, isernia;molise;isernia
isernia;1.091312056737589;IT;86079;venafro, ceppagna;molise;isernia
campobasso;1.0881621372639336;IT;86035;larino;molise;campobasso
campobasso;1.0881621372639336;IT;86021;bojano, monteverde, castellone di boiano, castellone, monteverde di boiano;molise;campobasso
caserta;7.357674929783856;IT;81100;casola di caserta, san leucio, santa barbara, casola, sala di caserta, caserta, san clemente, tredici, san clemente di caserta, tuoro, casertavecchia, vaccheria, puccianiello, briano, casolla, centurano, ercole, staturano, mezzano, falciano;campania;caserta
caserta;7.357674929783856;IT;81100;casola di caserta, san leucio, santa barbara, casola, sala di caserta, caserta, san clemente, tredici, san clemente di caserta, tuoro, casertavecchia, vaccheria, puccianiello, briano, casolla, centurano, ercole, staturano, mezzano, falciano;campania;caserta
caserta;7.357674929783856;IT;81100;casola di caserta, san leucio, santa barbara, casola, sala di caserta, caserta, san clemente, tredici, san clemente di caserta, tuoro, casertavecchia, vaccheria, puccianiello, briano, casolla, centurano, ercole, staturano, mezzano, falciano;campania;caserta
caserta;7.357674929783856;IT;81030;castel volturno, lusciano, arnone, orta di atella, casanova, baia domizia, cancello, sant'arpino, villaggio coppola pinetamare, villa di briano, cancello ed arnone, cesa, casale di carinola, carinola, casale, nocelleto, casapesenna, succivo, san marcellino, frignano, cellole, casaluce, teverola, gricignano di aversa, parete, falciano del massico;campania;caserta
caserta;7.357674929783856;IT;81030;castel volturno, lusciano, arnone, orta di atella, casanova, baia domizia, cancello, sant'arpino, villaggio coppola pinetamare, villa di briano, cancello ed arnone, cesa, casale di carinola, carinola, casale, nocelleto, casapesenna, succivo, san marcellino, frignano, cellole, casaluce, teverola, gricignano di aversa, parete, falciano del massico;campania;caserta
benevento;2.696877096221212;IT;82100;perrillo, pastene, benevento;campania;benevento
benevento;2.696877096221212;IT;82100;perrillo, pastene, benevento;campania;benevento
napoli;0.1297800928048713;IT;80128;napoli;campania;napoli
napoli;0.1297800928048713;IT;80010;scalzapecora, villaricca, torretta, quarto;campania;napoli
napoli;0.1297800928048713;IT;80053;castellammare di stabia, ponte della persica, quisisana, scanzano;campania;napoli
napoli;0.1297800928048713;IT;80144;san pietro a patierno, secondigliano, napoli;campania;napoli
napoli;0.1297800928048713;IT;80126;pianura, soccavo, napoli;campania;napoli
napoli;0.1297800928048713;IT;80029;sant'antimo;campania;napoli
napoli;0.1297800928048713;IT;80141;napoli;campania;napoli
napoli;0.1297800928048713;IT;80021;afragola;campania;napoli
napoli;0.1297800928048713;IT;80038;pomigliano d'arco;campania;napoli
napoli;0.1297800928048713;IT;80055;portici, bellavista;campania;napoli
napoli;0.1297800928048713;IT;80058;torre annunziata;campania;napoli
napoli;0.1297800928048713;IT;80016;marano di napoli, torre piscitelli, san rocco;campania;napoli
napoli;0.1297800928048713;IT;80059;torre del greco, leopardi, santa maria la bruna;campania;napoli
napoli;0.1297800928048713;IT;80133;napoli;campania;napoli
napoli;0.1297800928048713;IT;80145;marianella, piscinola, chiaiano ed uniti, miano, scampia, napoli;campania;napoli
napoli;0.1297800928048713;IT;80014;varcaturo, giugliano in campania, lago patria;campania;napoli
napoli;0.1297800928048713;IT;80124;bagnoli, napoli;campania;napoli
napoli;0.1297800928048713;IT;80058;torre annunziata;campania;napoli
napoli;0.1297800928048713;IT;80045;pompei scavi, pompei, mariconda, messigno;campania;napoli
napoli;0.1297800928048713;IT;80038;pomigliano d'arco;campania;napoli
napoli;0.1297800928048713;IT;80128;napoli;campania;napoli
napoli;0.1297800928048713;IT;80014;varcaturo, giugliano in campania, lago patria;campania;napoli
napoli;0.1297800928048713;IT;80126;pianura, soccavo, napoli;campania;napoli
napoli;0.1297800928048713;IT;80026;casoria, arpino;campania;napoli
napoli;0.1297800928048713;IT;80139;napoli;campania;napoli
napoli;0.1297800928048713;IT;80100;napoli;campania;napoli
napoli;0.1297800928048713;IT;80139;napoli;campania;napoli
napoli;0.1297800928048713;IT;80045;pompei scavi, pompei, mariconda, messigno;campania;napoli
napoli;0.1297800928048713;IT;80144;san pietro a patierno, secondigliano, napoli;campania;napoli
napoli;0.1297800928048713;IT;80100;napoli;campania;napoli
napoli;0.1297800928048713;IT;80017;melito di napoli;campania;napoli
napoli;0.1297800928048713;IT;80022;arzano;campania;napoli
napoli;0.1297800928048713;IT;80010;scalzapecora, villaricca, torretta, quarto;campania;napoli
napoli;0.1297800928048713;IT;80014;varcaturo, giugliano in campania, lago patria;campania;napoli
avellino;6.382742551966071;IT;83100;picarelli, bellizzi irpino, valle ponticelli, avellino;campania;avellino
avellino;6.382742551966071;IT;83028;serino, canale, sala, ferrari stazione serino, san sossio di serino, san biagio;campania;avellino
avellino;6.382742551966071;IT;83028;serino, canale, sala, ferrari stazione serino, san sossio di serino, san biagio;campania;avellino
avellino;6.382742551966071;IT;83100;picarelli, bellizzi irpino, valle ponticelli, avellino;campania;avellino
avellino;6.382742551966071;IT;83012;trescine, ioffredo, cervinara;campania;avellino
avellino;6.382742551966071;IT;83020;san michele di serino, moschiano, tavernola san felice, contrada, petruro, quindici, marzano di nola, sperone, celzi, cesinali, pago del vallo di lauro, santa lucia di serino, quadrelle, domicella, aiello del sabato, casola, forino, sirignano, taurano;campania;avellino
avellino;6.382742551966071;IT;83042;atripalda;campania;avellino
salerno;0.4822293486674776;IT;84096;montecorvino rovella, lenzi, macchia, san martino montecorvino rovella, gauro;campania;salerno
salerno;0.4822293486674776;IT;84069;carratiello, roccadaspide, acquaviva, serra, fonte;campania;salerno
salerno;0.4822293486674776;IT;84069;carratiello, roccadaspide, acquaviva, serra, fonte;campania;salerno
salerno;0.4822293486674776;IT;84015;materdomini di nocera, nocera superiore;campania;salerno
salerno;0.4822293486674776;IT;84100;salerno;campania;salerno
salerno;0.4822293486674776;IT;84129;salerno;campania;salerno
salerno;0.4822293486674776;IT;84035;polla;campania;salerno
salerno;0.4822293486674776;IT;84091;sant'anna, battipaglia, belvedere di battipaglia, santa lucia di battipaglia;campania;salerno
salerno;0.4822293486674776;IT;84014;nocera inferiore;campania;salerno
salerno;0.4822293486674776;IT;84135;salerno, fratte, ogliara, matierno;campania;salerno
salerno;0.4822293486674776;IT;84084;villa, settefichi, fisciano, penta, pizzolano, bolano, lancusi, gaiano;campania;salerno
salerno;0.4822293486674776;IT;84100;salerno;campania;salerno
salerno;0.4822293486674776;IT;84012;angri;campania;salerno
salerno;0.4822293486674776;IT;84133;salerno;campania;salerno
salerno;0.4822293486674776;IT;84010;sant'egidio del monte albino, maiori, conca dei marini, san marzano sul sarno, ravello, pontone, cetara, san michele, scala, erchie, tramonti, campinola, furore, praiano, san lorenzo di sant'egidio, atrani, corbara, san valentino torio, minori;campania;salerno
salerno;0.4822293486674776;IT;84091;sant'anna, battipaglia, belvedere di battipaglia, santa lucia di battipaglia;campania;salerno
salerno;0.4822293486674776;IT;84025;corno d'oro, santa cecilia di eboli, eboli, bivio santa cecilia;campania;salerno
salerno;0.4822293486674776;IT;84014;nocera inferiore;campania;salerno
salerno;0.4822293486674776;IT;84010;sant'egidio del monte albino, maiori, conca dei marini, san marzano sul sarno, ravello, pontone, cetara, san michele, scala, erchie, tramonti, campinola, furore, praiano, san lorenzo di sant'egidio, atrani, corbara, san valentino torio, minori;campania;salerno
salerno;0.4822293486674776;IT;84129;salerno;campania;salerno
salerno;0.4822293486674776;IT;84080;capriglia, cologna, pellezzano, capezzano superiore, coperchia, capezzano inferiore, capezzano, calvanico;campania;salerno
taranto;2.047967905110762;IT;74121;taranto;puglia;taranto
taranto;2.047967905110762;IT;74122;taranto;puglia;taranto
taranto;2.047967905110762;IT;74121;taranto;puglia;taranto
taranto;2.047967905110762;IT;74122;taranto;puglia;taranto
taranto;2.047967905110762;IT;74121;taranto;puglia;taranto
brindisi;11.033944786397708;IT;72100;brindisi, brindisi casale;puglia;brindisi
brindisi;11.033944786397708;IT;72100;brindisi, brindisi casale;puglia;brindisi
brindisi;11.033944786397708;IT;72100;brindisi, brindisi casale;puglia;brindisi
brindisi;11.033944786397708;IT;72017;ostuni;puglia;brindisi
lecce;0.7393702395891091;IT;73014;gallipoli;puglia;lecce
lecce;0.7393702395891091;IT;73100;lecce, torre chianca, san cataldo, frigole;puglia;lecce
lecce;0.7393702395891091;IT;73023;merine, lizzanello;puglia;lecce
lecce;0.7393702395891091;IT;73048;nardo';puglia;lecce
lecce;0.7393702395891091;IT;73100;lecce, torre chianca, san cataldo, frigole;puglia;lecce
lecce;0.7393702395891091;IT;73020;castromediano, cerfignano, castrignano de' greci, serrano, martignano, melpignano, cannole, scorrano, giurdignano, uggiano la chiesa, botrugno, carpignano salentino, castri di lecce, san cassiano, cutrofiano, cavallino, santa cesarea terme, vitigliano, casamassella, bagnolo del salento, cursi, palmariggi, nociglia;puglia;lecce
lecce;0.7393702395891091;IT;73042;casarano;puglia;lecce
lecce;0.7393702395891091;IT;73020;castromediano, cerfignano, castrignano de' greci, serrano, martignano, melpignano, cannole, scorrano, giurdignano, uggiano la chiesa, botrugno, carpignano salentino, castri di lecce, san cassiano, cutrofiano, cavallino, santa cesarea terme, vitigliano, casamassella, bagnolo del salento, cursi, palmariggi, nociglia;puglia;lecce
foggia;0.7192835820895522;IT;71043;manfredonia, siponto;puglia;foggia
foggia;0.7192835820895522;IT;71013;matine, san giovanni rotondo;puglia;foggia
bari;0.7986606366324578;IT;70131;carbonara di bari;puglia;bari
bari;0.7986606366324578;IT;70126;torre a mare, bari, mungivacca, japigia;puglia;bari
bari;0.7986606366324578;IT;70125;bari, carrassi, san pasquale;puglia;bari
bari;0.7986606366324578;IT;70010;san marco, cellamare, superga, adelfia montrone, adelfia, locorotondo, sammichele di bari, trito, capurso, san pietro, turi, casamassima, adelfia canneto, valenzano;puglia;bari
bari;0.7986606366324578;IT;70033;corato;puglia;bari
bari;0.7986606366324578;IT;70032;mariotto, bitonto, palombaio;puglia;bari
bari;0.7986606366324578;IT;70032;mariotto, bitonto, palombaio;puglia;bari
bari;0.7986606366324578;IT;70123;fesca, san paolo, bari, san francesco dell'arena, san cataldo, san girolamo, stanic;puglia;bari
bari;0.7986606366324578;IT;70044;polignano a mare;puglia;bari
bari;0.7986606366324578;IT;70054;giovinazzo;puglia;bari
bari;0.7986606366324578;IT;70124;bari, poggio franco, picone;puglia;bari
bari;0.7986606366324578;IT;70027;palo del colle;puglia;bari
bari;0.7986606366324578;IT;70123;fesca, san paolo, bari, san francesco dell'arena, san cataldo, san girolamo, stanic;puglia;bari
bari;0.7986606366324578;IT;70126;torre a mare, bari, mungivacca, japigia;puglia;bari
bari;0.7986606366324578;IT;70026;modugno;puglia;bari
bari;0.7986606366324578;IT;70125;bari, carrassi, san pasquale;puglia;bari
bari;0.7986606366324578;IT;70024;murgetta, gravina in puglia, dolcecanto, la murgetta;puglia;bari
bari;0.7986606366324578;IT;70125;bari, carrassi, san pasquale;puglia;bari
bari;0.7986606366324578;IT;70018;rutigliano;puglia;bari
bari;0.7986606366324578;IT;70010;san marco, cellamare, superga, adelfia montrone, adelfia, locorotondo, sammichele di bari, trito, capurso, san pietro, turi, casamassima, adelfia canneto, valenzano;puglia;bari
bari;0.7986606366324578;IT;70017;san michele in monte laureto, san pietro piturno, putignano;puglia;bari
bari;0.7986606366324578;IT;70026;modugno;puglia;bari
bari;0.7986606366324578;IT;70054;giovinazzo;puglia;bari
bari;0.7986606366324578;IT;70125;bari, carrassi, san pasquale;puglia;bari
bari;0.7986606366324578;IT;70128;palese;puglia;bari
bari;0.7986606366324578;IT;70015;noci, lamadacqua;puglia;bari
bari;0.7986606366324578;IT;70029;santeramo in colle;puglia;bari
bari;0.7986606366324578;IT;70121;bari;puglia;bari
bari;0.7986606366324578;IT;70126;torre a mare, bari, mungivacca, japigia;puglia;bari
bari;0.7986606366324578;IT;70044;polignano a mare;puglia;bari
bari;0.7986606366324578;IT;70010;san marco, cellamare, superga, adelfia montrone, adelfia, locorotondo, sammichele di bari, trito, capurso, san pietro, turi, casamassima, adelfia canneto, valenzano;puglia;bari
bari;0.7986606366324578;IT;70026;modugno;puglia;bari
bari;0.7986606366324578;IT;70124;bari, poggio franco, picone;puglia;bari
barletta-andria-trani;2.3098633614574777;IT;76121;barletta;puglia;barletta-andria-trani
barletta-andria-trani;2.3098633614574777;IT;76121;barletta;puglia;barletta-andria-trani
barletta-andria-trani;2.3098633614574777;IT;76012;canosa di puglia, loconia;puglia;barletta-andria-trani
barletta-andria-trani;2.3098633614574777;IT;76011;bisceglie;puglia;barletta-andria-trani
potenza;3.0740124978501404;IT;85010;pantano, san chirico nuovo, missanello, cancellara, calvello, armento, brindisi montagna, madonna del pantano, abriola, pignola, castelmezzano, guardia perticara, pietrapertosa, campomaggiore, vaglio basilicata, anzi, albano di lucania, rifreddo, banzi, gallicchio;basilicata;potenza
potenza;3.0740124978501404;IT;85047;moliterno;basilicata;potenza
potenza;3.0740124978501404;IT;85038;senise;basilicata;potenza
potenza;3.0740124978501404;IT;85028;monticchio bagni, monticchio, rionero in vulture;basilicata;potenza
potenza;3.0740124978501404;IT;85021;piano del conte, possidente, san cataldo di bella, castel lagopesole, avigliano, san cataldo, sant'angelo;basilicata;potenza
potenza;3.0740124978501404;IT;85025;foggiano, melfi, leonessa di melfi;basilicata;potenza
potenza;3.0740124978501404;IT;85040;castelluccio inferiore, pedali di viggianello, castelluccio superiore, viggianello, san costantino di rivello, nemoli, rivello, san costantino;basilicata;potenza
potenza;3.0740124978501404;IT;85050;marsicovetere, paterno, savoia di lucania, sant'angelo le fratte, tito scalo, balvano, scalo di baragiano, satriano di lucania, brienza, baragiano scalo, baragiano, sasso di castalda, villa d'agri, tito, castelgrande, grumento nova, sarconi;basilicata;potenza
potenza;3.0740124978501404;IT;85100;potenza, giuliano, montocchio;basilicata;potenza
matera;1.960220464893362;IT;75022;irsina, taccone;basilicata;matera
matera;1.960220464893362;IT;75013;ferrandina, macchia, borgo macchia;basilicata;matera
cosenza;0.6177509324355547;IT;87040;tivolille, altilia, castrolibero, cerzeto, stazione di mongrassano, san giacomo, mendicino, zumpano, parenti, tarsia, montalto uffugo scalo, san giacomo di cerzeto, marano marchesato, san benedetto ullano, san bartolo, paterno calabro, rosario, mongrassano stazione, castiglione cosentino, andreotta, ortomatera, andreotta di castrolibero, san lorenzo del vallo, deposito di luzzi, mongrassano, cavallerizzo, maione, casal di basso, rose, luzzi, taverna di montalto uffugo, timparello, marano principato, timparello di luzzi, malavicina;calabria;cosenza
cosenza;0.6177509324355547;IT;87058;spezzano della sila;calabria;cosenza
cosenza;0.6177509324355547;IT;87012;castrovillari, vigne di castrovillari;calabria;cosenza
cosenza;0.6177509324355547;IT;87070;plataci, montegiordano marina, san lorenzo bellizzi, castroregio, farneta, piana di cerchiara, nocara, roseto capo spulico, cerchiara di calabria, canna, alessandria del carretto, roseto capo spulico stazione, montegiordano, borgata marina, albidona;calabria;cosenza
cosenza;0.6177509324355547;IT;87017;roggiano gravina;calabria;cosenza
cosenza;0.6177509324355547;IT;87020;sangineto, papasidero, marcellina, verbicaro, cittadella del capo, guardia piemontese terme, orsomarso, sangineto lido, torrevecchia, tortora marina, buonvicino, santa domenica talao, marina di tortora, intavolata, san nicola arcella, tortora, guardia piemontese marina, grisolia, santa maria del cedro, bonifati, maiera', acquappesa marina, le crete, guardia piemontese, aieta, acquappesa, granata;calabria;cosenza
cosenza;0.6177509324355547;IT;87027;fosse, paola, san miceli, paola marina, paola santuario, santuario san francesco;calabria;cosenza
crotone;1.4014869888475836;IT;88900;crotone, villaggio bucchi, papanice;calabria;crotone
catanzaro;2.138850208872091;IT;88020;cortale, jacurso;calabria;catanzaro
catanzaro;2.138850208872091;IT;88046;acquafredda, santa eufemia lamezia, nicastro, caronte, sambiase, fronti, sambiase di lamezia terme, zangarona, sant'eufemia di lamezia terme, zangarona di lamezia terme, bella di lamezia terme, gabella, lamezia terme, san pietro lametino;calabria;catanzaro
catanzaro;2.138850208872091;IT;88041;cerrisi, decollatura, adami, san bernardo;calabria;catanzaro
catanzaro;2.138850208872091;IT;88100;catanzaro, cava di catanzaro, siano, sant'elia, catanzaro sala, pontegrande, santa maria di catanzaro, catanzaro lido;calabria;catanzaro
reggio di calabria;0.6700941094458;IT;89030;san luca, belloro, samo, bruzzano zeffirio, caraffa del bianco, benestare, staiti, motticella, condofuri, casignana, natile, condofuri marina, san carlo, natile nuovo, ferruzzano, canalello, africo, santuario di polsi, natile vecchio, careri, sant'agata del bianco;calabria;reggio di calabria
reggio di calabria;0.6700941094458;IT;89122;vito, reggio calabria;calabria;reggio di calabria
reggio di calabria;0.6700941094458;IT;89124;eremo, reggio calabria;calabria;reggio di calabria
reggio di calabria;0.6700941094458;IT;89124;eremo, reggio calabria;calabria;reggio di calabria
reggio di calabria;0.6700941094458;IT;89040;condojanni, cimina', riace marina, bivongi, placanica, pazzano, stignano, agnana calabra, marina di sant'ilario dello ionio, monasterace marina, san giovanni di gerace, monasterace, canolo, portigliola, antonimina, cirella, marina di caulonia, sant'ilario dello ionio, martone, camini, gerace, riace, canolo nuova;calabria;reggio di calabria
reggio di calabria;0.6700941094458;IT;89049;stilo;calabria;reggio di calabria
reggio di calabria;0.6700941094458;IT;89043;grotteria, croce ferrata;calabria;reggio di calabria
reggio di calabria;0.6700941094458;IT;89030;san luca, belloro, samo, bruzzano zeffirio, caraffa del bianco, benestare, staiti, motticella, condofuri, casignana, natile, condofuri marina, san carlo, natile nuovo, ferruzzano, canalello, africo, santuario di polsi, natile vecchio, careri, sant'agata del bianco;calabria;reggio di calabria
trapani;0.3666857648835877;IT;91021;campobello di mazara, tre fontane, granitola torretta;sicilia;trapani
trapani;0.3666857648835877;IT;91011;alcamo;sicilia;trapani
trapani;0.3666857648835877;IT;91100;ummari, rilievo, san giuliano trentapiedi, trapani, xitta, guarrato, marausa, salinagrande, marausa loco grande, locogrande, birgi aerostazione, fulgatore, borgo annunziata, borgo fazio, fontanelle casasanta;sicilia;trapani
trapani;0.3666857648835877;IT;91022;triscina, marinella di selinunte, castelvetrano, marinella;sicilia;trapani
trapani;0.3666857648835877;IT;91020;poggioreale, petrosino, costiera di mazara, granitola, salaparuta;sicilia;trapani
palermo;0.4782438259506076;IT;90143;palermo;sicilia;palermo
palermo;0.4782438259506076;IT;90011;bagheria, aspra;sicilia;palermo
palermo;0.4782438259506076;IT;90015;cefalu', sant'ambrogio, gibilmanna;sicilia;palermo
palermo;0.4782438259506076;IT;90144;palermo;sicilia;palermo
palermo;0.4782438259506076;IT;90146;san lorenzo colli, palermo, in via san nicola, pallavicino, cruillas, resuttana san lorenzo;sicilia;palermo
palermo;0.4782438259506076;IT;90129;palermo;sicilia;palermo
palermo;0.4782438259506076;IT;90044;carini, villagrazia di carini;sicilia;palermo
palermo;0.4782438259506076;IT;90123;palermo, settecannoli;sicilia;palermo
palermo;0.4782438259506076;IT;90121;in via ammiraglio cristodulo, boccadifalco, palermo, acqua dei corsari, in via messina marine, brancaccio ciaculli;sicilia;palermo
palermo;0.4782438259506076;IT;90146;san lorenzo colli, palermo, in via san nicola, pallavicino, cruillas, resuttana san lorenzo;sicilia;palermo
messina;0.690989010989011;IT;98035;pallio, naxos, giardini naxos;sicilia;messina
messina;0.690989010989011;IT;98121;messina;sicilia;messina
messina;0.690989010989011;IT;98125;messina, contesse;sicilia;messina
messina;0.690989010989011;IT;98071;scafa, capo d'orlando, piana di capo d'orlando;sicilia;messina
messina;0.690989010989011;IT;98028;santa teresa di riva, barracca, misserio;sicilia;messina
messina;0.690989010989011;IT;98028;santa teresa di riva, barracca, misserio;sicilia;messina
messina;0.690989010989011;IT;98040;condro', gualtieri sicamino', venetico marina, torregrotta, scala di torregrotta, venetico superiore, valdina, venetico, soccorso, roccavaldina, fondachello, meri';sicilia;messina
messina;0.690989010989011;IT;98029;guidomandri superiore, guidomandri, scaletta zanclea, guidomandri marina;sicilia;messina
messina;0.690989010989011;IT;98043;gimello, rometta, rometta marea, sant'andrea;sicilia;messina
messina;0.690989010989011;IT;98127;messina, zafferia;sicilia;messina
messina;0.690989010989011;IT;98076;torrecandele, vallebruca, sant'agata di militello;sicilia;messina
messina;0.690989010989011;IT;98121;messina;sicilia;messina
messina;0.690989010989011;IT;98051;la gala, sant'antonio, gala, barcellona pozzo di gotto, cannistra', caldera', acquaficara, porto salvo, san paolo, pozzo di gotto, sant'antonino convento;sicilia;messina
messina;0.690989010989011;IT;98149;messina, camaro inferiore, cataratti, camaro;sicilia;messina
messina;0.690989010989011;IT;98147;messina, villaggio aldisio;sicilia;messina
agrigento;2.777745126848859;IT;92025;casteltermini, casteltermini zolfare, zolfare;sicilia;agrigento
agrigento;2.777745126848859;IT;92100;montaperto, agrigento, villaggio mose', borgo la loggia, villaseta, giardina gallotti, san leone mose';sicilia;agrigento
agrigento;2.777745126848859;IT;92019;sciacca;sicilia;agrigento
agrigento;2.777745126848859;IT;92027;licata;sicilia;agrigento
agrigento;2.777745126848859;IT;92028;naro;sicilia;agrigento
caltanissetta;2.576181411901018;IT;93012;gela;sicilia;caltanissetta
caltanissetta;2.576181411901018;IT;93015;niscemi;sicilia;caltanissetta
enna;2.656110836219693;IT;94010;assoro, centuripe, catenanuova, san giorgio, gagliano castelferrato, villapriolo, borgo baccarato, nissoria, cacchiamo, aidone, cerami, calascibetta, sperlinga, villarosa;sicilia;enna
catania;0.2884053264046768;IT;95028;valverde;sicilia;catania
catania;0.2884053264046768;IT;95030;sant'agata li battiati, tremestieri etneo, san pietro clarenza, mascalucia, maniace, pedara, canalicchio, gravina di catania, ragalna, nicolosi;sicilia;catania
catania;0.2884053264046768;IT;95123;san nullo, catania, cibali;sicilia;catania
catania;0.2884053264046768;IT;95025;lavinaio, monterosso, santa maria la stella, lavina, aci sant'antonio, monterosso etneo;sicilia;catania
catania;0.2884053264046768;IT;95100;catania;sicilia;catania
catania;0.2884053264046768;IT;95028;valverde;sicilia;catania
catania;0.2884053264046768;IT;95127;picanello, catania;sicilia;catania
catania;0.2884053264046768;IT;95121;zia lisa, san giuseppe alla rena, catania, fontanarossa aereoporto, san teodoro, san giorgio, santa maria goretti;sicilia;catania
catania;0.2884053264046768;IT;95045;san nullo, misterbianco;sicilia;catania
catania;0.2884053264046768;IT;95100;catania;sicilia;catania
catania;0.2884053264046768;IT;95030;sant'agata li battiati, tremestieri etneo, san pietro clarenza, mascalucia, maniace, pedara, canalicchio, gravina di catania, ragalna, nicolosi;sicilia;catania
catania;0.2884053264046768;IT;95125;canalicchio, barriera del bosco, catania;sicilia;catania
catania;0.2884053264046768;IT;95125;canalicchio, barriera del bosco, catania;sicilia;catania
catania;0.2884053264046768;IT;95030;sant'agata li battiati, tremestieri etneo, san pietro clarenza, mascalucia, maniace, pedara, canalicchio, gravina di catania, ragalna, nicolosi;sicilia;catania
catania;0.2884053264046768;IT;95125;canalicchio, barriera del bosco, catania;sicilia;catania
catania;0.2884053264046768;IT;95014;macchia di giarre, san giovanni, san leonardello, carruba, giarre, san giovanni montebello, altarello, trepunti;sicilia;catania
catania;0.2884053264046768;IT;95121;zia lisa, san giuseppe alla rena, catania, fontanarossa aereoporto, san teodoro, san giorgio, santa maria goretti;sicilia;catania
ragusa;0.7096316163130079;IT;97015;frigintini, rocciola sorda, modica, modica alta, cava d'ispica;sicilia;ragusa
ragusa;0.7096316163130079;IT;97100;ragusa, ragusa ibla;sicilia;ragusa
ragusa;0.7096316163130079;IT;97016;pozzallo;sicilia;ragusa
siracusa;2.7754473278824507;IT;96100;belvedere, cassibile, belvedere di siracusa, siracusa, carrozziere;sicilia;siracusa
siracusa;2.7754473278824507;IT;96011;brucoli, augusta;sicilia;siracusa
siracusa;2.7754473278824507;IT;96017;san corrado di fuori, san paolo di noto, castelluccio, rigolizia, santa lucia, santa lucia di noto, testa dell'acqua, noto, san paolo;sicilia;siracusa
siracusa;2.7754473278824507;IT;96100;belvedere, cassibile, belvedere di siracusa, siracusa, carrozziere;sicilia;siracusa
siracusa;2.7754473278824507;IT;96011;brucoli, augusta;sicilia;siracusa
siracusa;2.7754473278824507;IT;96013;pedagaggi, borgo rizza, carlentini;sicilia;siracusa
siracusa;2.7754473278824507;IT;96100;belvedere, cassibile, belvedere di siracusa, siracusa, carrozziere;sicilia;siracusa
siracusa;2.7754473278824507;IT;96018;pachino, marzamemi;sicilia;siracusa
siracusa;2.7754473278824507;IT;96100;belvedere, cassibile, belvedere di siracusa, siracusa, carrozziere;sicilia;siracusa
sassari;0.2030539808998519;IT;7026;porto rotondo, olbia, san pantaleo, berchiddeddu;sardegna;sassari
sassari;0.2030539808998519;IT;7011;bono;sardegna;sassari
sassari;0.2030539808998519;IT;7017;ploaghe;sardegna;sassari
sassari;0.2030539808998519;IT;7026;porto rotondo, olbia, san pantaleo, berchiddeddu;sardegna;sassari
cagliari;1.5065240083507307;IT;9121;cagliari;sardegna;cagliari
cagliari;1.5065240083507307;IT;9040;maracalagonis, san basilio, burcei, guasila, settimo san pietro, ballao, castiadas, arixi, goni, sant'andrea frius, san nicolo' gerrei, ortacesus, armungia, villasalto, soleminis, donori', senorbi', serdiana, villaputzu, barrali, silius, san vito, suelli, selegas, gesico, siurgus donigala, guamaggiore, santa maria, mandas, sisini, segariu, furtei;sardegna;cagliari
cagliari;1.5065240083507307;IT;9100;cagliari;sardegna;cagliari
cagliari;1.5065240083507307;IT;9020;samatzai, ussana, pimentel, siddi, villamar, collinas, las plassas, gesturi, villanovafranca, genuri, pauli arbarei, villanovaforru, turri, ussaramanna;sardegna;cagliari
cagliari;1.5065240083507307;IT;9045;flumini di quartu sant'elena, quartu sant'elena;sardegna;cagliari
cagliari;1.5065240083507307;IT;9040;maracalagonis, san basilio, burcei, guasila, settimo san pietro, ballao, castiadas, arixi, goni, sant'andrea frius, san nicolo' gerrei, ortacesus, armungia, villasalto, soleminis, donori', senorbi', serdiana, villaputzu, barrali, silius, san vito, suelli, selegas, gesico, siurgus donigala, guamaggiore, santa maria, mandas, sisini, segariu, furtei;sardegna;cagliari
cagliari;1.5065240083507307;IT;9020;samatzai, ussana, pimentel, siddi, villamar, collinas, las plassas, gesturi, villanovafranca, genuri, pauli arbarei, villanovaforru, turri, ussaramanna;sardegna;cagliari
cagliari;1.5065240083507307;IT;9100;cagliari;sardegna;cagliari
cagliari;1.5065240083507307;IT;9121;cagliari;sardegna;cagliari
cagliari;1.5065240083507307;IT;9045;flumini di quartu sant'elena, quartu sant'elena;sardegna;cagliari
cagliari;1.5065240083507307;IT;9012;poggio dei pini, capoterra, la maddalena, san leone;sardegna;cagliari
cagliari;1.5065240083507307;IT;9032;assemini, macchiareddu;sardegna;cagliari
cagliari;1.5065240083507307;IT;9125;cagliari;sardegna;cagliari
oristano;1.4111702127659576;IT;9096;santa giusta;sardegna;oristano
